[
  {
    "province_id": "10",
    "amphur_id": "1001",
    "name_th": "\u0e40\u0e02\u0e15\u0e1e\u0e23\u0e30\u0e19\u0e04\u0e23   ",
    "name_en": "Khet Phra Nakhon"
  },
  {
    "province_id": "10",
    "amphur_id": "1002",
    "name_th": "\u0e40\u0e02\u0e15\u0e14\u0e38\u0e2a\u0e34\u0e15   ",
    "name_en": "Khet Dusit"
  },
  {
    "province_id": "10",
    "amphur_id": "1003",
    "name_th": "\u0e40\u0e02\u0e15\u0e2b\u0e19\u0e2d\u0e07\u0e08\u0e2d\u0e01   ",
    "name_en": "Khet  Nong Chok"
  },
  {
    "province_id": "10",
    "amphur_id": "1004",
    "name_th": "\u0e40\u0e02\u0e15\u0e1a\u0e32\u0e07\u0e23\u0e31\u0e01   ",
    "name_en": "Khet Bang Rak"
  },
  {
    "province_id": "10",
    "amphur_id": "1005",
    "name_th": "\u0e40\u0e02\u0e15\u0e1a\u0e32\u0e07\u0e40\u0e02\u0e19   ",
    "name_en": "Khet Bang Khen"
  },
  {
    "province_id": "10",
    "amphur_id": "1006",
    "name_th": "\u0e40\u0e02\u0e15\u0e1a\u0e32\u0e07\u0e01\u0e30\u0e1b\u0e34   ",
    "name_en": "Khet Bang Kapi"
  },
  {
    "province_id": "10",
    "amphur_id": "1007",
    "name_th": "\u0e40\u0e02\u0e15\u0e1b\u0e17\u0e38\u0e21\u0e27\u0e31\u0e19   ",
    "name_en": "Khet Pathum Wan"
  },
  {
    "province_id": "10",
    "amphur_id": "1008",
    "name_th": "\u0e40\u0e02\u0e15\u0e1b\u0e49\u0e2d\u0e21\u0e1b\u0e23\u0e32\u0e1a\u0e28\u0e31\u0e15\u0e23\u0e39\u0e1e\u0e48\u0e32\u0e22   ",
    "name_en": "Khet Pom Prap Sattru Phai"
  },
  {
    "province_id": "10",
    "amphur_id": "1009",
    "name_th": "\u0e40\u0e02\u0e15\u0e1e\u0e23\u0e30\u0e42\u0e02\u0e19\u0e07   ",
    "name_en": "Khet Phra Khanong"
  },
  {
    "province_id": "10",
    "amphur_id": "1010",
    "name_th": "\u0e40\u0e02\u0e15\u0e21\u0e35\u0e19\u0e1a\u0e38\u0e23\u0e35   ",
    "name_en": "Khet Min Buri"
  },
  {
    "province_id": "10",
    "amphur_id": "1011",
    "name_th": "\u0e40\u0e02\u0e15\u0e25\u0e32\u0e14\u0e01\u0e23\u0e30\u0e1a\u0e31\u0e07   ",
    "name_en": "Khet Lat Krabang"
  },
  {
    "province_id": "10",
    "amphur_id": "1012",
    "name_th": "\u0e40\u0e02\u0e15\u0e22\u0e32\u0e19\u0e19\u0e32\u0e27\u0e32   ",
    "name_en": "Khet Yan Nawa"
  },
  {
    "province_id": "10",
    "amphur_id": "1013",
    "name_th": "\u0e40\u0e02\u0e15\u0e2a\u0e31\u0e21\u0e1e\u0e31\u0e19\u0e18\u0e27\u0e07\u0e28\u0e4c   ",
    "name_en": "Khet Samphanthawong"
  },
  {
    "province_id": "10",
    "amphur_id": "1014",
    "name_th": "\u0e40\u0e02\u0e15\u0e1e\u0e0d\u0e32\u0e44\u0e17   ",
    "name_en": "Khet Phaya Thai"
  },
  {
    "province_id": "10",
    "amphur_id": "1015",
    "name_th": "\u0e40\u0e02\u0e15\u0e18\u0e19\u0e1a\u0e38\u0e23\u0e35   ",
    "name_en": "Khet Thon Buri"
  },
  {
    "province_id": "10",
    "amphur_id": "1016",
    "name_th": "\u0e40\u0e02\u0e15\u0e1a\u0e32\u0e07\u0e01\u0e2d\u0e01\u0e43\u0e2b\u0e0d\u0e48   ",
    "name_en": "Khet Bangkok Yai"
  },
  {
    "province_id": "10",
    "amphur_id": "1017",
    "name_th": "\u0e40\u0e02\u0e15\u0e2b\u0e49\u0e27\u0e22\u0e02\u0e27\u0e32\u0e07   ",
    "name_en": "Khet Huai Khwang"
  },
  {
    "province_id": "10",
    "amphur_id": "1018",
    "name_th": "\u0e40\u0e02\u0e15\u0e04\u0e25\u0e2d\u0e07\u0e2a\u0e32\u0e19   ",
    "name_en": "Khet Khlong San"
  },
  {
    "province_id": "10",
    "amphur_id": "1019",
    "name_th": "\u0e40\u0e02\u0e15\u0e15\u0e25\u0e34\u0e48\u0e07\u0e0a\u0e31\u0e19   ",
    "name_en": "Khet Taling Chan"
  },
  {
    "province_id": "10",
    "amphur_id": "1020",
    "name_th": "\u0e40\u0e02\u0e15\u0e1a\u0e32\u0e07\u0e01\u0e2d\u0e01\u0e19\u0e49\u0e2d\u0e22   ",
    "name_en": "Khet Bangkok Noi"
  },
  {
    "province_id": "10",
    "amphur_id": "1021",
    "name_th": "\u0e40\u0e02\u0e15\u0e1a\u0e32\u0e07\u0e02\u0e38\u0e19\u0e40\u0e17\u0e35\u0e22\u0e19   ",
    "name_en": "Khet Bang Khun Thian"
  },
  {
    "province_id": "10",
    "amphur_id": "1022",
    "name_th": "\u0e40\u0e02\u0e15\u0e20\u0e32\u0e29\u0e35\u0e40\u0e08\u0e23\u0e34\u0e0d   ",
    "name_en": "Khet Phasi Charoen"
  },
  {
    "province_id": "10",
    "amphur_id": "1023",
    "name_th": "\u0e40\u0e02\u0e15\u0e2b\u0e19\u0e2d\u0e07\u0e41\u0e02\u0e21   ",
    "name_en": "Khet Nong Khaem"
  },
  {
    "province_id": "10",
    "amphur_id": "1024",
    "name_th": "\u0e40\u0e02\u0e15\u0e23\u0e32\u0e29\u0e0e\u0e23\u0e4c\u0e1a\u0e39\u0e23\u0e13\u0e30   ",
    "name_en": "Khet Rat Burana"
  },
  {
    "province_id": "10",
    "amphur_id": "1025",
    "name_th": "\u0e40\u0e02\u0e15\u0e1a\u0e32\u0e07\u0e1e\u0e25\u0e31\u0e14   ",
    "name_en": "Khet Bang Phlat"
  },
  {
    "province_id": "10",
    "amphur_id": "1026",
    "name_th": "\u0e40\u0e02\u0e15\u0e14\u0e34\u0e19\u0e41\u0e14\u0e07   ",
    "name_en": "Khet Din Daeng"
  },
  {
    "province_id": "10",
    "amphur_id": "1027",
    "name_th": "\u0e40\u0e02\u0e15\u0e1a\u0e36\u0e07\u0e01\u0e38\u0e48\u0e21   ",
    "name_en": "Khet Bueng Kum"
  },
  {
    "province_id": "10",
    "amphur_id": "1028",
    "name_th": "\u0e40\u0e02\u0e15\u0e2a\u0e32\u0e17\u0e23   ",
    "name_en": "Khet Sathon"
  },
  {
    "province_id": "10",
    "amphur_id": "1029",
    "name_th": "\u0e40\u0e02\u0e15\u0e1a\u0e32\u0e07\u0e0b\u0e37\u0e48\u0e2d   ",
    "name_en": "Khet Bang Sue"
  },
  {
    "province_id": "10",
    "amphur_id": "1030",
    "name_th": "\u0e40\u0e02\u0e15\u0e08\u0e15\u0e38\u0e08\u0e31\u0e01\u0e23   ",
    "name_en": "Khet Chatuchak"
  },
  {
    "province_id": "10",
    "amphur_id": "1031",
    "name_th": "\u0e40\u0e02\u0e15\u0e1a\u0e32\u0e07\u0e04\u0e2d\u0e41\u0e2b\u0e25\u0e21   ",
    "name_en": "Khet Bang Kho Laem"
  },
  {
    "province_id": "10",
    "amphur_id": "1032",
    "name_th": "\u0e40\u0e02\u0e15\u0e1b\u0e23\u0e30\u0e40\u0e27\u0e28   ",
    "name_en": "Khet Prawet"
  },
  {
    "province_id": "10",
    "amphur_id": "1033",
    "name_th": "\u0e40\u0e02\u0e15\u0e04\u0e25\u0e2d\u0e07\u0e40\u0e15\u0e22   ",
    "name_en": "Khet Khlong Toei"
  },
  {
    "province_id": "10",
    "amphur_id": "1034",
    "name_th": "\u0e40\u0e02\u0e15\u0e2a\u0e27\u0e19\u0e2b\u0e25\u0e27\u0e07   ",
    "name_en": "Khet Suan Luang"
  },
  {
    "province_id": "10",
    "amphur_id": "1035",
    "name_th": "\u0e40\u0e02\u0e15\u0e08\u0e2d\u0e21\u0e17\u0e2d\u0e07   ",
    "name_en": "Khet Chom Thong"
  },
  {
    "province_id": "10",
    "amphur_id": "1036",
    "name_th": "\u0e40\u0e02\u0e15\u0e14\u0e2d\u0e19\u0e40\u0e21\u0e37\u0e2d\u0e07   ",
    "name_en": "Khet Don Mueang"
  },
  {
    "province_id": "10",
    "amphur_id": "1037",
    "name_th": "\u0e40\u0e02\u0e15\u0e23\u0e32\u0e0a\u0e40\u0e17\u0e27\u0e35   ",
    "name_en": "Khet Ratchathewi"
  },
  {
    "province_id": "10",
    "amphur_id": "1038",
    "name_th": "\u0e40\u0e02\u0e15\u0e25\u0e32\u0e14\u0e1e\u0e23\u0e49\u0e32\u0e27   ",
    "name_en": "Khet Lat Phrao"
  },
  {
    "province_id": "10",
    "amphur_id": "1039",
    "name_th": "\u0e40\u0e02\u0e15\u0e27\u0e31\u0e12\u0e19\u0e32   ",
    "name_en": "Khet Watthana"
  },
  {
    "province_id": "10",
    "amphur_id": "1040",
    "name_th": "\u0e40\u0e02\u0e15\u0e1a\u0e32\u0e07\u0e41\u0e04   ",
    "name_en": "Khet Bang Khae"
  },
  {
    "province_id": "10",
    "amphur_id": "1041",
    "name_th": "\u0e40\u0e02\u0e15\u0e2b\u0e25\u0e31\u0e01\u0e2a\u0e35\u0e48   ",
    "name_en": "Khet Lak Si"
  },
  {
    "province_id": "10",
    "amphur_id": "1042",
    "name_th": "\u0e40\u0e02\u0e15\u0e2a\u0e32\u0e22\u0e44\u0e2b\u0e21   ",
    "name_en": "Khet Sai Mai"
  },
  {
    "province_id": "10",
    "amphur_id": "1043",
    "name_th": "\u0e40\u0e02\u0e15\u0e04\u0e31\u0e19\u0e19\u0e32\u0e22\u0e32\u0e27   ",
    "name_en": "Khet Khan Na Yao"
  },
  {
    "province_id": "10",
    "amphur_id": "1044",
    "name_th": "\u0e40\u0e02\u0e15\u0e2a\u0e30\u0e1e\u0e32\u0e19\u0e2a\u0e39\u0e07   ",
    "name_en": "Khet Saphan Sung"
  },
  {
    "province_id": "10",
    "amphur_id": "1045",
    "name_th": "\u0e40\u0e02\u0e15\u0e27\u0e31\u0e07\u0e17\u0e2d\u0e07\u0e2b\u0e25\u0e32\u0e07   ",
    "name_en": "Khet Wang Thonglang"
  },
  {
    "province_id": "10",
    "amphur_id": "1046",
    "name_th": "\u0e40\u0e02\u0e15\u0e04\u0e25\u0e2d\u0e07\u0e2a\u0e32\u0e21\u0e27\u0e32   ",
    "name_en": "Khet Khlong Sam Wa"
  },
  {
    "province_id": "10",
    "amphur_id": "1047",
    "name_th": "\u0e40\u0e02\u0e15\u0e1a\u0e32\u0e07\u0e19\u0e32   ",
    "name_en": "Khet Bang Na"
  },
  {
    "province_id": "10",
    "amphur_id": "1048",
    "name_th": "\u0e40\u0e02\u0e15\u0e17\u0e27\u0e35\u0e27\u0e31\u0e12\u0e19\u0e32   ",
    "name_en": "Khet Thawi Watthana"
  },
  {
    "province_id": "10",
    "amphur_id": "1049",
    "name_th": "\u0e40\u0e02\u0e15\u0e17\u0e38\u0e48\u0e07\u0e04\u0e23\u0e38   ",
    "name_en": "Khet Thung Khru"
  },
  {
    "province_id": "10",
    "amphur_id": "1050",
    "name_th": "\u0e40\u0e02\u0e15\u0e1a\u0e32\u0e07\u0e1a\u0e2d\u0e19   ",
    "name_en": "Khet Bang Bon"
  },
  {
    "province_id": "10",
    "amphur_id": "1081",
    "name_th": "*\u0e1a\u0e49\u0e32\u0e19\u0e17\u0e30\u0e27\u0e32\u0e22   ",
    "name_en": "*Bantawai"
  },
  {
    "province_id": "11",
    "amphur_id": "1101",
    "name_th": "\u0e40\u0e21\u0e37\u0e2d\u0e07\u0e2a\u0e21\u0e38\u0e17\u0e23\u0e1b\u0e23\u0e32\u0e01\u0e32\u0e23   ",
    "name_en": "Mueang Samut Prakan"
  },
  {
    "province_id": "11",
    "amphur_id": "1102",
    "name_th": "\u0e1a\u0e32\u0e07\u0e1a\u0e48\u0e2d   ",
    "name_en": "Bang Bo"
  },
  {
    "province_id": "11",
    "amphur_id": "1103",
    "name_th": "\u0e1a\u0e32\u0e07\u0e1e\u0e25\u0e35   ",
    "name_en": "Bang Phli"
  },
  {
    "province_id": "11",
    "amphur_id": "1104",
    "name_th": "\u0e1e\u0e23\u0e30\u0e1b\u0e23\u0e30\u0e41\u0e14\u0e07   ",
    "name_en": "Phra Pradaeng"
  },
  {
    "province_id": "11",
    "amphur_id": "1105",
    "name_th": "\u0e1e\u0e23\u0e30\u0e2a\u0e21\u0e38\u0e17\u0e23\u0e40\u0e08\u0e14\u0e35\u0e22\u0e4c   ",
    "name_en": "Phra Samut Chedi"
  },
  {
    "province_id": "11",
    "amphur_id": "1106",
    "name_th": "\u0e1a\u0e32\u0e07\u0e40\u0e2a\u0e32\u0e18\u0e07   ",
    "name_en": "Bang Sao Thong"
  },
  {
    "province_id": "12",
    "amphur_id": "1201",
    "name_th": "\u0e40\u0e21\u0e37\u0e2d\u0e07\u0e19\u0e19\u0e17\u0e1a\u0e38\u0e23\u0e35   ",
    "name_en": "Mueang Nonthaburi"
  },
  {
    "province_id": "12",
    "amphur_id": "1202",
    "name_th": "\u0e1a\u0e32\u0e07\u0e01\u0e23\u0e27\u0e22   ",
    "name_en": "Bang Kruai"
  },
  {
    "province_id": "12",
    "amphur_id": "1203",
    "name_th": "\u0e1a\u0e32\u0e07\u0e43\u0e2b\u0e0d\u0e48   ",
    "name_en": "Bang Yai"
  },
  {
    "province_id": "12",
    "amphur_id": "1204",
    "name_th": "\u0e1a\u0e32\u0e07\u0e1a\u0e31\u0e27\u0e17\u0e2d\u0e07   ",
    "name_en": "Bang Bua Thong"
  },
  {
    "province_id": "12",
    "amphur_id": "1205",
    "name_th": "\u0e44\u0e17\u0e23\u0e19\u0e49\u0e2d\u0e22   ",
    "name_en": "Sai Noi"
  },
  {
    "province_id": "12",
    "amphur_id": "1206",
    "name_th": "\u0e1b\u0e32\u0e01\u0e40\u0e01\u0e23\u0e47\u0e14   ",
    "name_en": "Pak Kret"
  },
  {
    "province_id": "12",
    "amphur_id": "1251",
    "name_th": "\u0e40\u0e17\u0e28\u0e1a\u0e32\u0e25\u0e19\u0e04\u0e23\u0e19\u0e19\u0e17\u0e1a\u0e38\u0e23\u0e35 (\u0e2a\u0e32\u0e02\u0e32\u0e41\u0e02\u0e27\u0e07\u0e17\u0e48\u0e32\u0e17\u0e23\u0e32\u0e22)*   ",
    "name_en": "Tetsaban Nonthaburi"
  },
  {
    "province_id": "12",
    "amphur_id": "1297",
    "name_th": "\u0e40\u0e17\u0e28\u0e1a\u0e32\u0e25\u0e40\u0e21\u0e37\u0e2d\u0e07\u0e1b\u0e32\u0e01\u0e40\u0e01\u0e23\u0e47\u0e14*   ",
    "name_en": "Tetsaban Pak Kret"
  },
  {
    "province_id": "13",
    "amphur_id": "1301",
    "name_th": "\u0e40\u0e21\u0e37\u0e2d\u0e07\u0e1b\u0e17\u0e38\u0e21\u0e18\u0e32\u0e19\u0e35   ",
    "name_en": "Mueang Pathum Thani"
  },
  {
    "province_id": "13",
    "amphur_id": "1302",
    "name_th": "\u0e04\u0e25\u0e2d\u0e07\u0e2b\u0e25\u0e27\u0e07   ",
    "name_en": "Khlong Luang"
  },
  {
    "province_id": "13",
    "amphur_id": "1303",
    "name_th": "\u0e18\u0e31\u0e0d\u0e1a\u0e38\u0e23\u0e35   ",
    "name_en": "Thanyaburi"
  },
  {
    "province_id": "13",
    "amphur_id": "1304",
    "name_th": "\u0e2b\u0e19\u0e2d\u0e07\u0e40\u0e2a\u0e37\u0e2d   ",
    "name_en": "Nong Suea"
  },
  {
    "province_id": "13",
    "amphur_id": "1305",
    "name_th": "\u0e25\u0e32\u0e14\u0e2b\u0e25\u0e38\u0e21\u0e41\u0e01\u0e49\u0e27   ",
    "name_en": "Lat Lum Kaeo"
  },
  {
    "province_id": "13",
    "amphur_id": "1306",
    "name_th": "\u0e25\u0e33\u0e25\u0e39\u0e01\u0e01\u0e32   ",
    "name_en": "Lam Luk Ka"
  },
  {
    "province_id": "13",
    "amphur_id": "1307",
    "name_th": "\u0e2a\u0e32\u0e21\u0e42\u0e04\u0e01   ",
    "name_en": "Sam Khok"
  },
  {
    "province_id": "13",
    "amphur_id": "1351",
    "name_th": "\u0e25\u0e33\u0e25\u0e39\u0e01\u0e01\u0e32 (\u0e2a\u0e32\u0e02\u0e32\u0e15\u0e33\u0e1a\u0e25\u0e04\u0e39\u0e04\u0e15)*   ",
    "name_en": "Khlong Luang(Kukod)"
  },
  {
    "province_id": "14",
    "amphur_id": "1401",
    "name_th": "\u0e1e\u0e23\u0e30\u0e19\u0e04\u0e23\u0e28\u0e23\u0e35\u0e2d\u0e22\u0e38\u0e18\u0e22\u0e32   ",
    "name_en": "Phra Nakhon Si Ayutthaya"
  },
  {
    "province_id": "14",
    "amphur_id": "1402",
    "name_th": "\u0e17\u0e48\u0e32\u0e40\u0e23\u0e37\u0e2d   ",
    "name_en": "Tha Ruea"
  },
  {
    "province_id": "14",
    "amphur_id": "1403",
    "name_th": "\u0e19\u0e04\u0e23\u0e2b\u0e25\u0e27\u0e07   ",
    "name_en": "Nakhon Luang"
  },
  {
    "province_id": "14",
    "amphur_id": "1404",
    "name_th": "\u0e1a\u0e32\u0e07\u0e44\u0e17\u0e23   ",
    "name_en": "Bang Sai"
  },
  {
    "province_id": "14",
    "amphur_id": "1405",
    "name_th": "\u0e1a\u0e32\u0e07\u0e1a\u0e32\u0e25   ",
    "name_en": "Bang Ban"
  },
  {
    "province_id": "14",
    "amphur_id": "1406",
    "name_th": "\u0e1a\u0e32\u0e07\u0e1b\u0e30\u0e2d\u0e34\u0e19   ",
    "name_en": "Bang Pa-in"
  },
  {
    "province_id": "14",
    "amphur_id": "1407",
    "name_th": "\u0e1a\u0e32\u0e07\u0e1b\u0e30\u0e2b\u0e31\u0e19   ",
    "name_en": "Bang Pahan"
  },
  {
    "province_id": "14",
    "amphur_id": "1408",
    "name_th": "\u0e1c\u0e31\u0e01\u0e44\u0e2b\u0e48   ",
    "name_en": "Phak Hai"
  },
  {
    "province_id": "14",
    "amphur_id": "1409",
    "name_th": "\u0e20\u0e32\u0e0a\u0e35   ",
    "name_en": "Phachi"
  },
  {
    "province_id": "14",
    "amphur_id": "1410",
    "name_th": "\u0e25\u0e32\u0e14\u0e1a\u0e31\u0e27\u0e2b\u0e25\u0e27\u0e07   ",
    "name_en": "Lat Bua Luang"
  },
  {
    "province_id": "14",
    "amphur_id": "1411",
    "name_th": "\u0e27\u0e31\u0e07\u0e19\u0e49\u0e2d\u0e22   ",
    "name_en": "Wang Noi"
  },
  {
    "province_id": "14",
    "amphur_id": "1412",
    "name_th": "\u0e40\u0e2a\u0e19\u0e32   ",
    "name_en": "Sena"
  },
  {
    "province_id": "14",
    "amphur_id": "1413",
    "name_th": "\u0e1a\u0e32\u0e07\u0e0b\u0e49\u0e32\u0e22   ",
    "name_en": "Bang Sai"
  },
  {
    "province_id": "14",
    "amphur_id": "1414",
    "name_th": "\u0e2d\u0e38\u0e17\u0e31\u0e22   ",
    "name_en": "Uthai"
  },
  {
    "province_id": "14",
    "amphur_id": "1415",
    "name_th": "\u0e21\u0e2b\u0e32\u0e23\u0e32\u0e0a   ",
    "name_en": "Maha Rat"
  },
  {
    "province_id": "14",
    "amphur_id": "1416",
    "name_th": "\u0e1a\u0e49\u0e32\u0e19\u0e41\u0e1e\u0e23\u0e01   ",
    "name_en": "Ban Phraek"
  },
  {
    "province_id": "15",
    "amphur_id": "1501",
    "name_th": "\u0e40\u0e21\u0e37\u0e2d\u0e07\u0e2d\u0e48\u0e32\u0e07\u0e17\u0e2d\u0e07   ",
    "name_en": "Mueang Ang Thong"
  },
  {
    "province_id": "15",
    "amphur_id": "1502",
    "name_th": "\u0e44\u0e0a\u0e42\u0e22   ",
    "name_en": "Chaiyo"
  },
  {
    "province_id": "15",
    "amphur_id": "1503",
    "name_th": "\u0e1b\u0e48\u0e32\u0e42\u0e21\u0e01   ",
    "name_en": "Pa Mok"
  },
  {
    "province_id": "15",
    "amphur_id": "1504",
    "name_th": "\u0e42\u0e1e\u0e18\u0e34\u0e4c\u0e17\u0e2d\u0e07   ",
    "name_en": "Pho Thong"
  },
  {
    "province_id": "15",
    "amphur_id": "1505",
    "name_th": "\u0e41\u0e2a\u0e27\u0e07\u0e2b\u0e32   ",
    "name_en": "Sawaeng Ha"
  },
  {
    "province_id": "15",
    "amphur_id": "1506",
    "name_th": "\u0e27\u0e34\u0e40\u0e28\u0e29\u0e0a\u0e31\u0e22\u0e0a\u0e32\u0e0d   ",
    "name_en": "Wiset Chai Chan"
  },
  {
    "province_id": "15",
    "amphur_id": "1507",
    "name_th": "\u0e2a\u0e32\u0e21\u0e42\u0e01\u0e49   ",
    "name_en": "Samko"
  },
  {
    "province_id": "16",
    "amphur_id": "1601",
    "name_th": "\u0e40\u0e21\u0e37\u0e2d\u0e07\u0e25\u0e1e\u0e1a\u0e38\u0e23\u0e35   ",
    "name_en": "Mueang Lop Buri"
  },
  {
    "province_id": "16",
    "amphur_id": "1602",
    "name_th": "\u0e1e\u0e31\u0e12\u0e19\u0e32\u0e19\u0e34\u0e04\u0e21   ",
    "name_en": "Phatthana Nikhom"
  },
  {
    "province_id": "16",
    "amphur_id": "1603",
    "name_th": "\u0e42\u0e04\u0e01\u0e2a\u0e33\u0e42\u0e23\u0e07   ",
    "name_en": "Khok Samrong"
  },
  {
    "province_id": "16",
    "amphur_id": "1604",
    "name_th": "\u0e0a\u0e31\u0e22\u0e1a\u0e32\u0e14\u0e32\u0e25   ",
    "name_en": "Chai Badan"
  },
  {
    "province_id": "16",
    "amphur_id": "1605",
    "name_th": "\u0e17\u0e48\u0e32\u0e27\u0e38\u0e49\u0e07   ",
    "name_en": "Tha Wung"
  },
  {
    "province_id": "16",
    "amphur_id": "1606",
    "name_th": "\u0e1a\u0e49\u0e32\u0e19\u0e2b\u0e21\u0e35\u0e48   ",
    "name_en": "Ban Mi"
  },
  {
    "province_id": "16",
    "amphur_id": "1607",
    "name_th": "\u0e17\u0e48\u0e32\u0e2b\u0e25\u0e27\u0e07   ",
    "name_en": "Tha Luang"
  },
  {
    "province_id": "16",
    "amphur_id": "1608",
    "name_th": "\u0e2a\u0e23\u0e30\u0e42\u0e1a\u0e2a\u0e16\u0e4c   ",
    "name_en": "Sa Bot"
  },
  {
    "province_id": "16",
    "amphur_id": "1609",
    "name_th": "\u0e42\u0e04\u0e01\u0e40\u0e08\u0e23\u0e34\u0e0d   ",
    "name_en": "Khok Charoen"
  },
  {
    "province_id": "16",
    "amphur_id": "1610",
    "name_th": "\u0e25\u0e33\u0e2a\u0e19\u0e18\u0e34   ",
    "name_en": "Lam Sonthi"
  },
  {
    "province_id": "16",
    "amphur_id": "1611",
    "name_th": "\u0e2b\u0e19\u0e2d\u0e07\u0e21\u0e48\u0e27\u0e07   ",
    "name_en": "Nong Muang"
  },
  {
    "province_id": "16",
    "amphur_id": "1681",
    "name_th": "*\u0e2d.\u0e1a\u0e49\u0e32\u0e19\u0e40\u0e0a\u0e48\u0e32  \u0e08.\u0e25\u0e1e\u0e1a\u0e38\u0e23\u0e35   ",
    "name_en": "*Amphoe Ban Chao"
  },
  {
    "province_id": "17",
    "amphur_id": "1701",
    "name_th": "\u0e40\u0e21\u0e37\u0e2d\u0e07\u0e2a\u0e34\u0e07\u0e2b\u0e4c\u0e1a\u0e38\u0e23\u0e35   ",
    "name_en": "Mueang Sing Buri"
  },
  {
    "province_id": "17",
    "amphur_id": "1702",
    "name_th": "\u0e1a\u0e32\u0e07\u0e23\u0e30\u0e08\u0e31\u0e19   ",
    "name_en": "Bang Rachan"
  },
  {
    "province_id": "17",
    "amphur_id": "1703",
    "name_th": "\u0e04\u0e48\u0e32\u0e22\u0e1a\u0e32\u0e07\u0e23\u0e30\u0e08\u0e31\u0e19   ",
    "name_en": "Khai Bang Rachan"
  },
  {
    "province_id": "17",
    "amphur_id": "1704",
    "name_th": "\u0e1e\u0e23\u0e2b\u0e21\u0e1a\u0e38\u0e23\u0e35   ",
    "name_en": "Phrom Buri"
  },
  {
    "province_id": "17",
    "amphur_id": "1705",
    "name_th": "\u0e17\u0e48\u0e32\u0e0a\u0e49\u0e32\u0e07   ",
    "name_en": "Tha Chang"
  },
  {
    "province_id": "17",
    "amphur_id": "1706",
    "name_th": "\u0e2d\u0e34\u0e19\u0e17\u0e23\u0e4c\u0e1a\u0e38\u0e23\u0e35   ",
    "name_en": "In Buri"
  },
  {
    "province_id": "18",
    "amphur_id": "1801",
    "name_th": "\u0e40\u0e21\u0e37\u0e2d\u0e07\u0e0a\u0e31\u0e22\u0e19\u0e32\u0e17   ",
    "name_en": "Mueang Chai Nat"
  },
  {
    "province_id": "18",
    "amphur_id": "1802",
    "name_th": "\u0e21\u0e42\u0e19\u0e23\u0e21\u0e22\u0e4c   ",
    "name_en": "Manorom"
  },
  {
    "province_id": "18",
    "amphur_id": "1803",
    "name_th": "\u0e27\u0e31\u0e14\u0e2a\u0e34\u0e07\u0e2b\u0e4c   ",
    "name_en": "Wat Sing"
  },
  {
    "province_id": "18",
    "amphur_id": "1804",
    "name_th": "\u0e2a\u0e23\u0e23\u0e1e\u0e22\u0e32   ",
    "name_en": "Sapphaya"
  },
  {
    "province_id": "18",
    "amphur_id": "1805",
    "name_th": "\u0e2a\u0e23\u0e23\u0e04\u0e1a\u0e38\u0e23\u0e35   ",
    "name_en": "Sankhaburi"
  },
  {
    "province_id": "18",
    "amphur_id": "1806",
    "name_th": "\u0e2b\u0e31\u0e19\u0e04\u0e32   ",
    "name_en": "Hankha"
  },
  {
    "province_id": "18",
    "amphur_id": "1807",
    "name_th": "\u0e2b\u0e19\u0e2d\u0e07\u0e21\u0e30\u0e42\u0e21\u0e07   ",
    "name_en": "Nong Mamong"
  },
  {
    "province_id": "18",
    "amphur_id": "1808",
    "name_th": "\u0e40\u0e19\u0e34\u0e19\u0e02\u0e32\u0e21   ",
    "name_en": "Noen Kham"
  },
  {
    "province_id": "19",
    "amphur_id": "1901",
    "name_th": "\u0e40\u0e21\u0e37\u0e2d\u0e07\u0e2a\u0e23\u0e30\u0e1a\u0e38\u0e23\u0e35   ",
    "name_en": "Mueang Saraburi"
  },
  {
    "province_id": "19",
    "amphur_id": "1902",
    "name_th": "\u0e41\u0e01\u0e48\u0e07\u0e04\u0e2d\u0e22   ",
    "name_en": "Kaeng Khoi"
  },
  {
    "province_id": "19",
    "amphur_id": "1903",
    "name_th": "\u0e2b\u0e19\u0e2d\u0e07\u0e41\u0e04   ",
    "name_en": "Nong Khae"
  },
  {
    "province_id": "19",
    "amphur_id": "1904",
    "name_th": "\u0e27\u0e34\u0e2b\u0e32\u0e23\u0e41\u0e14\u0e07   ",
    "name_en": "Wihan Daeng"
  },
  {
    "province_id": "19",
    "amphur_id": "1905",
    "name_th": "\u0e2b\u0e19\u0e2d\u0e07\u0e41\u0e0b\u0e07   ",
    "name_en": "Nong Saeng"
  },
  {
    "province_id": "19",
    "amphur_id": "1906",
    "name_th": "\u0e1a\u0e49\u0e32\u0e19\u0e2b\u0e21\u0e2d   ",
    "name_en": "Ban Mo"
  },
  {
    "province_id": "19",
    "amphur_id": "1907",
    "name_th": "\u0e14\u0e2d\u0e19\u0e1e\u0e38\u0e14   ",
    "name_en": "Don Phut"
  },
  {
    "province_id": "19",
    "amphur_id": "1908",
    "name_th": "\u0e2b\u0e19\u0e2d\u0e07\u0e42\u0e14\u0e19   ",
    "name_en": "Nong Don"
  },
  {
    "province_id": "19",
    "amphur_id": "1909",
    "name_th": "\u0e1e\u0e23\u0e30\u0e1e\u0e38\u0e17\u0e18\u0e1a\u0e32\u0e17   ",
    "name_en": "Phra Phutthabat"
  },
  {
    "province_id": "19",
    "amphur_id": "1910",
    "name_th": "\u0e40\u0e2a\u0e32\u0e44\u0e2b\u0e49   ",
    "name_en": "Sao Hai"
  },
  {
    "province_id": "19",
    "amphur_id": "1911",
    "name_th": "\u0e21\u0e27\u0e01\u0e40\u0e2b\u0e25\u0e47\u0e01   ",
    "name_en": "Muak Lek"
  },
  {
    "province_id": "19",
    "amphur_id": "1912",
    "name_th": "\u0e27\u0e31\u0e07\u0e21\u0e48\u0e27\u0e07   ",
    "name_en": "Wang Muang"
  },
  {
    "province_id": "19",
    "amphur_id": "1913",
    "name_th": "\u0e40\u0e09\u0e25\u0e34\u0e21\u0e1e\u0e23\u0e30\u0e40\u0e01\u0e35\u0e22\u0e23\u0e15\u0e34   ",
    "name_en": "Chaloem Phra Kiat"
  },
  {
    "province_id": "20",
    "amphur_id": "2001",
    "name_th": "\u0e40\u0e21\u0e37\u0e2d\u0e07\u0e0a\u0e25\u0e1a\u0e38\u0e23\u0e35   ",
    "name_en": "Mueang Chon Buri"
  },
  {
    "province_id": "20",
    "amphur_id": "2002",
    "name_th": "\u0e1a\u0e49\u0e32\u0e19\u0e1a\u0e36\u0e07   ",
    "name_en": "Ban Bueng"
  },
  {
    "province_id": "20",
    "amphur_id": "2003",
    "name_th": "\u0e2b\u0e19\u0e2d\u0e07\u0e43\u0e2b\u0e0d\u0e48   ",
    "name_en": "Nong Yai"
  },
  {
    "province_id": "20",
    "amphur_id": "2004",
    "name_th": "\u0e1a\u0e32\u0e07\u0e25\u0e30\u0e21\u0e38\u0e07   ",
    "name_en": "Bang Lamung"
  },
  {
    "province_id": "20",
    "amphur_id": "2005",
    "name_th": "\u0e1e\u0e32\u0e19\u0e17\u0e2d\u0e07   ",
    "name_en": "Phan Thong"
  },
  {
    "province_id": "20",
    "amphur_id": "2006",
    "name_th": "\u0e1e\u0e19\u0e31\u0e2a\u0e19\u0e34\u0e04\u0e21   ",
    "name_en": "Phanat Nikhom"
  },
  {
    "province_id": "20",
    "amphur_id": "2007",
    "name_th": "\u0e28\u0e23\u0e35\u0e23\u0e32\u0e0a\u0e32   ",
    "name_en": "Si Racha"
  },
  {
    "province_id": "20",
    "amphur_id": "2008",
    "name_th": "\u0e40\u0e01\u0e32\u0e30\u0e2a\u0e35\u0e0a\u0e31\u0e07   ",
    "name_en": "Ko Sichang"
  },
  {
    "province_id": "20",
    "amphur_id": "2009",
    "name_th": "\u0e2a\u0e31\u0e15\u0e2b\u0e35\u0e1a   ",
    "name_en": "Sattahip"
  },
  {
    "province_id": "20",
    "amphur_id": "2010",
    "name_th": "\u0e1a\u0e48\u0e2d\u0e17\u0e2d\u0e07   ",
    "name_en": "Bo Thong"
  },
  {
    "province_id": "20",
    "amphur_id": "2011",
    "name_th": "\u0e40\u0e01\u0e32\u0e30\u0e08\u0e31\u0e19\u0e17\u0e23\u0e4c   ",
    "name_en": "Ko Chan"
  },
  {
    "province_id": "20",
    "amphur_id": "2051",
    "name_th": "\u0e2a\u0e31\u0e15\u0e2b\u0e35\u0e1a (\u0e2a\u0e32\u0e02\u0e32\u0e15\u0e33\u0e1a\u0e25\u0e1a\u0e32\u0e07\u0e40\u0e2a\u0e23\u0e48)*   ",
    "name_en": "Sattahip(Bang Sre)*"
  },
  {
    "province_id": "20",
    "amphur_id": "2072",
    "name_th": "\u0e17\u0e49\u0e2d\u0e07\u0e16\u0e34\u0e48\u0e19\u0e40\u0e17\u0e28\u0e1a\u0e32\u0e25\u0e40\u0e21\u0e37\u0e2d\u0e07\u0e2b\u0e19\u0e2d\u0e07\u0e1b\u0e23\u0e37\u0e2d*   ",
    "name_en": "Tong Tin Tetsaban Mueang Nong Prue*"
  },
  {
    "province_id": "20",
    "amphur_id": "2093",
    "name_th": "\u0e40\u0e17\u0e28\u0e1a\u0e32\u0e25\u0e15\u0e33\u0e1a\u0e25\u0e41\u0e2b\u0e25\u0e21\u0e09\u0e1a\u0e31\u0e07*   ",
    "name_en": "Tetsaban Tambon Lamsabang*"
  },
  {
    "province_id": "20",
    "amphur_id": "2099",
    "name_th": "\u0e40\u0e17\u0e28\u0e1a\u0e32\u0e25\u0e40\u0e21\u0e37\u0e2d\u0e07\u0e0a\u0e25\u0e1a\u0e38\u0e23\u0e35*   ",
    "name_en": "Mueang Chon Buri"
  },
  {
    "province_id": "21",
    "amphur_id": "2101",
    "name_th": "\u0e40\u0e21\u0e37\u0e2d\u0e07\u0e23\u0e30\u0e22\u0e2d\u0e07   ",
    "name_en": "Mueang Rayong"
  },
  {
    "province_id": "21",
    "amphur_id": "2102",
    "name_th": "\u0e1a\u0e49\u0e32\u0e19\u0e09\u0e32\u0e07   ",
    "name_en": "Ban Chang"
  },
  {
    "province_id": "21",
    "amphur_id": "2103",
    "name_th": "\u0e41\u0e01\u0e25\u0e07   ",
    "name_en": "Klaeng"
  },
  {
    "province_id": "21",
    "amphur_id": "2104",
    "name_th": "\u0e27\u0e31\u0e07\u0e08\u0e31\u0e19\u0e17\u0e23\u0e4c   ",
    "name_en": "Wang Chan"
  },
  {
    "province_id": "21",
    "amphur_id": "2105",
    "name_th": "\u0e1a\u0e49\u0e32\u0e19\u0e04\u0e48\u0e32\u0e22   ",
    "name_en": "Ban Khai"
  },
  {
    "province_id": "21",
    "amphur_id": "2106",
    "name_th": "\u0e1b\u0e25\u0e27\u0e01\u0e41\u0e14\u0e07   ",
    "name_en": "Pluak Daeng"
  },
  {
    "province_id": "21",
    "amphur_id": "2107",
    "name_th": "\u0e40\u0e02\u0e32\u0e0a\u0e30\u0e40\u0e21\u0e32   ",
    "name_en": "Khao Chamao"
  },
  {
    "province_id": "21",
    "amphur_id": "2108",
    "name_th": "\u0e19\u0e34\u0e04\u0e21\u0e1e\u0e31\u0e12\u0e19\u0e32   ",
    "name_en": "Nikhom Phatthana"
  },
  {
    "province_id": "21",
    "amphur_id": "2151",
    "name_th": "\u0e2a\u0e32\u0e02\u0e32\u0e15\u0e33\u0e1a\u0e25\u0e21\u0e32\u0e1a\u0e02\u0e48\u0e32*   ",
    "name_en": "Saka Tambon Mabka"
  },
  {
    "province_id": "22",
    "amphur_id": "2201",
    "name_th": "\u0e40\u0e21\u0e37\u0e2d\u0e07\u0e08\u0e31\u0e19\u0e17\u0e1a\u0e38\u0e23\u0e35   ",
    "name_en": "Mueang Chanthaburi"
  },
  {
    "province_id": "22",
    "amphur_id": "2202",
    "name_th": "\u0e02\u0e25\u0e38\u0e07   ",
    "name_en": "Khlung"
  },
  {
    "province_id": "22",
    "amphur_id": "2203",
    "name_th": "\u0e17\u0e48\u0e32\u0e43\u0e2b\u0e21\u0e48   ",
    "name_en": "Tha Mai"
  },
  {
    "province_id": "22",
    "amphur_id": "2204",
    "name_th": "\u0e42\u0e1b\u0e48\u0e07\u0e19\u0e49\u0e33\u0e23\u0e49\u0e2d\u0e19   ",
    "name_en": "Pong Nam Ron"
  },
  {
    "province_id": "22",
    "amphur_id": "2205",
    "name_th": "\u0e21\u0e30\u0e02\u0e32\u0e21   ",
    "name_en": "Makham"
  },
  {
    "province_id": "22",
    "amphur_id": "2206",
    "name_th": "\u0e41\u0e2b\u0e25\u0e21\u0e2a\u0e34\u0e07\u0e2b\u0e4c   ",
    "name_en": "Laem Sing"
  },
  {
    "province_id": "22",
    "amphur_id": "2207",
    "name_th": "\u0e2a\u0e2d\u0e22\u0e14\u0e32\u0e27   ",
    "name_en": "Soi Dao"
  },
  {
    "province_id": "22",
    "amphur_id": "2208",
    "name_th": "\u0e41\u0e01\u0e48\u0e07\u0e2b\u0e32\u0e07\u0e41\u0e21\u0e27   ",
    "name_en": "Kaeng Hang Maeo"
  },
  {
    "province_id": "22",
    "amphur_id": "2209",
    "name_th": "\u0e19\u0e32\u0e22\u0e32\u0e22\u0e2d\u0e32\u0e21   ",
    "name_en": "Na Yai Am"
  },
  {
    "province_id": "22",
    "amphur_id": "2210",
    "name_th": "\u0e40\u0e02\u0e32\u0e04\u0e34\u0e0a\u0e0c\u0e01\u0e39\u0e0f   ",
    "name_en": "Khoa Khitchakut"
  },
  {
    "province_id": "22",
    "amphur_id": "2281",
    "name_th": "*\u0e01\u0e34\u0e48\u0e07 \u0e2d.\u0e01\u0e33\u0e1e\u0e38\u0e18  \u0e08.\u0e08\u0e31\u0e19\u0e17\u0e1a\u0e38\u0e23\u0e35   ",
    "name_en": "*King Amphoe Kampud"
  },
  {
    "province_id": "23",
    "amphur_id": "2301",
    "name_th": "\u0e40\u0e21\u0e37\u0e2d\u0e07\u0e15\u0e23\u0e32\u0e14   ",
    "name_en": "Mueang Trat"
  },
  {
    "province_id": "23",
    "amphur_id": "2302",
    "name_th": "\u0e04\u0e25\u0e2d\u0e07\u0e43\u0e2b\u0e0d\u0e48   ",
    "name_en": "Khlong Yai"
  },
  {
    "province_id": "23",
    "amphur_id": "2303",
    "name_th": "\u0e40\u0e02\u0e32\u0e2a\u0e21\u0e34\u0e07   ",
    "name_en": "Khao Saming"
  },
  {
    "province_id": "23",
    "amphur_id": "2304",
    "name_th": "\u0e1a\u0e48\u0e2d\u0e44\u0e23\u0e48   ",
    "name_en": "Bo Rai"
  },
  {
    "province_id": "23",
    "amphur_id": "2305",
    "name_th": "\u0e41\u0e2b\u0e25\u0e21\u0e07\u0e2d\u0e1a   ",
    "name_en": "Laem Ngop"
  },
  {
    "province_id": "23",
    "amphur_id": "2306",
    "name_th": "\u0e40\u0e01\u0e32\u0e30\u0e01\u0e39\u0e14   ",
    "name_en": "Ko Kut"
  },
  {
    "province_id": "23",
    "amphur_id": "2307",
    "name_th": "\u0e40\u0e01\u0e32\u0e30\u0e0a\u0e49\u0e32\u0e07   ",
    "name_en": "Ko Chang"
  },
  {
    "province_id": "24",
    "amphur_id": "2401",
    "name_th": "\u0e40\u0e21\u0e37\u0e2d\u0e07\u0e09\u0e30\u0e40\u0e0a\u0e34\u0e07\u0e40\u0e17\u0e23\u0e32   ",
    "name_en": "Mueang Chachoengsao"
  },
  {
    "province_id": "24",
    "amphur_id": "2402",
    "name_th": "\u0e1a\u0e32\u0e07\u0e04\u0e25\u0e49\u0e32   ",
    "name_en": "Bang Khla"
  },
  {
    "province_id": "24",
    "amphur_id": "2403",
    "name_th": "\u0e1a\u0e32\u0e07\u0e19\u0e49\u0e33\u0e40\u0e1b\u0e23\u0e35\u0e49\u0e22\u0e27   ",
    "name_en": "Bang Nam Priao"
  },
  {
    "province_id": "24",
    "amphur_id": "2404",
    "name_th": "\u0e1a\u0e32\u0e07\u0e1b\u0e30\u0e01\u0e07   ",
    "name_en": "Bang Pakong"
  },
  {
    "province_id": "24",
    "amphur_id": "2405",
    "name_th": "\u0e1a\u0e49\u0e32\u0e19\u0e42\u0e1e\u0e18\u0e34\u0e4c   ",
    "name_en": "Ban Pho"
  },
  {
    "province_id": "24",
    "amphur_id": "2406",
    "name_th": "\u0e1e\u0e19\u0e21\u0e2a\u0e32\u0e23\u0e04\u0e32\u0e21   ",
    "name_en": "Phanom Sarakham"
  },
  {
    "province_id": "24",
    "amphur_id": "2407",
    "name_th": "\u0e23\u0e32\u0e0a\u0e2a\u0e32\u0e2a\u0e4c\u0e19   ",
    "name_en": "Ratchasan"
  },
  {
    "province_id": "24",
    "amphur_id": "2408",
    "name_th": "\u0e2a\u0e19\u0e32\u0e21\u0e0a\u0e31\u0e22\u0e40\u0e02\u0e15   ",
    "name_en": "Sanam Chai Khet"
  },
  {
    "province_id": "24",
    "amphur_id": "2409",
    "name_th": "\u0e41\u0e1b\u0e25\u0e07\u0e22\u0e32\u0e27   ",
    "name_en": "Plaeng Yao"
  },
  {
    "province_id": "24",
    "amphur_id": "2410",
    "name_th": "\u0e17\u0e48\u0e32\u0e15\u0e30\u0e40\u0e01\u0e35\u0e22\u0e1a   ",
    "name_en": "Tha Takiap"
  },
  {
    "province_id": "24",
    "amphur_id": "2411",
    "name_th": "\u0e04\u0e25\u0e2d\u0e07\u0e40\u0e02\u0e37\u0e48\u0e2d\u0e19   ",
    "name_en": "Khlong Khuean"
  },
  {
    "province_id": "25",
    "amphur_id": "2501",
    "name_th": "\u0e40\u0e21\u0e37\u0e2d\u0e07\u0e1b\u0e23\u0e32\u0e08\u0e35\u0e19\u0e1a\u0e38\u0e23\u0e35   ",
    "name_en": "Mueang Prachin Buri"
  },
  {
    "province_id": "25",
    "amphur_id": "2502",
    "name_th": "\u0e01\u0e1a\u0e34\u0e19\u0e17\u0e23\u0e4c\u0e1a\u0e38\u0e23\u0e35   ",
    "name_en": "Kabin Buri"
  },
  {
    "province_id": "25",
    "amphur_id": "2503",
    "name_th": "\u0e19\u0e32\u0e14\u0e35   ",
    "name_en": "Na Di"
  },
  {
    "province_id": "25",
    "amphur_id": "2504",
    "name_th": "*\u0e2a\u0e23\u0e30\u0e41\u0e01\u0e49\u0e27   ",
    "name_en": "Sa Kaeo"
  },
  {
    "province_id": "25",
    "amphur_id": "2505",
    "name_th": "*\u0e27\u0e31\u0e07\u0e19\u0e49\u0e33\u0e40\u0e22\u0e47\u0e19   ",
    "name_en": "Wang Nam Yen"
  },
  {
    "province_id": "25",
    "amphur_id": "2506",
    "name_th": "\u0e1a\u0e49\u0e32\u0e19\u0e2a\u0e23\u0e49\u0e32\u0e07   ",
    "name_en": "Ban Sang"
  },
  {
    "province_id": "25",
    "amphur_id": "2507",
    "name_th": "\u0e1b\u0e23\u0e30\u0e08\u0e31\u0e19\u0e15\u0e04\u0e32\u0e21   ",
    "name_en": "Prachantakham"
  },
  {
    "province_id": "25",
    "amphur_id": "2508",
    "name_th": "\u0e28\u0e23\u0e35\u0e21\u0e2b\u0e32\u0e42\u0e1e\u0e18\u0e34   ",
    "name_en": "Si Maha Phot"
  },
  {
    "province_id": "25",
    "amphur_id": "2509",
    "name_th": "\u0e28\u0e23\u0e35\u0e21\u0e42\u0e2b\u0e2a\u0e16   ",
    "name_en": "Si Mahosot"
  },
  {
    "province_id": "25",
    "amphur_id": "2510",
    "name_th": "*\u0e2d\u0e23\u0e31\u0e0d\u0e1b\u0e23\u0e30\u0e40\u0e17\u0e28   ",
    "name_en": "Aranyaprathet"
  },
  {
    "province_id": "25",
    "amphur_id": "2511",
    "name_th": "*\u0e15\u0e32\u0e1e\u0e23\u0e30\u0e22\u0e32   ",
    "name_en": "Ta Phraya"
  },
  {
    "province_id": "25",
    "amphur_id": "2512",
    "name_th": "*\u0e27\u0e31\u0e12\u0e19\u0e32\u0e19\u0e04\u0e23   ",
    "name_en": "Watthana Nakhon"
  },
  {
    "province_id": "25",
    "amphur_id": "2513",
    "name_th": "*\u0e04\u0e25\u0e2d\u0e07\u0e2b\u0e32\u0e14   ",
    "name_en": "Khlong Hat"
  },
  {
    "province_id": "26",
    "amphur_id": "2601",
    "name_th": "\u0e40\u0e21\u0e37\u0e2d\u0e07\u0e19\u0e04\u0e23\u0e19\u0e32\u0e22\u0e01   ",
    "name_en": "Mueang Nakhon Nayok"
  },
  {
    "province_id": "26",
    "amphur_id": "2602",
    "name_th": "\u0e1b\u0e32\u0e01\u0e1e\u0e25\u0e35   ",
    "name_en": "Pak Phli"
  },
  {
    "province_id": "26",
    "amphur_id": "2603",
    "name_th": "\u0e1a\u0e49\u0e32\u0e19\u0e19\u0e32   ",
    "name_en": "Ban Na"
  },
  {
    "province_id": "26",
    "amphur_id": "2604",
    "name_th": "\u0e2d\u0e07\u0e04\u0e23\u0e31\u0e01\u0e29\u0e4c   ",
    "name_en": "Ongkharak"
  },
  {
    "province_id": "27",
    "amphur_id": "2701",
    "name_th": "\u0e40\u0e21\u0e37\u0e2d\u0e07\u0e2a\u0e23\u0e30\u0e41\u0e01\u0e49\u0e27   ",
    "name_en": "Mueang Sa Kaeo"
  },
  {
    "province_id": "27",
    "amphur_id": "2702",
    "name_th": "\u0e04\u0e25\u0e2d\u0e07\u0e2b\u0e32\u0e14   ",
    "name_en": "Khlong Hat"
  },
  {
    "province_id": "27",
    "amphur_id": "2703",
    "name_th": "\u0e15\u0e32\u0e1e\u0e23\u0e30\u0e22\u0e32   ",
    "name_en": "Ta Phraya"
  },
  {
    "province_id": "27",
    "amphur_id": "2704",
    "name_th": "\u0e27\u0e31\u0e07\u0e19\u0e49\u0e33\u0e40\u0e22\u0e47\u0e19   ",
    "name_en": "Wang Nam Yen"
  },
  {
    "province_id": "27",
    "amphur_id": "2705",
    "name_th": "\u0e27\u0e31\u0e12\u0e19\u0e32\u0e19\u0e04\u0e23   ",
    "name_en": "Watthana Nakhon"
  },
  {
    "province_id": "27",
    "amphur_id": "2706",
    "name_th": "\u0e2d\u0e23\u0e31\u0e0d\u0e1b\u0e23\u0e30\u0e40\u0e17\u0e28   ",
    "name_en": "Aranyaprathet"
  },
  {
    "province_id": "27",
    "amphur_id": "2707",
    "name_th": "\u0e40\u0e02\u0e32\u0e09\u0e01\u0e23\u0e23\u0e08\u0e4c   ",
    "name_en": "Khao Chakan"
  },
  {
    "province_id": "27",
    "amphur_id": "2708",
    "name_th": "\u0e42\u0e04\u0e01\u0e2a\u0e39\u0e07   ",
    "name_en": "Khok Sung"
  },
  {
    "province_id": "27",
    "amphur_id": "2709",
    "name_th": "\u0e27\u0e31\u0e07\u0e2a\u0e21\u0e1a\u0e39\u0e23\u0e13\u0e4c   ",
    "name_en": "Wang Sombun"
  },
  {
    "province_id": "30",
    "amphur_id": "3001",
    "name_th": "\u0e40\u0e21\u0e37\u0e2d\u0e07\u0e19\u0e04\u0e23\u0e23\u0e32\u0e0a\u0e2a\u0e35\u0e21\u0e32   ",
    "name_en": "Mueang Nakhon Ratchasima"
  },
  {
    "province_id": "30",
    "amphur_id": "3002",
    "name_th": "\u0e04\u0e23\u0e1a\u0e38\u0e23\u0e35   ",
    "name_en": "Khon Buri"
  },
  {
    "province_id": "30",
    "amphur_id": "3003",
    "name_th": "\u0e40\u0e2a\u0e34\u0e07\u0e2a\u0e32\u0e07   ",
    "name_en": "Soeng Sang"
  },
  {
    "province_id": "30",
    "amphur_id": "3004",
    "name_th": "\u0e04\u0e07   ",
    "name_en": "Khong"
  },
  {
    "province_id": "30",
    "amphur_id": "3005",
    "name_th": "\u0e1a\u0e49\u0e32\u0e19\u0e40\u0e2b\u0e25\u0e37\u0e48\u0e2d\u0e21   ",
    "name_en": "Ban Lueam"
  },
  {
    "province_id": "30",
    "amphur_id": "3006",
    "name_th": "\u0e08\u0e31\u0e01\u0e23\u0e32\u0e0a   ",
    "name_en": "Chakkarat"
  },
  {
    "province_id": "30",
    "amphur_id": "3007",
    "name_th": "\u0e42\u0e0a\u0e04\u0e0a\u0e31\u0e22   ",
    "name_en": "Chok Chai"
  },
  {
    "province_id": "30",
    "amphur_id": "3008",
    "name_th": "\u0e14\u0e48\u0e32\u0e19\u0e02\u0e38\u0e19\u0e17\u0e14   ",
    "name_en": "Dan Khun Thot"
  },
  {
    "province_id": "30",
    "amphur_id": "3009",
    "name_th": "\u0e42\u0e19\u0e19\u0e44\u0e17\u0e22   ",
    "name_en": "Non Thai"
  },
  {
    "province_id": "30",
    "amphur_id": "3010",
    "name_th": "\u0e42\u0e19\u0e19\u0e2a\u0e39\u0e07   ",
    "name_en": "Non Sung"
  },
  {
    "province_id": "30",
    "amphur_id": "3011",
    "name_th": "\u0e02\u0e32\u0e21\u0e2a\u0e30\u0e41\u0e01\u0e41\u0e2a\u0e07   ",
    "name_en": "Kham Sakaesaeng"
  },
  {
    "province_id": "30",
    "amphur_id": "3012",
    "name_th": "\u0e1a\u0e31\u0e27\u0e43\u0e2b\u0e0d\u0e48   ",
    "name_en": "Bua Yai"
  },
  {
    "province_id": "30",
    "amphur_id": "3013",
    "name_th": "\u0e1b\u0e23\u0e30\u0e17\u0e32\u0e22   ",
    "name_en": "Prathai"
  },
  {
    "province_id": "30",
    "amphur_id": "3014",
    "name_th": "\u0e1b\u0e31\u0e01\u0e18\u0e07\u0e0a\u0e31\u0e22   ",
    "name_en": "Pak Thong Chai"
  },
  {
    "province_id": "30",
    "amphur_id": "3015",
    "name_th": "\u0e1e\u0e34\u0e21\u0e32\u0e22   ",
    "name_en": "Phimai"
  },
  {
    "province_id": "30",
    "amphur_id": "3016",
    "name_th": "\u0e2b\u0e49\u0e27\u0e22\u0e41\u0e16\u0e25\u0e07   ",
    "name_en": "Huai Thalaeng"
  },
  {
    "province_id": "30",
    "amphur_id": "3017",
    "name_th": "\u0e0a\u0e38\u0e21\u0e1e\u0e27\u0e07   ",
    "name_en": "Chum Phuang"
  },
  {
    "province_id": "30",
    "amphur_id": "3018",
    "name_th": "\u0e2a\u0e39\u0e07\u0e40\u0e19\u0e34\u0e19   ",
    "name_en": "Sung Noen"
  },
  {
    "province_id": "30",
    "amphur_id": "3019",
    "name_th": "\u0e02\u0e32\u0e21\u0e17\u0e30\u0e40\u0e25\u0e2a\u0e2d   ",
    "name_en": "Kham Thale So"
  },
  {
    "province_id": "30",
    "amphur_id": "3020",
    "name_th": "\u0e2a\u0e35\u0e04\u0e34\u0e49\u0e27   ",
    "name_en": "Sikhio"
  },
  {
    "province_id": "30",
    "amphur_id": "3021",
    "name_th": "\u0e1b\u0e32\u0e01\u0e0a\u0e48\u0e2d\u0e07   ",
    "name_en": "Pak Chong"
  },
  {
    "province_id": "30",
    "amphur_id": "3022",
    "name_th": "\u0e2b\u0e19\u0e2d\u0e07\u0e1a\u0e38\u0e0d\u0e21\u0e32\u0e01   ",
    "name_en": "Nong Bunnak"
  },
  {
    "province_id": "30",
    "amphur_id": "3023",
    "name_th": "\u0e41\u0e01\u0e49\u0e07\u0e2a\u0e19\u0e32\u0e21\u0e19\u0e32\u0e07   ",
    "name_en": "Kaeng Sanam Nang"
  },
  {
    "province_id": "30",
    "amphur_id": "3024",
    "name_th": "\u0e42\u0e19\u0e19\u0e41\u0e14\u0e07   ",
    "name_en": "Non Daeng"
  },
  {
    "province_id": "30",
    "amphur_id": "3025",
    "name_th": "\u0e27\u0e31\u0e07\u0e19\u0e49\u0e33\u0e40\u0e02\u0e35\u0e22\u0e27   ",
    "name_en": "Wang Nam Khiao"
  },
  {
    "province_id": "30",
    "amphur_id": "3026",
    "name_th": "\u0e40\u0e17\u0e1e\u0e32\u0e23\u0e31\u0e01\u0e29\u0e4c   ",
    "name_en": "Thepharak"
  },
  {
    "province_id": "30",
    "amphur_id": "3027",
    "name_th": "\u0e40\u0e21\u0e37\u0e2d\u0e07\u0e22\u0e32\u0e07   ",
    "name_en": "Mueang Yang"
  },
  {
    "province_id": "30",
    "amphur_id": "3028",
    "name_th": "\u0e1e\u0e23\u0e30\u0e17\u0e2d\u0e07\u0e04\u0e33   ",
    "name_en": "Phra Thong Kham"
  },
  {
    "province_id": "30",
    "amphur_id": "3029",
    "name_th": "\u0e25\u0e33\u0e17\u0e30\u0e40\u0e21\u0e19\u0e0a\u0e31\u0e22   ",
    "name_en": "Lam Thamenchai"
  },
  {
    "province_id": "30",
    "amphur_id": "3030",
    "name_th": "\u0e1a\u0e31\u0e27\u0e25\u0e32\u0e22   ",
    "name_en": "Bua Lai"
  },
  {
    "province_id": "30",
    "amphur_id": "3031",
    "name_th": "\u0e2a\u0e35\u0e14\u0e32   ",
    "name_en": "Sida"
  },
  {
    "province_id": "30",
    "amphur_id": "3032",
    "name_th": "\u0e40\u0e09\u0e25\u0e34\u0e21\u0e1e\u0e23\u0e30\u0e40\u0e01\u0e35\u0e22\u0e23\u0e15\u0e34   ",
    "name_en": "Chaloem Phra Kiat"
  },
  {
    "province_id": "30",
    "amphur_id": "3049",
    "name_th": "\u0e17\u0e49\u0e2d\u0e07\u0e16\u0e34\u0e48\u0e19\u0e40\u0e17\u0e28\u0e1a\u0e32\u0e25\u0e15\u0e33\u0e1a\u0e25\u0e42\u0e1e\u0e18\u0e34\u0e4c\u0e01\u0e25\u0e32\u0e07*   ",
    "name_en": "Pho Krang"
  },
  {
    "province_id": "30",
    "amphur_id": "3051",
    "name_th": "\u0e2a\u0e32\u0e02\u0e32\u0e15\u0e33\u0e1a\u0e25\u0e21\u0e30\u0e04\u0e48\u0e32-\u0e1e\u0e25\u0e2a\u0e07\u0e04\u0e23\u0e32\u0e21*   ",
    "name_en": "Ma Ka-Pon Songkram*"
  },
  {
    "province_id": "30",
    "amphur_id": "3081",
    "name_th": "*\u0e42\u0e19\u0e19\u0e25\u0e32\u0e27   ",
    "name_en": "*Non Lao"
  },
  {
    "province_id": "31",
    "amphur_id": "3101",
    "name_th": "\u0e40\u0e21\u0e37\u0e2d\u0e07\u0e1a\u0e38\u0e23\u0e35\u0e23\u0e31\u0e21\u0e22\u0e4c   ",
    "name_en": "Mueang Buri Ram"
  },
  {
    "province_id": "31",
    "amphur_id": "3102",
    "name_th": "\u0e04\u0e39\u0e40\u0e21\u0e37\u0e2d\u0e07   ",
    "name_en": "Khu Mueang"
  },
  {
    "province_id": "31",
    "amphur_id": "3103",
    "name_th": "\u0e01\u0e23\u0e30\u0e2a\u0e31\u0e07",
    "name_en": "Krasang"
  },
  {
    "province_id": "31",
    "amphur_id": "3104",
    "name_th": "\u0e19\u0e32\u0e07\u0e23\u0e2d\u0e07   ",
    "name_en": "Nang Rong"
  },
  {
    "province_id": "31",
    "amphur_id": "3105",
    "name_th": "\u0e2b\u0e19\u0e2d\u0e07\u0e01\u0e35\u0e48   ",
    "name_en": "Nong Ki"
  },
  {
    "province_id": "31",
    "amphur_id": "3106",
    "name_th": "\u0e25\u0e30\u0e2b\u0e32\u0e19\u0e17\u0e23\u0e32\u0e22   ",
    "name_en": "Lahan Sai"
  },
  {
    "province_id": "31",
    "amphur_id": "3107",
    "name_th": "\u0e1b\u0e23\u0e30\u0e42\u0e04\u0e19\u0e0a\u0e31\u0e22   ",
    "name_en": "Prakhon Chai"
  },
  {
    "province_id": "31",
    "amphur_id": "3108",
    "name_th": "\u0e1a\u0e49\u0e32\u0e19\u0e01\u0e23\u0e27\u0e14   ",
    "name_en": "Ban Kruat"
  },
  {
    "province_id": "31",
    "amphur_id": "3109",
    "name_th": "\u0e1e\u0e38\u0e17\u0e44\u0e18\u0e2a\u0e07   ",
    "name_en": "Phutthaisong"
  },
  {
    "province_id": "31",
    "amphur_id": "3110",
    "name_th": "\u0e25\u0e33\u0e1b\u0e25\u0e32\u0e22\u0e21\u0e32\u0e28   ",
    "name_en": "Lam Plai Mat"
  },
  {
    "province_id": "31",
    "amphur_id": "3111",
    "name_th": "\u0e2a\u0e15\u0e36\u0e01   ",
    "name_en": "Satuek"
  },
  {
    "province_id": "31",
    "amphur_id": "3112",
    "name_th": "\u0e1b\u0e30\u0e04\u0e33   ",
    "name_en": "Pakham"
  },
  {
    "province_id": "31",
    "amphur_id": "3113",
    "name_th": "\u0e19\u0e32\u0e42\u0e1e\u0e18\u0e34\u0e4c   ",
    "name_en": "Na Pho"
  },
  {
    "province_id": "31",
    "amphur_id": "3114",
    "name_th": "\u0e2b\u0e19\u0e2d\u0e07\u0e2b\u0e07\u0e2a\u0e4c   ",
    "name_en": "Nong Hong"
  },
  {
    "province_id": "31",
    "amphur_id": "3115",
    "name_th": "\u0e1e\u0e25\u0e31\u0e1a\u0e1e\u0e25\u0e32\u0e0a\u0e31\u0e22   ",
    "name_en": "Phlapphla Chai"
  },
  {
    "province_id": "31",
    "amphur_id": "3116",
    "name_th": "\u0e2b\u0e49\u0e27\u0e22\u0e23\u0e32\u0e0a   ",
    "name_en": "Huai Rat"
  },
  {
    "province_id": "31",
    "amphur_id": "3117",
    "name_th": "\u0e42\u0e19\u0e19\u0e2a\u0e38\u0e27\u0e23\u0e23\u0e13   ",
    "name_en": "Non Suwan"
  },
  {
    "province_id": "31",
    "amphur_id": "3118",
    "name_th": "\u0e0a\u0e33\u0e19\u0e34   ",
    "name_en": "Chamni"
  },
  {
    "province_id": "31",
    "amphur_id": "3119",
    "name_th": "\u0e1a\u0e49\u0e32\u0e19\u0e43\u0e2b\u0e21\u0e48\u0e44\u0e0a\u0e22\u0e1e\u0e08\u0e19\u0e4c   ",
    "name_en": "Ban Mai Chaiyaphot"
  },
  {
    "province_id": "31",
    "amphur_id": "3120",
    "name_th": "\u0e42\u0e19\u0e19\u0e14\u0e34\u0e19\u0e41\u0e14\u0e07   ",
    "name_en": "Din Daeng"
  },
  {
    "province_id": "31",
    "amphur_id": "3121",
    "name_th": "\u0e1a\u0e49\u0e32\u0e19\u0e14\u0e48\u0e32\u0e19   ",
    "name_en": "Ban Dan"
  },
  {
    "province_id": "31",
    "amphur_id": "3122",
    "name_th": "\u0e41\u0e04\u0e19\u0e14\u0e07   ",
    "name_en": "Khaen Dong"
  },
  {
    "province_id": "31",
    "amphur_id": "3123",
    "name_th": "\u0e40\u0e09\u0e25\u0e34\u0e21\u0e1e\u0e23\u0e30\u0e40\u0e01\u0e35\u0e22\u0e23\u0e15\u0e34   ",
    "name_en": "Chaloem Phra Kiat"
  },
  {
    "province_id": "32",
    "amphur_id": "3201",
    "name_th": "\u0e40\u0e21\u0e37\u0e2d\u0e07\u0e2a\u0e38\u0e23\u0e34\u0e19\u0e17\u0e23\u0e4c   ",
    "name_en": "Mueang Surin"
  },
  {
    "province_id": "32",
    "amphur_id": "3202",
    "name_th": "\u0e0a\u0e38\u0e21\u0e1e\u0e25\u0e1a\u0e38\u0e23\u0e35   ",
    "name_en": "Chumphon Buri"
  },
  {
    "province_id": "32",
    "amphur_id": "3203",
    "name_th": "\u0e17\u0e48\u0e32\u0e15\u0e39\u0e21   ",
    "name_en": "Tha Tum"
  },
  {
    "province_id": "32",
    "amphur_id": "3204",
    "name_th": "\u0e08\u0e2d\u0e21\u0e1e\u0e23\u0e30   ",
    "name_en": "Chom Phra"
  },
  {
    "province_id": "32",
    "amphur_id": "3205",
    "name_th": "\u0e1b\u0e23\u0e32\u0e2a\u0e32\u0e17   ",
    "name_en": "Prasat"
  },
  {
    "province_id": "32",
    "amphur_id": "3206",
    "name_th": "\u0e01\u0e32\u0e1a\u0e40\u0e0a\u0e34\u0e07   ",
    "name_en": "Kap Choeng"
  },
  {
    "province_id": "32",
    "amphur_id": "3207",
    "name_th": "\u0e23\u0e31\u0e15\u0e19\u0e1a\u0e38\u0e23\u0e35   ",
    "name_en": "Rattanaburi"
  },
  {
    "province_id": "32",
    "amphur_id": "3208",
    "name_th": "\u0e2a\u0e19\u0e21   ",
    "name_en": "Sanom"
  },
  {
    "province_id": "32",
    "amphur_id": "3209",
    "name_th": "\u0e28\u0e35\u0e02\u0e23\u0e20\u0e39\u0e21\u0e34   ",
    "name_en": "Sikhoraphum"
  },
  {
    "province_id": "32",
    "amphur_id": "3210",
    "name_th": "\u0e2a\u0e31\u0e07\u0e02\u0e30   ",
    "name_en": "Sangkha"
  },
  {
    "province_id": "32",
    "amphur_id": "3211",
    "name_th": "\u0e25\u0e33\u0e14\u0e27\u0e19   ",
    "name_en": "Lamduan"
  },
  {
    "province_id": "32",
    "amphur_id": "3212",
    "name_th": "\u0e2a\u0e33\u0e42\u0e23\u0e07\u0e17\u0e32\u0e1a   ",
    "name_en": "Samrong Thap"
  },
  {
    "province_id": "32",
    "amphur_id": "3213",
    "name_th": "\u0e1a\u0e31\u0e27\u0e40\u0e0a\u0e14   ",
    "name_en": "Buachet"
  },
  {
    "province_id": "32",
    "amphur_id": "3214",
    "name_th": "\u0e1e\u0e19\u0e21\u0e14\u0e07\u0e23\u0e31\u0e01   ",
    "name_en": "Phanom Dong Rak"
  },
  {
    "province_id": "32",
    "amphur_id": "3215",
    "name_th": "\u0e28\u0e23\u0e35\u0e13\u0e23\u0e07\u0e04\u0e4c   ",
    "name_en": "Si Narong"
  },
  {
    "province_id": "32",
    "amphur_id": "3216",
    "name_th": "\u0e40\u0e02\u0e27\u0e32\u0e2a\u0e34\u0e19\u0e23\u0e34\u0e19\u0e17\u0e23\u0e4c   ",
    "name_en": "Khwao Sinarin"
  },
  {
    "province_id": "32",
    "amphur_id": "3217",
    "name_th": "\u0e42\u0e19\u0e19\u0e19\u0e32\u0e23\u0e32\u0e22\u0e13\u0e4c   ",
    "name_en": "Non Narai"
  },
  {
    "province_id": "33",
    "amphur_id": "3301",
    "name_th": "\u0e40\u0e21\u0e37\u0e2d\u0e07\u0e28\u0e23\u0e35\u0e2a\u0e30\u0e40\u0e01\u0e29   ",
    "name_en": "Mueang Si Sa Ket"
  },
  {
    "province_id": "33",
    "amphur_id": "3302",
    "name_th": "\u0e22\u0e32\u0e07\u0e0a\u0e38\u0e21\u0e19\u0e49\u0e2d\u0e22   ",
    "name_en": "Yang Chum Noi"
  },
  {
    "province_id": "33",
    "amphur_id": "3303",
    "name_th": "\u0e01\u0e31\u0e19\u0e17\u0e23\u0e32\u0e23\u0e21\u0e22\u0e4c   ",
    "name_en": "Kanthararom"
  },
  {
    "province_id": "33",
    "amphur_id": "3304",
    "name_th": "\u0e01\u0e31\u0e19\u0e17\u0e23\u0e25\u0e31\u0e01\u0e29\u0e4c   ",
    "name_en": "Kantharalak"
  },
  {
    "province_id": "33",
    "amphur_id": "3305",
    "name_th": "\u0e02\u0e38\u0e02\u0e31\u0e19\u0e18\u0e4c   ",
    "name_en": "Khukhan"
  },
  {
    "province_id": "33",
    "amphur_id": "3306",
    "name_th": "\u0e44\u0e1e\u0e23\u0e1a\u0e36\u0e07   ",
    "name_en": "Phrai Bueng"
  },
  {
    "province_id": "33",
    "amphur_id": "3307",
    "name_th": "\u0e1b\u0e23\u0e32\u0e07\u0e04\u0e4c\u0e01\u0e39\u0e48   ",
    "name_en": "Prang Ku"
  },
  {
    "province_id": "33",
    "amphur_id": "3308",
    "name_th": "\u0e02\u0e38\u0e19\u0e2b\u0e32\u0e0d   ",
    "name_en": "Khun Han"
  },
  {
    "province_id": "33",
    "amphur_id": "3309",
    "name_th": "\u0e23\u0e32\u0e29\u0e35\u0e44\u0e28\u0e25   ",
    "name_en": "Rasi Salai"
  },
  {
    "province_id": "33",
    "amphur_id": "3310",
    "name_th": "\u0e2d\u0e38\u0e17\u0e38\u0e21\u0e1e\u0e23\u0e1e\u0e34\u0e2a\u0e31\u0e22   ",
    "name_en": "Uthumphon Phisai"
  },
  {
    "province_id": "33",
    "amphur_id": "3311",
    "name_th": "\u0e1a\u0e36\u0e07\u0e1a\u0e39\u0e23\u0e1e\u0e4c   ",
    "name_en": "Bueng Bun"
  },
  {
    "province_id": "33",
    "amphur_id": "3312",
    "name_th": "\u0e2b\u0e49\u0e27\u0e22\u0e17\u0e31\u0e1a\u0e17\u0e31\u0e19   ",
    "name_en": "Huai Thap Than"
  },
  {
    "province_id": "33",
    "amphur_id": "3313",
    "name_th": "\u0e42\u0e19\u0e19\u0e04\u0e39\u0e13   ",
    "name_en": "Non Khun"
  },
  {
    "province_id": "33",
    "amphur_id": "3314",
    "name_th": "\u0e28\u0e23\u0e35\u0e23\u0e31\u0e15\u0e19\u0e30   ",
    "name_en": "Si Rattana"
  },
  {
    "province_id": "33",
    "amphur_id": "3315",
    "name_th": "\u0e19\u0e49\u0e33\u0e40\u0e01\u0e25\u0e35\u0e49\u0e22\u0e07   ",
    "name_en": "Si Rattana"
  },
  {
    "province_id": "33",
    "amphur_id": "3316",
    "name_th": "\u0e27\u0e31\u0e07\u0e2b\u0e34\u0e19   ",
    "name_en": "Wang Hin"
  },
  {
    "province_id": "33",
    "amphur_id": "3317",
    "name_th": "\u0e20\u0e39\u0e2a\u0e34\u0e07\u0e2b\u0e4c   ",
    "name_en": "Phu Sing"
  },
  {
    "province_id": "33",
    "amphur_id": "3318",
    "name_th": "\u0e40\u0e21\u0e37\u0e2d\u0e07\u0e08\u0e31\u0e19\u0e17\u0e23\u0e4c   ",
    "name_en": "Mueang Chan"
  },
  {
    "province_id": "33",
    "amphur_id": "3319",
    "name_th": "\u0e40\u0e1a\u0e0d\u0e08\u0e25\u0e31\u0e01\u0e29\u0e4c   ",
    "name_en": "Benchalak"
  },
  {
    "province_id": "33",
    "amphur_id": "3320",
    "name_th": "\u0e1e\u0e22\u0e38\u0e2b\u0e4c   ",
    "name_en": "Phayu"
  },
  {
    "province_id": "33",
    "amphur_id": "3321",
    "name_th": "\u0e42\u0e1e\u0e18\u0e34\u0e4c\u0e28\u0e23\u0e35\u0e2a\u0e38\u0e27\u0e23\u0e23\u0e13   ",
    "name_en": "Pho Si Suwan"
  },
  {
    "province_id": "33",
    "amphur_id": "3322",
    "name_th": "\u0e28\u0e34\u0e25\u0e32\u0e25\u0e32\u0e14   ",
    "name_en": "Sila Lat"
  },
  {
    "province_id": "34",
    "amphur_id": "3401",
    "name_th": "\u0e40\u0e21\u0e37\u0e2d\u0e07\u0e2d\u0e38\u0e1a\u0e25\u0e23\u0e32\u0e0a\u0e18\u0e32\u0e19\u0e35   ",
    "name_en": "Mueang Ubon Ratchathani"
  },
  {
    "province_id": "34",
    "amphur_id": "3402",
    "name_th": "\u0e28\u0e23\u0e35\u0e40\u0e21\u0e37\u0e2d\u0e07\u0e43\u0e2b\u0e21\u0e48   ",
    "name_en": "Si Mueang Mai"
  },
  {
    "province_id": "34",
    "amphur_id": "3403",
    "name_th": "\u0e42\u0e02\u0e07\u0e40\u0e08\u0e35\u0e22\u0e21   ",
    "name_en": "Khong Chiam"
  },
  {
    "province_id": "34",
    "amphur_id": "3404",
    "name_th": "\u0e40\u0e02\u0e37\u0e48\u0e2d\u0e07\u0e43\u0e19   ",
    "name_en": "Khueang Nai"
  },
  {
    "province_id": "34",
    "amphur_id": "3405",
    "name_th": "\u0e40\u0e02\u0e21\u0e23\u0e32\u0e10   ",
    "name_en": "Khemarat"
  },
  {
    "province_id": "34",
    "amphur_id": "3406",
    "name_th": "*\u0e0a\u0e32\u0e19\u0e38\u0e21\u0e32\u0e19   ",
    "name_en": "*Shanuman"
  },
  {
    "province_id": "34",
    "amphur_id": "3407",
    "name_th": "\u0e40\u0e14\u0e0a\u0e2d\u0e38\u0e14\u0e21   ",
    "name_en": "Det Udom"
  },
  {
    "province_id": "34",
    "amphur_id": "3408",
    "name_th": "\u0e19\u0e32\u0e08\u0e30\u0e2b\u0e25\u0e27\u0e22   ",
    "name_en": "Na Chaluai"
  },
  {
    "province_id": "34",
    "amphur_id": "3409",
    "name_th": "\u0e19\u0e49\u0e33\u0e22\u0e37\u0e19   ",
    "name_en": "Nam Yuen"
  },
  {
    "province_id": "34",
    "amphur_id": "3410",
    "name_th": "\u0e1a\u0e38\u0e13\u0e11\u0e23\u0e34\u0e01   ",
    "name_en": "Buntharik"
  },
  {
    "province_id": "34",
    "amphur_id": "3411",
    "name_th": "\u0e15\u0e23\u0e30\u0e01\u0e32\u0e23\u0e1e\u0e37\u0e0a\u0e1c\u0e25   ",
    "name_en": "Trakan Phuet Phon"
  },
  {
    "province_id": "34",
    "amphur_id": "3412",
    "name_th": "\u0e01\u0e38\u0e14\u0e02\u0e49\u0e32\u0e27\u0e1b\u0e38\u0e49\u0e19   ",
    "name_en": "Kut Khaopun"
  },
  {
    "province_id": "34",
    "amphur_id": "3413",
    "name_th": "*\u0e1e\u0e19\u0e32   ",
    "name_en": "*Phana"
  },
  {
    "province_id": "34",
    "amphur_id": "3414",
    "name_th": "\u0e21\u0e48\u0e27\u0e07\u0e2a\u0e32\u0e21\u0e2a\u0e34\u0e1a   ",
    "name_en": "Muang Sam Sip"
  },
  {
    "province_id": "34",
    "amphur_id": "3415",
    "name_th": "\u0e27\u0e32\u0e23\u0e34\u0e19\u0e0a\u0e33\u0e23\u0e32\u0e1a   ",
    "name_en": "Warin Chamrap"
  },
  {
    "province_id": "34",
    "amphur_id": "3416",
    "name_th": "*\u0e2d\u0e33\u0e19\u0e32\u0e08\u0e40\u0e08\u0e23\u0e34\u0e0d   ",
    "name_en": "*Amnat Charoen"
  },
  {
    "province_id": "34",
    "amphur_id": "3417",
    "name_th": "*\u0e40\u0e2a\u0e19\u0e32\u0e07\u0e04\u0e19\u0e34\u0e04\u0e21   ",
    "name_en": "*Senangkhanikhom"
  },
  {
    "province_id": "34",
    "amphur_id": "3418",
    "name_th": "*\u0e2b\u0e31\u0e27\u0e15\u0e30\u0e1e\u0e32\u0e19   ",
    "name_en": "*Hua Taphan"
  },
  {
    "province_id": "34",
    "amphur_id": "3419",
    "name_th": "\u0e1e\u0e34\u0e1a\u0e39\u0e25\u0e21\u0e31\u0e07\u0e2a\u0e32\u0e2b\u0e32\u0e23   ",
    "name_en": "Phibun Mangsahan"
  },
  {
    "province_id": "34",
    "amphur_id": "3420",
    "name_th": "\u0e15\u0e32\u0e25\u0e2a\u0e38\u0e21   ",
    "name_en": "Tan Sum"
  },
  {
    "province_id": "34",
    "amphur_id": "3421",
    "name_th": "\u0e42\u0e1e\u0e18\u0e34\u0e4c\u0e44\u0e17\u0e23   ",
    "name_en": "Pho Sai"
  },
  {
    "province_id": "34",
    "amphur_id": "3422",
    "name_th": "\u0e2a\u0e33\u0e42\u0e23\u0e07   ",
    "name_en": "Samrong"
  },
  {
    "province_id": "34",
    "amphur_id": "3423",
    "name_th": "*\u0e01\u0e34\u0e48\u0e07\u0e2d\u0e33\u0e40\u0e20\u0e2d\u0e25\u0e37\u0e2d\u0e2d\u0e33\u0e19\u0e32\u0e08   ",
    "name_en": "*King Amphoe Lue Amnat"
  },
  {
    "province_id": "34",
    "amphur_id": "3424",
    "name_th": "\u0e14\u0e2d\u0e19\u0e21\u0e14\u0e41\u0e14\u0e07   ",
    "name_en": "Don Mot Daeng"
  },
  {
    "province_id": "34",
    "amphur_id": "3425",
    "name_th": "\u0e2a\u0e34\u0e23\u0e34\u0e19\u0e18\u0e23   ",
    "name_en": "Sirindhorn"
  },
  {
    "province_id": "34",
    "amphur_id": "3426",
    "name_th": "\u0e17\u0e38\u0e48\u0e07\u0e28\u0e23\u0e35\u0e2d\u0e38\u0e14\u0e21   ",
    "name_en": "Thung Si Udom"
  },
  {
    "province_id": "34",
    "amphur_id": "3427",
    "name_th": "*\u0e1b\u0e17\u0e38\u0e21\u0e23\u0e32\u0e0a\u0e27\u0e07\u0e28\u0e32   ",
    "name_en": "*Pathum Ratchawongsa"
  },
  {
    "province_id": "34",
    "amphur_id": "3428",
    "name_th": "*\u0e01\u0e34\u0e48\u0e07\u0e2d\u0e33\u0e40\u0e20\u0e2d\u0e28\u0e23\u0e35\u0e2b\u0e25\u0e31\u0e01\u0e0a\u0e31\u0e22   ",
    "name_en": "*King Amphoe Sri Lunk Chai"
  },
  {
    "province_id": "34",
    "amphur_id": "3429",
    "name_th": "\u0e19\u0e32\u0e40\u0e22\u0e35\u0e22   ",
    "name_en": "Na Yia"
  },
  {
    "province_id": "34",
    "amphur_id": "3430",
    "name_th": "\u0e19\u0e32\u0e15\u0e32\u0e25   ",
    "name_en": "Na Tan"
  },
  {
    "province_id": "34",
    "amphur_id": "3431",
    "name_th": "\u0e40\u0e2b\u0e25\u0e48\u0e32\u0e40\u0e2a\u0e37\u0e2d\u0e42\u0e01\u0e49\u0e01   ",
    "name_en": "Lao Suea Kok"
  },
  {
    "province_id": "34",
    "amphur_id": "3432",
    "name_th": "\u0e2a\u0e27\u0e48\u0e32\u0e07\u0e27\u0e35\u0e23\u0e30\u0e27\u0e07\u0e28\u0e4c   ",
    "name_en": "Sawang Wirawong"
  },
  {
    "province_id": "34",
    "amphur_id": "3433",
    "name_th": "\u0e19\u0e49\u0e33\u0e02\u0e38\u0e48\u0e19   ",
    "name_en": "Nam Khun"
  },
  {
    "province_id": "34",
    "amphur_id": "3481",
    "name_th": "*\u0e2d.\u0e2a\u0e38\u0e27\u0e23\u0e23\u0e13\u0e27\u0e32\u0e23\u0e35  \u0e08.\u0e2d\u0e38\u0e1a\u0e25\u0e23\u0e32\u0e0a\u0e18\u0e32\u0e19\u0e35   ",
    "name_en": "*Suwan Wari"
  },
  {
    "province_id": "35",
    "amphur_id": "3501",
    "name_th": "\u0e40\u0e21\u0e37\u0e2d\u0e07\u0e22\u0e42\u0e2a\u0e18\u0e23   ",
    "name_en": "Mueang Yasothon"
  },
  {
    "province_id": "35",
    "amphur_id": "3502",
    "name_th": "\u0e17\u0e23\u0e32\u0e22\u0e21\u0e39\u0e25   ",
    "name_en": "Sai Mun"
  },
  {
    "province_id": "35",
    "amphur_id": "3503",
    "name_th": "\u0e01\u0e38\u0e14\u0e0a\u0e38\u0e21   ",
    "name_en": "Kut Chum"
  },
  {
    "province_id": "35",
    "amphur_id": "3504",
    "name_th": "\u0e04\u0e33\u0e40\u0e02\u0e37\u0e48\u0e2d\u0e19\u0e41\u0e01\u0e49\u0e27   ",
    "name_en": "Kham Khuean Kaeo"
  },
  {
    "province_id": "35",
    "amphur_id": "3505",
    "name_th": "\u0e1b\u0e48\u0e32\u0e15\u0e34\u0e49\u0e27   ",
    "name_en": "Pa Tio"
  },
  {
    "province_id": "35",
    "amphur_id": "3506",
    "name_th": "\u0e21\u0e2b\u0e32\u0e0a\u0e19\u0e30\u0e0a\u0e31\u0e22   ",
    "name_en": "Maha Chana Chai"
  },
  {
    "province_id": "35",
    "amphur_id": "3507",
    "name_th": "\u0e04\u0e49\u0e2d\u0e27\u0e31\u0e07   ",
    "name_en": "Kho Wang"
  },
  {
    "province_id": "35",
    "amphur_id": "3508",
    "name_th": "\u0e40\u0e25\u0e34\u0e07\u0e19\u0e01\u0e17\u0e32   ",
    "name_en": "Loeng Nok Tha"
  },
  {
    "province_id": "35",
    "amphur_id": "3509",
    "name_th": "\u0e44\u0e17\u0e22\u0e40\u0e08\u0e23\u0e34\u0e0d   ",
    "name_en": "Thai Charoen"
  },
  {
    "province_id": "36",
    "amphur_id": "3601",
    "name_th": "\u0e40\u0e21\u0e37\u0e2d\u0e07\u0e0a\u0e31\u0e22\u0e20\u0e39\u0e21\u0e34   ",
    "name_en": "Mueang Chaiyaphum"
  },
  {
    "province_id": "36",
    "amphur_id": "3602",
    "name_th": "\u0e1a\u0e49\u0e32\u0e19\u0e40\u0e02\u0e27\u0e49\u0e32   ",
    "name_en": "Ban Khwao"
  },
  {
    "province_id": "36",
    "amphur_id": "3603",
    "name_th": "\u0e04\u0e2d\u0e19\u0e2a\u0e27\u0e23\u0e23\u0e04\u0e4c   ",
    "name_en": "Khon Sawan"
  },
  {
    "province_id": "36",
    "amphur_id": "3604",
    "name_th": "\u0e40\u0e01\u0e29\u0e15\u0e23\u0e2a\u0e21\u0e1a\u0e39\u0e23\u0e13\u0e4c   ",
    "name_en": "Kaset Sombun"
  },
  {
    "province_id": "36",
    "amphur_id": "3605",
    "name_th": "\u0e2b\u0e19\u0e2d\u0e07\u0e1a\u0e31\u0e27\u0e41\u0e14\u0e07   ",
    "name_en": "Nong Bua Daeng"
  },
  {
    "province_id": "36",
    "amphur_id": "3606",
    "name_th": "\u0e08\u0e31\u0e15\u0e38\u0e23\u0e31\u0e2a   ",
    "name_en": "Chatturat"
  },
  {
    "province_id": "36",
    "amphur_id": "3607",
    "name_th": "\u0e1a\u0e33\u0e40\u0e2b\u0e19\u0e47\u0e08\u0e13\u0e23\u0e07\u0e04\u0e4c   ",
    "name_en": "Bamnet Narong"
  },
  {
    "province_id": "36",
    "amphur_id": "3608",
    "name_th": "\u0e2b\u0e19\u0e2d\u0e07\u0e1a\u0e31\u0e27\u0e23\u0e30\u0e40\u0e2b\u0e27   ",
    "name_en": "Nong Bua Rawe"
  },
  {
    "province_id": "36",
    "amphur_id": "3609",
    "name_th": "\u0e40\u0e17\u0e1e\u0e2a\u0e16\u0e34\u0e15   ",
    "name_en": "Thep Sathit"
  },
  {
    "province_id": "36",
    "amphur_id": "3610",
    "name_th": "\u0e20\u0e39\u0e40\u0e02\u0e35\u0e22\u0e27   ",
    "name_en": "Phu Khiao"
  },
  {
    "province_id": "36",
    "amphur_id": "3611",
    "name_th": "\u0e1a\u0e49\u0e32\u0e19\u0e41\u0e17\u0e48\u0e19   ",
    "name_en": "Ban Thaen"
  },
  {
    "province_id": "36",
    "amphur_id": "3612",
    "name_th": "\u0e41\u0e01\u0e49\u0e07\u0e04\u0e23\u0e49\u0e2d   ",
    "name_en": "Kaeng Khro"
  },
  {
    "province_id": "36",
    "amphur_id": "3613",
    "name_th": "\u0e04\u0e2d\u0e19\u0e2a\u0e32\u0e23   ",
    "name_en": "Khon San"
  },
  {
    "province_id": "36",
    "amphur_id": "3614",
    "name_th": "\u0e20\u0e31\u0e01\u0e14\u0e35\u0e0a\u0e38\u0e21\u0e1e\u0e25   ",
    "name_en": "Phakdi Chumphon"
  },
  {
    "province_id": "36",
    "amphur_id": "3615",
    "name_th": "\u0e40\u0e19\u0e34\u0e19\u0e2a\u0e07\u0e48\u0e32   ",
    "name_en": "Noen Sa-nga"
  },
  {
    "province_id": "36",
    "amphur_id": "3616",
    "name_th": "\u0e0b\u0e31\u0e1a\u0e43\u0e2b\u0e0d\u0e48   ",
    "name_en": "Sap Yai"
  },
  {
    "province_id": "36",
    "amphur_id": "3651",
    "name_th": "\u0e40\u0e21\u0e37\u0e2d\u0e07\u0e0a\u0e31\u0e22\u0e20\u0e39\u0e21\u0e34 (\u0e2a\u0e32\u0e02\u0e32\u0e15\u0e33\u0e1a\u0e25\u0e42\u0e19\u0e19\u0e2a\u0e33\u0e23\u0e32\u0e0d)*   ",
    "name_en": "Mueang Chaiyaphum(Non Sumran)*"
  },
  {
    "province_id": "36",
    "amphur_id": "3652",
    "name_th": "\u0e2a\u0e32\u0e02\u0e32\u0e15\u0e33\u0e1a\u0e25\u0e1a\u0e49\u0e32\u0e19\u0e2b\u0e27\u0e48\u0e32\u0e40\u0e12\u0e48\u0e32*   ",
    "name_en": "Ban Wha Tao*"
  },
  {
    "province_id": "36",
    "amphur_id": "3653",
    "name_th": "\u0e2b\u0e19\u0e2d\u0e07\u0e1a\u0e31\u0e27\u0e41\u0e14\u0e07 (\u0e2a\u0e32\u0e02\u0e32\u0e15\u0e33\u0e1a\u0e25\u0e27\u0e31\u0e07\u0e0a\u0e21\u0e20\u0e39)*   ",
    "name_en": "Nong Bua Daeng"
  },
  {
    "province_id": "36",
    "amphur_id": "3654",
    "name_th": "\u0e01\u0e34\u0e48\u0e07\u0e2d\u0e33\u0e40\u0e20\u0e2d\u0e0b\u0e31\u0e1a\u0e43\u0e2b\u0e0d\u0e48 (\u0e2a\u0e32\u0e02\u0e32\u0e15\u0e33\u0e1a\u0e25\u0e0b\u0e31\u0e1a\u0e43\u0e2b\u0e0d\u0e48)*   ",
    "name_en": "King Amphoe Sap Yai*"
  },
  {
    "province_id": "36",
    "amphur_id": "3655",
    "name_th": "\u0e2a\u0e32\u0e02\u0e32\u0e15\u0e33\u0e1a\u0e25\u0e42\u0e04\u0e01\u0e40\u0e1e\u0e0a\u0e23*   ",
    "name_en": "Coke Phet*"
  },
  {
    "province_id": "36",
    "amphur_id": "3656",
    "name_th": "\u0e40\u0e17\u0e1e\u0e2a\u0e16\u0e34\u0e15 (\u0e2a\u0e32\u0e02\u0e32\u0e15\u0e33\u0e1a\u0e25\u0e19\u0e32\u0e22\u0e32\u0e07\u0e01\u0e25\u0e31\u0e01)*   ",
    "name_en": "Thep Sathit*"
  },
  {
    "province_id": "36",
    "amphur_id": "3657",
    "name_th": "\u0e1a\u0e49\u0e32\u0e19\u0e41\u0e17\u0e48\u0e19 (\u0e2a\u0e32\u0e02\u0e32\u0e15\u0e33\u0e1a\u0e25\u0e1a\u0e49\u0e32\u0e19\u0e40\u0e15\u0e48\u0e32)*   ",
    "name_en": "Ban Thaen"
  },
  {
    "province_id": "36",
    "amphur_id": "3658",
    "name_th": "\u0e41\u0e01\u0e49\u0e07\u0e04\u0e23\u0e49\u0e2d (\u0e2a\u0e32\u0e02\u0e32\u0e15\u0e33\u0e1a\u0e25\u0e17\u0e48\u0e32\u0e21\u0e30\u0e44\u0e1f\u0e2b\u0e27\u0e32\u0e19)*   ",
    "name_en": "Kaeng Khro*"
  },
  {
    "province_id": "36",
    "amphur_id": "3659",
    "name_th": "\u0e04\u0e2d\u0e19\u0e2a\u0e32\u0e23 (\u0e2a\u0e32\u0e02\u0e32\u0e15\u0e33\u0e1a\u0e25\u0e42\u0e19\u0e19\u0e04\u0e39\u0e13)*   ",
    "name_en": "Khon San*"
  },
  {
    "province_id": "37",
    "amphur_id": "3701",
    "name_th": "\u0e40\u0e21\u0e37\u0e2d\u0e07\u0e2d\u0e33\u0e19\u0e32\u0e08\u0e40\u0e08\u0e23\u0e34\u0e0d   ",
    "name_en": "Mueang Amnat Charoen"
  },
  {
    "province_id": "37",
    "amphur_id": "3702",
    "name_th": "\u0e0a\u0e32\u0e19\u0e38\u0e21\u0e32\u0e19   ",
    "name_en": "Chanuman"
  },
  {
    "province_id": "37",
    "amphur_id": "3703",
    "name_th": "\u0e1b\u0e17\u0e38\u0e21\u0e23\u0e32\u0e0a\u0e27\u0e07\u0e28\u0e32   ",
    "name_en": "Pathum Ratchawongsa"
  },
  {
    "province_id": "37",
    "amphur_id": "3704",
    "name_th": "\u0e1e\u0e19\u0e32   ",
    "name_en": "Phana"
  },
  {
    "province_id": "37",
    "amphur_id": "3705",
    "name_th": "\u0e40\u0e2a\u0e19\u0e32\u0e07\u0e04\u0e19\u0e34\u0e04\u0e21   ",
    "name_en": "Senangkhanikhom"
  },
  {
    "province_id": "37",
    "amphur_id": "3706",
    "name_th": "\u0e2b\u0e31\u0e27\u0e15\u0e30\u0e1e\u0e32\u0e19   ",
    "name_en": "Hua Taphan"
  },
  {
    "province_id": "37",
    "amphur_id": "3707",
    "name_th": "\u0e25\u0e37\u0e2d\u0e2d\u0e33\u0e19\u0e32\u0e08   ",
    "name_en": "Lue Amnat"
  },
  {
    "province_id": "39",
    "amphur_id": "3901",
    "name_th": "\u0e40\u0e21\u0e37\u0e2d\u0e07\u0e2b\u0e19\u0e2d\u0e07\u0e1a\u0e31\u0e27\u0e25\u0e33\u0e20\u0e39   ",
    "name_en": "Mueang Nong Bua Lam Phu"
  },
  {
    "province_id": "39",
    "amphur_id": "3902",
    "name_th": "\u0e19\u0e32\u0e01\u0e25\u0e32\u0e07   ",
    "name_en": "Na Klang"
  },
  {
    "province_id": "39",
    "amphur_id": "3903",
    "name_th": "\u0e42\u0e19\u0e19\u0e2a\u0e31\u0e07   ",
    "name_en": "Non Sang"
  },
  {
    "province_id": "39",
    "amphur_id": "3904",
    "name_th": "\u0e28\u0e23\u0e35\u0e1a\u0e38\u0e0d\u0e40\u0e23\u0e37\u0e2d\u0e07   ",
    "name_en": "Si Bun Rueang"
  },
  {
    "province_id": "39",
    "amphur_id": "3905",
    "name_th": "\u0e2a\u0e38\u0e27\u0e23\u0e23\u0e13\u0e04\u0e39\u0e2b\u0e32   ",
    "name_en": "Suwannakhuha"
  },
  {
    "province_id": "39",
    "amphur_id": "3906",
    "name_th": "\u0e19\u0e32\u0e27\u0e31\u0e07   ",
    "name_en": "Na Wang"
  },
  {
    "province_id": "40",
    "amphur_id": "4001",
    "name_th": "\u0e40\u0e21\u0e37\u0e2d\u0e07\u0e02\u0e2d\u0e19\u0e41\u0e01\u0e48\u0e19   ",
    "name_en": "Mueang Khon Kaen"
  },
  {
    "province_id": "40",
    "amphur_id": "4002",
    "name_th": "\u0e1a\u0e49\u0e32\u0e19\u0e1d\u0e32\u0e07   ",
    "name_en": "Ban Fang"
  },
  {
    "province_id": "40",
    "amphur_id": "4003",
    "name_th": "\u0e1e\u0e23\u0e30\u0e22\u0e37\u0e19   ",
    "name_en": "Phra Yuen"
  },
  {
    "province_id": "40",
    "amphur_id": "4004",
    "name_th": "\u0e2b\u0e19\u0e2d\u0e07\u0e40\u0e23\u0e37\u0e2d   ",
    "name_en": "Nong Ruea"
  },
  {
    "province_id": "40",
    "amphur_id": "4005",
    "name_th": "\u0e0a\u0e38\u0e21\u0e41\u0e1e   ",
    "name_en": "Chum Phae"
  },
  {
    "province_id": "40",
    "amphur_id": "4006",
    "name_th": "\u0e2a\u0e35\u0e0a\u0e21\u0e1e\u0e39   ",
    "name_en": "Si Chomphu"
  },
  {
    "province_id": "40",
    "amphur_id": "4007",
    "name_th": "\u0e19\u0e49\u0e33\u0e1e\u0e2d\u0e07   ",
    "name_en": "Nam Phong"
  },
  {
    "province_id": "40",
    "amphur_id": "4008",
    "name_th": "\u0e2d\u0e38\u0e1a\u0e25\u0e23\u0e31\u0e15\u0e19\u0e4c   ",
    "name_en": "Ubolratana"
  },
  {
    "province_id": "40",
    "amphur_id": "4009",
    "name_th": "\u0e01\u0e23\u0e30\u0e19\u0e27\u0e19   ",
    "name_en": "Kranuan"
  },
  {
    "province_id": "40",
    "amphur_id": "4010",
    "name_th": "\u0e1a\u0e49\u0e32\u0e19\u0e44\u0e1c\u0e48   ",
    "name_en": "Ban Phai"
  },
  {
    "province_id": "40",
    "amphur_id": "4011",
    "name_th": "\u0e40\u0e1b\u0e37\u0e2d\u0e22\u0e19\u0e49\u0e2d\u0e22   ",
    "name_en": "Pueai Noi"
  },
  {
    "province_id": "40",
    "amphur_id": "4012",
    "name_th": "\u0e1e\u0e25   ",
    "name_en": "Phon"
  },
  {
    "province_id": "40",
    "amphur_id": "4013",
    "name_th": "\u0e41\u0e27\u0e07\u0e43\u0e2b\u0e0d\u0e48   ",
    "name_en": "Waeng Yai"
  },
  {
    "province_id": "40",
    "amphur_id": "4014",
    "name_th": "\u0e41\u0e27\u0e07\u0e19\u0e49\u0e2d\u0e22   ",
    "name_en": "Waeng Noi"
  },
  {
    "province_id": "40",
    "amphur_id": "4015",
    "name_th": "\u0e2b\u0e19\u0e2d\u0e07\u0e2a\u0e2d\u0e07\u0e2b\u0e49\u0e2d\u0e07   ",
    "name_en": "Nong Song Hong"
  },
  {
    "province_id": "40",
    "amphur_id": "4016",
    "name_th": "\u0e20\u0e39\u0e40\u0e27\u0e35\u0e22\u0e07   ",
    "name_en": "Phu Wiang"
  },
  {
    "province_id": "40",
    "amphur_id": "4017",
    "name_th": "\u0e21\u0e31\u0e0d\u0e08\u0e32\u0e04\u0e35\u0e23\u0e35   ",
    "name_en": "Mancha Khiri"
  },
  {
    "province_id": "40",
    "amphur_id": "4018",
    "name_th": "\u0e0a\u0e19\u0e1a\u0e17   ",
    "name_en": "Chonnabot"
  },
  {
    "province_id": "40",
    "amphur_id": "4019",
    "name_th": "\u0e40\u0e02\u0e32\u0e2a\u0e27\u0e19\u0e01\u0e27\u0e32\u0e07   ",
    "name_en": "Khao Suan Kwang"
  },
  {
    "province_id": "40",
    "amphur_id": "4020",
    "name_th": "\u0e20\u0e39\u0e1c\u0e32\u0e21\u0e48\u0e32\u0e19   ",
    "name_en": "Phu Pha Man"
  },
  {
    "province_id": "40",
    "amphur_id": "4021",
    "name_th": "\u0e0b\u0e33\u0e2a\u0e39\u0e07   ",
    "name_en": "Sam Sung"
  },
  {
    "province_id": "40",
    "amphur_id": "4022",
    "name_th": "\u0e42\u0e04\u0e01\u0e42\u0e1e\u0e18\u0e34\u0e4c\u0e44\u0e0a\u0e22   ",
    "name_en": "Khok Pho Chai"
  },
  {
    "province_id": "40",
    "amphur_id": "4023",
    "name_th": "\u0e2b\u0e19\u0e2d\u0e07\u0e19\u0e32\u0e04\u0e33   ",
    "name_en": "Nong Na Kham"
  },
  {
    "province_id": "40",
    "amphur_id": "4024",
    "name_th": "\u0e1a\u0e49\u0e32\u0e19\u0e41\u0e2e\u0e14   ",
    "name_en": "Ban Haet"
  },
  {
    "province_id": "40",
    "amphur_id": "4025",
    "name_th": "\u0e42\u0e19\u0e19\u0e28\u0e34\u0e25\u0e32   ",
    "name_en": "Non Sila"
  },
  {
    "province_id": "40",
    "amphur_id": "4029",
    "name_th": "\u0e40\u0e27\u0e35\u0e22\u0e07\u0e40\u0e01\u0e48\u0e32   ",
    "name_en": "Wiang Kao"
  },
  {
    "province_id": "40",
    "amphur_id": "4068",
    "name_th": "\u0e17\u0e49\u0e2d\u0e07\u0e16\u0e34\u0e48\u0e19\u0e40\u0e17\u0e28\u0e1a\u0e32\u0e25\u0e15\u0e33\u0e1a\u0e25\u0e1a\u0e49\u0e32\u0e19\u0e40\u0e1b\u0e47\u0e14*   ",
    "name_en": "Ban Pet*"
  },
  {
    "province_id": "40",
    "amphur_id": "4098",
    "name_th": "\u0e40\u0e17\u0e28\u0e1a\u0e32\u0e25\u0e15\u0e33\u0e1a\u0e25\u0e40\u0e21\u0e37\u0e2d\u0e07\u0e1e\u0e25*   ",
    "name_en": "Tet Saban Tambon Muang Phon*"
  },
  {
    "province_id": "41",
    "amphur_id": "4101",
    "name_th": "\u0e40\u0e21\u0e37\u0e2d\u0e07\u0e2d\u0e38\u0e14\u0e23\u0e18\u0e32\u0e19\u0e35   ",
    "name_en": "Mueang Udon Thani"
  },
  {
    "province_id": "41",
    "amphur_id": "4102",
    "name_th": "\u0e01\u0e38\u0e14\u0e08\u0e31\u0e1a   ",
    "name_en": "Kut Chap"
  },
  {
    "province_id": "41",
    "amphur_id": "4103",
    "name_th": "\u0e2b\u0e19\u0e2d\u0e07\u0e27\u0e31\u0e27\u0e0b\u0e2d   ",
    "name_en": "Nong Wua So"
  },
  {
    "province_id": "41",
    "amphur_id": "4104",
    "name_th": "\u0e01\u0e38\u0e21\u0e20\u0e27\u0e32\u0e1b\u0e35   ",
    "name_en": "Kumphawapi"
  },
  {
    "province_id": "41",
    "amphur_id": "4105",
    "name_th": "\u0e42\u0e19\u0e19\u0e2a\u0e30\u0e2d\u0e32\u0e14   ",
    "name_en": "Non Sa-at"
  },
  {
    "province_id": "41",
    "amphur_id": "4106",
    "name_th": "\u0e2b\u0e19\u0e2d\u0e07\u0e2b\u0e32\u0e19   ",
    "name_en": "Nong Han"
  },
  {
    "province_id": "41",
    "amphur_id": "4107",
    "name_th": "\u0e17\u0e38\u0e48\u0e07\u0e1d\u0e19   ",
    "name_en": "Thung Fon"
  },
  {
    "province_id": "41",
    "amphur_id": "4108",
    "name_th": "\u0e44\u0e0a\u0e22\u0e27\u0e32\u0e19   ",
    "name_en": "Chai Wan"
  },
  {
    "province_id": "41",
    "amphur_id": "4109",
    "name_th": "\u0e28\u0e23\u0e35\u0e18\u0e32\u0e15\u0e38   ",
    "name_en": "Si That"
  },
  {
    "province_id": "41",
    "amphur_id": "4110",
    "name_th": "\u0e27\u0e31\u0e07\u0e2a\u0e32\u0e21\u0e2b\u0e21\u0e2d   ",
    "name_en": "Wang Sam Mo"
  },
  {
    "province_id": "41",
    "amphur_id": "4111",
    "name_th": "\u0e1a\u0e49\u0e32\u0e19\u0e14\u0e38\u0e07   ",
    "name_en": "Ban Dung"
  },
  {
    "province_id": "41",
    "amphur_id": "4112",
    "name_th": "*\u0e2b\u0e19\u0e2d\u0e07\u0e1a\u0e31\u0e27\u0e25\u0e33\u0e20\u0e39   ",
    "name_en": "*Nong Bua Lam Phu"
  },
  {
    "province_id": "41",
    "amphur_id": "4113",
    "name_th": "*\u0e28\u0e23\u0e35\u0e1a\u0e38\u0e0d\u0e40\u0e23\u0e37\u0e2d\u0e07   ",
    "name_en": "*Si Bun Rueang"
  },
  {
    "province_id": "41",
    "amphur_id": "4114",
    "name_th": "*\u0e19\u0e32\u0e01\u0e25\u0e32\u0e07   ",
    "name_en": "*Na Klang"
  },
  {
    "province_id": "41",
    "amphur_id": "4115",
    "name_th": "*\u0e2a\u0e38\u0e27\u0e23\u0e23\u0e13\u0e04\u0e39\u0e2b\u0e32   ",
    "name_en": "*Suwannakhuha"
  },
  {
    "province_id": "41",
    "amphur_id": "4116",
    "name_th": "*\u0e42\u0e19\u0e19\u0e2a\u0e31\u0e07   ",
    "name_en": "*Non Sang"
  },
  {
    "province_id": "41",
    "amphur_id": "4117",
    "name_th": "\u0e1a\u0e49\u0e32\u0e19\u0e1c\u0e37\u0e2d   ",
    "name_en": "Ban Phue"
  },
  {
    "province_id": "41",
    "amphur_id": "4118",
    "name_th": "\u0e19\u0e49\u0e33\u0e42\u0e2a\u0e21   ",
    "name_en": "Nam Som"
  },
  {
    "province_id": "41",
    "amphur_id": "4119",
    "name_th": "\u0e40\u0e1e\u0e47\u0e0d   ",
    "name_en": "Phen"
  },
  {
    "province_id": "41",
    "amphur_id": "4120",
    "name_th": "\u0e2a\u0e23\u0e49\u0e32\u0e07\u0e04\u0e2d\u0e21   ",
    "name_en": "Sang Khom"
  },
  {
    "province_id": "41",
    "amphur_id": "4121",
    "name_th": "\u0e2b\u0e19\u0e2d\u0e07\u0e41\u0e2a\u0e07   ",
    "name_en": "Nong Saeng"
  },
  {
    "province_id": "41",
    "amphur_id": "4122",
    "name_th": "\u0e19\u0e32\u0e22\u0e39\u0e07   ",
    "name_en": "Na Yung"
  },
  {
    "province_id": "41",
    "amphur_id": "4123",
    "name_th": "\u0e1e\u0e34\u0e1a\u0e39\u0e25\u0e22\u0e4c\u0e23\u0e31\u0e01\u0e29\u0e4c   ",
    "name_en": "Phibun Rak"
  },
  {
    "province_id": "41",
    "amphur_id": "4124",
    "name_th": "\u0e01\u0e39\u0e48\u0e41\u0e01\u0e49\u0e27   ",
    "name_en": "Ku Kaeo"
  },
  {
    "province_id": "41",
    "amphur_id": "4125",
    "name_th": "\u0e1b\u0e23\u0e30\u0e08\u0e31\u0e01\u0e29\u0e4c\u0e28\u0e34\u0e25\u0e1b\u0e32\u0e04\u0e21   ",
    "name_en": "rachak-sinlapakhom"
  },
  {
    "province_id": "42",
    "amphur_id": "4201",
    "name_th": "\u0e40\u0e21\u0e37\u0e2d\u0e07\u0e40\u0e25\u0e22   ",
    "name_en": "Mueang Loei"
  },
  {
    "province_id": "42",
    "amphur_id": "4202",
    "name_th": "\u0e19\u0e32\u0e14\u0e49\u0e27\u0e07   ",
    "name_en": "Na Duang"
  },
  {
    "province_id": "42",
    "amphur_id": "4203",
    "name_th": "\u0e40\u0e0a\u0e35\u0e22\u0e07\u0e04\u0e32\u0e19   ",
    "name_en": "Chiang Khan"
  },
  {
    "province_id": "42",
    "amphur_id": "4204",
    "name_th": "\u0e1b\u0e32\u0e01\u0e0a\u0e21   ",
    "name_en": "Pak Chom"
  },
  {
    "province_id": "42",
    "amphur_id": "4205",
    "name_th": "\u0e14\u0e48\u0e32\u0e19\u0e0b\u0e49\u0e32\u0e22   ",
    "name_en": "Dan Sai"
  },
  {
    "province_id": "42",
    "amphur_id": "4206",
    "name_th": "\u0e19\u0e32\u0e41\u0e2b\u0e49\u0e27   ",
    "name_en": "Na Haeo"
  },
  {
    "province_id": "42",
    "amphur_id": "4207",
    "name_th": "\u0e20\u0e39\u0e40\u0e23\u0e37\u0e2d   ",
    "name_en": "Phu Ruea"
  },
  {
    "province_id": "42",
    "amphur_id": "4208",
    "name_th": "\u0e17\u0e48\u0e32\u0e25\u0e35\u0e48   ",
    "name_en": "Tha Li"
  },
  {
    "province_id": "42",
    "amphur_id": "4209",
    "name_th": "\u0e27\u0e31\u0e07\u0e2a\u0e30\u0e1e\u0e38\u0e07   ",
    "name_en": "Wang Saphung"
  },
  {
    "province_id": "42",
    "amphur_id": "4210",
    "name_th": "\u0e20\u0e39\u0e01\u0e23\u0e30\u0e14\u0e36\u0e07   ",
    "name_en": "Phu Kradueng"
  },
  {
    "province_id": "42",
    "amphur_id": "4211",
    "name_th": "\u0e20\u0e39\u0e2b\u0e25\u0e27\u0e07   ",
    "name_en": "Phu Luang"
  },
  {
    "province_id": "42",
    "amphur_id": "4212",
    "name_th": "\u0e1c\u0e32\u0e02\u0e32\u0e27   ",
    "name_en": "Pha Khao"
  },
  {
    "province_id": "42",
    "amphur_id": "4213",
    "name_th": "\u0e40\u0e2d\u0e23\u0e32\u0e27\u0e31\u0e13   ",
    "name_en": "Erawan"
  },
  {
    "province_id": "42",
    "amphur_id": "4214",
    "name_th": "\u0e2b\u0e19\u0e2d\u0e07\u0e2b\u0e34\u0e19   ",
    "name_en": "Nong Hin"
  },
  {
    "province_id": "43",
    "amphur_id": "4301",
    "name_th": "\u0e40\u0e21\u0e37\u0e2d\u0e07\u0e2b\u0e19\u0e2d\u0e07\u0e04\u0e32\u0e22   ",
    "name_en": "Mueang Nong Khai"
  },
  {
    "province_id": "43",
    "amphur_id": "4302",
    "name_th": "\u0e17\u0e48\u0e32\u0e1a\u0e48\u0e2d   ",
    "name_en": "Tha Bo"
  },
  {
    "province_id": "43",
    "amphur_id": "4305",
    "name_th": "\u0e42\u0e1e\u0e19\u0e1e\u0e34\u0e2a\u0e31\u0e22   ",
    "name_en": "Phon Phisai"
  },
  {
    "province_id": "43",
    "amphur_id": "4307",
    "name_th": "\u0e28\u0e23\u0e35\u0e40\u0e0a\u0e35\u0e22\u0e07\u0e43\u0e2b\u0e21\u0e48   ",
    "name_en": "Si Chiang Mai"
  },
  {
    "province_id": "43",
    "amphur_id": "4308",
    "name_th": "\u0e2a\u0e31\u0e07\u0e04\u0e21   ",
    "name_en": "Sangkhom"
  },
  {
    "province_id": "43",
    "amphur_id": "4314",
    "name_th": "\u0e2a\u0e23\u0e30\u0e43\u0e04\u0e23   ",
    "name_en": "Sakhrai"
  },
  {
    "province_id": "43",
    "amphur_id": "4315",
    "name_th": "\u0e40\u0e1d\u0e49\u0e32\u0e44\u0e23\u0e48   ",
    "name_en": "Fao Rai"
  },
  {
    "province_id": "43",
    "amphur_id": "4316",
    "name_th": "\u0e23\u0e31\u0e15\u0e19\u0e27\u0e32\u0e1b\u0e35   ",
    "name_en": "Rattanawapi"
  },
  {
    "province_id": "43",
    "amphur_id": "4317",
    "name_th": "\u0e42\u0e1e\u0e18\u0e34\u0e4c\u0e15\u0e32\u0e01   ",
    "name_en": "Pho Tak"
  },
  {
    "province_id": "44",
    "amphur_id": "4401",
    "name_th": "\u0e40\u0e21\u0e37\u0e2d\u0e07\u0e21\u0e2b\u0e32\u0e2a\u0e32\u0e23\u0e04\u0e32\u0e21   ",
    "name_en": "Mueang Maha Sarakham"
  },
  {
    "province_id": "44",
    "amphur_id": "4402",
    "name_th": "\u0e41\u0e01\u0e14\u0e33   ",
    "name_en": "Kae Dam"
  },
  {
    "province_id": "44",
    "amphur_id": "4403",
    "name_th": "\u0e42\u0e01\u0e2a\u0e38\u0e21\u0e1e\u0e34\u0e2a\u0e31\u0e22   ",
    "name_en": "Kosum Phisai"
  },
  {
    "province_id": "44",
    "amphur_id": "4404",
    "name_th": "\u0e01\u0e31\u0e19\u0e17\u0e23\u0e27\u0e34\u0e0a\u0e31\u0e22   ",
    "name_en": "Kantharawichai"
  },
  {
    "province_id": "44",
    "amphur_id": "4405",
    "name_th": "\u0e40\u0e0a\u0e35\u0e22\u0e07\u0e22\u0e37\u0e19   ",
    "name_en": "Kantharawichai"
  },
  {
    "province_id": "44",
    "amphur_id": "4406",
    "name_th": "\u0e1a\u0e23\u0e1a\u0e37\u0e2d   ",
    "name_en": "Borabue"
  },
  {
    "province_id": "44",
    "amphur_id": "4407",
    "name_th": "\u0e19\u0e32\u0e40\u0e0a\u0e37\u0e2d\u0e01   ",
    "name_en": "Na Chueak"
  },
  {
    "province_id": "44",
    "amphur_id": "4408",
    "name_th": "\u0e1e\u0e22\u0e31\u0e04\u0e06\u0e20\u0e39\u0e21\u0e34\u0e1e\u0e34\u0e2a\u0e31\u0e22   ",
    "name_en": "Phayakkhaphum Phisai"
  },
  {
    "province_id": "44",
    "amphur_id": "4409",
    "name_th": "\u0e27\u0e32\u0e1b\u0e35\u0e1b\u0e17\u0e38\u0e21   ",
    "name_en": "Wapi Pathum"
  },
  {
    "province_id": "44",
    "amphur_id": "4410",
    "name_th": "\u0e19\u0e32\u0e14\u0e39\u0e19   ",
    "name_en": "Na Dun"
  },
  {
    "province_id": "44",
    "amphur_id": "4411",
    "name_th": "\u0e22\u0e32\u0e07\u0e2a\u0e35\u0e2a\u0e38\u0e23\u0e32\u0e0a   ",
    "name_en": "Yang Sisurat"
  },
  {
    "province_id": "44",
    "amphur_id": "4412",
    "name_th": "\u0e01\u0e38\u0e14\u0e23\u0e31\u0e07   ",
    "name_en": "Kut Rang"
  },
  {
    "province_id": "44",
    "amphur_id": "4413",
    "name_th": "\u0e0a\u0e37\u0e48\u0e19\u0e0a\u0e21   ",
    "name_en": "Chuen Chom"
  },
  {
    "province_id": "44",
    "amphur_id": "4481",
    "name_th": "*\u0e2b\u0e25\u0e38\u0e1a   ",
    "name_en": "*Lub"
  },
  {
    "province_id": "45",
    "amphur_id": "4501",
    "name_th": "\u0e40\u0e21\u0e37\u0e2d\u0e07\u0e23\u0e49\u0e2d\u0e22\u0e40\u0e2d\u0e47\u0e14   ",
    "name_en": "Mueang Roi Et"
  },
  {
    "province_id": "45",
    "amphur_id": "4502",
    "name_th": "\u0e40\u0e01\u0e29\u0e15\u0e23\u0e27\u0e34\u0e2a\u0e31\u0e22   ",
    "name_en": "Kaset Wisai"
  },
  {
    "province_id": "45",
    "amphur_id": "4503",
    "name_th": "\u0e1b\u0e17\u0e38\u0e21\u0e23\u0e31\u0e15\u0e15\u0e4c   ",
    "name_en": "Pathum Rat"
  },
  {
    "province_id": "45",
    "amphur_id": "4504",
    "name_th": "\u0e08\u0e15\u0e38\u0e23\u0e1e\u0e31\u0e01\u0e15\u0e23\u0e1e\u0e34\u0e21\u0e32\u0e19   ",
    "name_en": "Chaturaphak Phiman"
  },
  {
    "province_id": "45",
    "amphur_id": "4505",
    "name_th": "\u0e18\u0e27\u0e31\u0e0a\u0e1a\u0e38\u0e23\u0e35   ",
    "name_en": "Thawat Buri"
  },
  {
    "province_id": "45",
    "amphur_id": "4506",
    "name_th": "\u0e1e\u0e19\u0e21\u0e44\u0e1e\u0e23   ",
    "name_en": "Phanom Phrai"
  },
  {
    "province_id": "45",
    "amphur_id": "4507",
    "name_th": "\u0e42\u0e1e\u0e19\u0e17\u0e2d\u0e07   ",
    "name_en": "Phon Thong"
  },
  {
    "province_id": "45",
    "amphur_id": "4508",
    "name_th": "\u0e42\u0e1e\u0e18\u0e34\u0e4c\u0e0a\u0e31\u0e22   ",
    "name_en": "Pho Chai"
  },
  {
    "province_id": "45",
    "amphur_id": "4509",
    "name_th": "\u0e2b\u0e19\u0e2d\u0e07\u0e1e\u0e2d\u0e01   ",
    "name_en": "Nong Phok"
  },
  {
    "province_id": "45",
    "amphur_id": "4510",
    "name_th": "\u0e40\u0e2a\u0e25\u0e20\u0e39\u0e21\u0e34   ",
    "name_en": "Selaphum"
  },
  {
    "province_id": "45",
    "amphur_id": "4511",
    "name_th": "\u0e2a\u0e38\u0e27\u0e23\u0e23\u0e13\u0e20\u0e39\u0e21\u0e34   ",
    "name_en": "Suwannaphum"
  },
  {
    "province_id": "45",
    "amphur_id": "4512",
    "name_th": "\u0e40\u0e21\u0e37\u0e2d\u0e07\u0e2a\u0e23\u0e27\u0e07   ",
    "name_en": "Mueang Suang"
  },
  {
    "province_id": "45",
    "amphur_id": "4513",
    "name_th": "\u0e42\u0e1e\u0e19\u0e17\u0e23\u0e32\u0e22   ",
    "name_en": "Phon Sai"
  },
  {
    "province_id": "45",
    "amphur_id": "4514",
    "name_th": "\u0e2d\u0e32\u0e08\u0e2a\u0e32\u0e21\u0e32\u0e23\u0e16   ",
    "name_en": "At Samat"
  },
  {
    "province_id": "45",
    "amphur_id": "4515",
    "name_th": "\u0e40\u0e21\u0e22\u0e27\u0e14\u0e35   ",
    "name_en": "Moei Wadi"
  },
  {
    "province_id": "45",
    "amphur_id": "4516",
    "name_th": "\u0e28\u0e23\u0e35\u0e2a\u0e21\u0e40\u0e14\u0e47\u0e08   ",
    "name_en": "Si Somdet"
  },
  {
    "province_id": "45",
    "amphur_id": "4517",
    "name_th": "\u0e08\u0e31\u0e07\u0e2b\u0e32\u0e23   ",
    "name_en": "Changhan"
  },
  {
    "province_id": "45",
    "amphur_id": "4518",
    "name_th": "\u0e40\u0e0a\u0e35\u0e22\u0e07\u0e02\u0e27\u0e31\u0e0d   ",
    "name_en": "Chiang Khwan"
  },
  {
    "province_id": "45",
    "amphur_id": "4519",
    "name_th": "\u0e2b\u0e19\u0e2d\u0e07\u0e2e\u0e35   ",
    "name_en": "Nong Hi"
  },
  {
    "province_id": "45",
    "amphur_id": "4520",
    "name_th": "\u0e17\u0e38\u0e48\u0e07\u0e40\u0e02\u0e32\u0e2b\u0e25\u0e27\u0e07   ",
    "name_en": "Thung Khao Luang\u0e01\u0e34\u0e48"
  },
  {
    "province_id": "46",
    "amphur_id": "4601",
    "name_th": "\u0e40\u0e21\u0e37\u0e2d\u0e07\u0e01\u0e32\u0e2c\u0e2a\u0e34\u0e19\u0e18\u0e38\u0e4c   ",
    "name_en": "Mueang Kalasin"
  },
  {
    "province_id": "46",
    "amphur_id": "4602",
    "name_th": "\u0e19\u0e32\u0e21\u0e19   ",
    "name_en": "Na Mon"
  },
  {
    "province_id": "46",
    "amphur_id": "4603",
    "name_th": "\u0e01\u0e21\u0e25\u0e32\u0e44\u0e2a\u0e22   ",
    "name_en": "Kamalasai"
  },
  {
    "province_id": "46",
    "amphur_id": "4604",
    "name_th": "\u0e23\u0e48\u0e2d\u0e07\u0e04\u0e33   ",
    "name_en": "Rong Kham"
  },
  {
    "province_id": "46",
    "amphur_id": "4605",
    "name_th": "\u0e01\u0e38\u0e09\u0e34\u0e19\u0e32\u0e23\u0e32\u0e22\u0e13\u0e4c   ",
    "name_en": "Kuchinarai"
  },
  {
    "province_id": "46",
    "amphur_id": "4606",
    "name_th": "\u0e40\u0e02\u0e32\u0e27\u0e07   ",
    "name_en": "Khao Wong"
  },
  {
    "province_id": "46",
    "amphur_id": "4607",
    "name_th": "\u0e22\u0e32\u0e07\u0e15\u0e25\u0e32\u0e14   ",
    "name_en": "Yang Talat"
  },
  {
    "province_id": "46",
    "amphur_id": "4608",
    "name_th": "\u0e2b\u0e49\u0e27\u0e22\u0e40\u0e21\u0e47\u0e01   ",
    "name_en": "Huai Mek"
  },
  {
    "province_id": "46",
    "amphur_id": "4609",
    "name_th": "\u0e2a\u0e2b\u0e31\u0e2a\u0e02\u0e31\u0e19\u0e18\u0e4c   ",
    "name_en": "Sahatsakhan"
  },
  {
    "province_id": "46",
    "amphur_id": "4610",
    "name_th": "\u0e04\u0e33\u0e21\u0e48\u0e27\u0e07   ",
    "name_en": "Kham Muang"
  },
  {
    "province_id": "46",
    "amphur_id": "4611",
    "name_th": "\u0e17\u0e48\u0e32\u0e04\u0e31\u0e19\u0e42\u0e17   ",
    "name_en": "Tha Khantho"
  },
  {
    "province_id": "46",
    "amphur_id": "4612",
    "name_th": "\u0e2b\u0e19\u0e2d\u0e07\u0e01\u0e38\u0e07\u0e28\u0e23\u0e35   ",
    "name_en": "Nong Kung Si"
  },
  {
    "province_id": "46",
    "amphur_id": "4613",
    "name_th": "\u0e2a\u0e21\u0e40\u0e14\u0e47\u0e08   ",
    "name_en": "Somdet"
  },
  {
    "province_id": "46",
    "amphur_id": "4614",
    "name_th": "\u0e2b\u0e49\u0e27\u0e22\u0e1c\u0e36\u0e49\u0e07   ",
    "name_en": "Huai Phueng"
  },
  {
    "province_id": "46",
    "amphur_id": "4615",
    "name_th": "\u0e2a\u0e32\u0e21\u0e0a\u0e31\u0e22   ",
    "name_en": "Sam Chai"
  },
  {
    "province_id": "46",
    "amphur_id": "4616",
    "name_th": "\u0e19\u0e32\u0e04\u0e39   ",
    "name_en": "Na Khu"
  },
  {
    "province_id": "46",
    "amphur_id": "4617",
    "name_th": "\u0e14\u0e2d\u0e19\u0e08\u0e32\u0e19   ",
    "name_en": "Don Chan"
  },
  {
    "province_id": "46",
    "amphur_id": "4618",
    "name_th": "\u0e06\u0e49\u0e2d\u0e07\u0e0a\u0e31\u0e22   ",
    "name_en": "Khong Chai"
  },
  {
    "province_id": "47",
    "amphur_id": "4701",
    "name_th": "\u0e40\u0e21\u0e37\u0e2d\u0e07\u0e2a\u0e01\u0e25\u0e19\u0e04\u0e23   ",
    "name_en": "Mueang Sakon Nakhon"
  },
  {
    "province_id": "47",
    "amphur_id": "4702",
    "name_th": "\u0e01\u0e38\u0e2a\u0e38\u0e21\u0e32\u0e25\u0e22\u0e4c   ",
    "name_en": "Kusuman"
  },
  {
    "province_id": "47",
    "amphur_id": "4703",
    "name_th": "\u0e01\u0e38\u0e14\u0e1a\u0e32\u0e01   ",
    "name_en": "Kut Bak"
  },
  {
    "province_id": "47",
    "amphur_id": "4704",
    "name_th": "\u0e1e\u0e23\u0e23\u0e13\u0e32\u0e19\u0e34\u0e04\u0e21   ",
    "name_en": "Phanna Nikhom"
  },
  {
    "province_id": "47",
    "amphur_id": "4705",
    "name_th": "\u0e1e\u0e31\u0e07\u0e42\u0e04\u0e19   ",
    "name_en": "Phang Khon"
  },
  {
    "province_id": "47",
    "amphur_id": "4706",
    "name_th": "\u0e27\u0e32\u0e23\u0e34\u0e0a\u0e20\u0e39\u0e21\u0e34   ",
    "name_en": "Waritchaphum"
  },
  {
    "province_id": "47",
    "amphur_id": "4707",
    "name_th": "\u0e19\u0e34\u0e04\u0e21\u0e19\u0e49\u0e33\u0e2d\u0e39\u0e19   ",
    "name_en": "Nikhom Nam Un"
  },
  {
    "province_id": "47",
    "amphur_id": "4708",
    "name_th": "\u0e27\u0e32\u0e19\u0e23\u0e19\u0e34\u0e27\u0e32\u0e2a   ",
    "name_en": "Wanon Niwat"
  },
  {
    "province_id": "47",
    "amphur_id": "4709",
    "name_th": "\u0e04\u0e33\u0e15\u0e32\u0e01\u0e25\u0e49\u0e32   ",
    "name_en": "Kham Ta Kla"
  },
  {
    "province_id": "47",
    "amphur_id": "4710",
    "name_th": "\u0e1a\u0e49\u0e32\u0e19\u0e21\u0e48\u0e27\u0e07   ",
    "name_en": "Ban Muang"
  },
  {
    "province_id": "47",
    "amphur_id": "4711",
    "name_th": "\u0e2d\u0e32\u0e01\u0e32\u0e28\u0e2d\u0e33\u0e19\u0e27\u0e22   ",
    "name_en": "Akat Amnuai"
  },
  {
    "province_id": "47",
    "amphur_id": "4712",
    "name_th": "\u0e2a\u0e27\u0e48\u0e32\u0e07\u0e41\u0e14\u0e19\u0e14\u0e34\u0e19   ",
    "name_en": "Sawang Daen Din"
  },
  {
    "province_id": "47",
    "amphur_id": "4713",
    "name_th": "\u0e2a\u0e48\u0e2d\u0e07\u0e14\u0e32\u0e27   ",
    "name_en": "Song Dao"
  },
  {
    "province_id": "47",
    "amphur_id": "4714",
    "name_th": "\u0e40\u0e15\u0e48\u0e32\u0e07\u0e2d\u0e22   ",
    "name_en": "Tao Ngoi"
  },
  {
    "province_id": "47",
    "amphur_id": "4715",
    "name_th": "\u0e42\u0e04\u0e01\u0e28\u0e23\u0e35\u0e2a\u0e38\u0e1e\u0e23\u0e23\u0e13   ",
    "name_en": "Khok Si Suphan"
  },
  {
    "province_id": "47",
    "amphur_id": "4716",
    "name_th": "\u0e40\u0e08\u0e23\u0e34\u0e0d\u0e28\u0e34\u0e25\u0e1b\u0e4c   ",
    "name_en": "Charoen Sin"
  },
  {
    "province_id": "47",
    "amphur_id": "4717",
    "name_th": "\u0e42\u0e1e\u0e19\u0e19\u0e32\u0e41\u0e01\u0e49\u0e27   ",
    "name_en": "Phon Na Kaeo"
  },
  {
    "province_id": "47",
    "amphur_id": "4718",
    "name_th": "\u0e20\u0e39\u0e1e\u0e32\u0e19   ",
    "name_en": "Phu Phan"
  },
  {
    "province_id": "47",
    "amphur_id": "4751",
    "name_th": "\u0e27\u0e32\u0e19\u0e23\u0e19\u0e34\u0e27\u0e32\u0e2a (\u0e2a\u0e32\u0e02\u0e32\u0e15\u0e33\u0e1a\u0e25\u0e01\u0e38\u0e14\u0e40\u0e23\u0e37\u0e2d\u0e04\u0e33)*   ",
    "name_en": "Wanon Niwat"
  },
  {
    "province_id": "47",
    "amphur_id": "4781",
    "name_th": "*\u0e2d.\u0e1a\u0e49\u0e32\u0e19\u0e2b\u0e31\u0e19  \u0e08.\u0e2a\u0e01\u0e25\u0e19\u0e04\u0e23   ",
    "name_en": "*Banhan"
  },
  {
    "province_id": "48",
    "amphur_id": "4801",
    "name_th": "\u0e40\u0e21\u0e37\u0e2d\u0e07\u0e19\u0e04\u0e23\u0e1e\u0e19\u0e21   ",
    "name_en": "Mueang Nakhon Phanom"
  },
  {
    "province_id": "48",
    "amphur_id": "4802",
    "name_th": "\u0e1b\u0e25\u0e32\u0e1b\u0e32\u0e01   ",
    "name_en": "Pla Pak"
  },
  {
    "province_id": "48",
    "amphur_id": "4803",
    "name_th": "\u0e17\u0e48\u0e32\u0e2d\u0e38\u0e40\u0e17\u0e19   ",
    "name_en": "Tha Uthen"
  },
  {
    "province_id": "48",
    "amphur_id": "4804",
    "name_th": "\u0e1a\u0e49\u0e32\u0e19\u0e41\u0e1e\u0e07   ",
    "name_en": "Ban Phaeng"
  },
  {
    "province_id": "48",
    "amphur_id": "4805",
    "name_th": "\u0e18\u0e32\u0e15\u0e38\u0e1e\u0e19\u0e21   ",
    "name_en": "That Phanom"
  },
  {
    "province_id": "48",
    "amphur_id": "4806",
    "name_th": "\u0e40\u0e23\u0e13\u0e39\u0e19\u0e04\u0e23   ",
    "name_en": "Renu Nakhon"
  },
  {
    "province_id": "48",
    "amphur_id": "4807",
    "name_th": "\u0e19\u0e32\u0e41\u0e01   ",
    "name_en": "Na Kae"
  },
  {
    "province_id": "48",
    "amphur_id": "4808",
    "name_th": "\u0e28\u0e23\u0e35\u0e2a\u0e07\u0e04\u0e23\u0e32\u0e21   ",
    "name_en": "Si Songkhram"
  },
  {
    "province_id": "48",
    "amphur_id": "4809",
    "name_th": "\u0e19\u0e32\u0e2b\u0e27\u0e49\u0e32   ",
    "name_en": "Na Wa"
  },
  {
    "province_id": "48",
    "amphur_id": "4810",
    "name_th": "\u0e42\u0e1e\u0e19\u0e2a\u0e27\u0e23\u0e23\u0e04\u0e4c   ",
    "name_en": "Phon Sawan"
  },
  {
    "province_id": "48",
    "amphur_id": "4811",
    "name_th": "\u0e19\u0e32\u0e17\u0e21   ",
    "name_en": "Na Thom"
  },
  {
    "province_id": "48",
    "amphur_id": "4812",
    "name_th": "\u0e27\u0e31\u0e07\u0e22\u0e32\u0e07   ",
    "name_en": "Wang Yang"
  },
  {
    "province_id": "49",
    "amphur_id": "4901",
    "name_th": "\u0e40\u0e21\u0e37\u0e2d\u0e07\u0e21\u0e38\u0e01\u0e14\u0e32\u0e2b\u0e32\u0e23   ",
    "name_en": "Mueang Mukdahan"
  },
  {
    "province_id": "49",
    "amphur_id": "4902",
    "name_th": "\u0e19\u0e34\u0e04\u0e21\u0e04\u0e33\u0e2a\u0e23\u0e49\u0e2d\u0e22   ",
    "name_en": "Nikhom Kham Soi"
  },
  {
    "province_id": "49",
    "amphur_id": "4903",
    "name_th": "\u0e14\u0e2d\u0e19\u0e15\u0e32\u0e25   ",
    "name_en": "Don Tan"
  },
  {
    "province_id": "49",
    "amphur_id": "4904",
    "name_th": "\u0e14\u0e07\u0e2b\u0e25\u0e27\u0e07   ",
    "name_en": "Dong Luang"
  },
  {
    "province_id": "49",
    "amphur_id": "4905",
    "name_th": "\u0e04\u0e33\u0e0a\u0e30\u0e2d\u0e35   ",
    "name_en": "Khamcha-i"
  },
  {
    "province_id": "49",
    "amphur_id": "4906",
    "name_th": "\u0e2b\u0e27\u0e49\u0e32\u0e19\u0e43\u0e2b\u0e0d\u0e48   ",
    "name_en": "Wan Yai"
  },
  {
    "province_id": "49",
    "amphur_id": "4907",
    "name_th": "\u0e2b\u0e19\u0e2d\u0e07\u0e2a\u0e39\u0e07   ",
    "name_en": "Nong Sung"
  },
  {
    "province_id": "50",
    "amphur_id": "5001",
    "name_th": "\u0e40\u0e21\u0e37\u0e2d\u0e07\u0e40\u0e0a\u0e35\u0e22\u0e07\u0e43\u0e2b\u0e21\u0e48   ",
    "name_en": "Mueang Chiang Mai"
  },
  {
    "province_id": "50",
    "amphur_id": "5002",
    "name_th": "\u0e08\u0e2d\u0e21\u0e17\u0e2d\u0e07   ",
    "name_en": "Chom Thong"
  },
  {
    "province_id": "50",
    "amphur_id": "5003",
    "name_th": "\u0e41\u0e21\u0e48\u0e41\u0e08\u0e48\u0e21   ",
    "name_en": "Mae Chaem"
  },
  {
    "province_id": "50",
    "amphur_id": "5004",
    "name_th": "\u0e40\u0e0a\u0e35\u0e22\u0e07\u0e14\u0e32\u0e27   ",
    "name_en": "Chiang Dao"
  },
  {
    "province_id": "50",
    "amphur_id": "5005",
    "name_th": "\u0e14\u0e2d\u0e22\u0e2a\u0e30\u0e40\u0e01\u0e47\u0e14   ",
    "name_en": "Doi Saket"
  },
  {
    "province_id": "50",
    "amphur_id": "5006",
    "name_th": "\u0e41\u0e21\u0e48\u0e41\u0e15\u0e07   ",
    "name_en": "Mae Taeng"
  },
  {
    "province_id": "50",
    "amphur_id": "5007",
    "name_th": "\u0e41\u0e21\u0e48\u0e23\u0e34\u0e21   ",
    "name_en": "Mae Rim"
  },
  {
    "province_id": "50",
    "amphur_id": "5008",
    "name_th": "\u0e2a\u0e30\u0e40\u0e21\u0e34\u0e07   ",
    "name_en": "Samoeng"
  },
  {
    "province_id": "50",
    "amphur_id": "5009",
    "name_th": "\u0e1d\u0e32\u0e07   ",
    "name_en": "Fang"
  },
  {
    "province_id": "50",
    "amphur_id": "5010",
    "name_th": "\u0e41\u0e21\u0e48\u0e2d\u0e32\u0e22   ",
    "name_en": "Mae Ai"
  },
  {
    "province_id": "50",
    "amphur_id": "5011",
    "name_th": "\u0e1e\u0e23\u0e49\u0e32\u0e27   ",
    "name_en": "Phrao"
  },
  {
    "province_id": "50",
    "amphur_id": "5012",
    "name_th": "\u0e2a\u0e31\u0e19\u0e1b\u0e48\u0e32\u0e15\u0e2d\u0e07   ",
    "name_en": "San Pa Tong"
  },
  {
    "province_id": "50",
    "amphur_id": "5013",
    "name_th": "\u0e2a\u0e31\u0e19\u0e01\u0e33\u0e41\u0e1e\u0e07   ",
    "name_en": "San Kamphaeng"
  },
  {
    "province_id": "50",
    "amphur_id": "5014",
    "name_th": "\u0e2a\u0e31\u0e19\u0e17\u0e23\u0e32\u0e22   ",
    "name_en": "San Sai"
  },
  {
    "province_id": "50",
    "amphur_id": "5015",
    "name_th": "\u0e2b\u0e32\u0e07\u0e14\u0e07   ",
    "name_en": "Hang Dong"
  },
  {
    "province_id": "50",
    "amphur_id": "5016",
    "name_th": "\u0e2e\u0e2d\u0e14   ",
    "name_en": "Hot"
  },
  {
    "province_id": "50",
    "amphur_id": "5017",
    "name_th": "\u0e14\u0e2d\u0e22\u0e40\u0e15\u0e48\u0e32   ",
    "name_en": "Doi Tao"
  },
  {
    "province_id": "50",
    "amphur_id": "5018",
    "name_th": "\u0e2d\u0e21\u0e01\u0e4b\u0e2d\u0e22   ",
    "name_en": "Omkoi"
  },
  {
    "province_id": "50",
    "amphur_id": "5019",
    "name_th": "\u0e2a\u0e32\u0e23\u0e20\u0e35   ",
    "name_en": "Saraphi"
  },
  {
    "province_id": "50",
    "amphur_id": "5020",
    "name_th": "\u0e40\u0e27\u0e35\u0e22\u0e07\u0e41\u0e2b\u0e07   ",
    "name_en": "Wiang Haeng"
  },
  {
    "province_id": "50",
    "amphur_id": "5021",
    "name_th": "\u0e44\u0e0a\u0e22\u0e1b\u0e23\u0e32\u0e01\u0e32\u0e23   ",
    "name_en": "Chai Prakan"
  },
  {
    "province_id": "50",
    "amphur_id": "5022",
    "name_th": "\u0e41\u0e21\u0e48\u0e27\u0e32\u0e07   ",
    "name_en": "Mae Wang"
  },
  {
    "province_id": "50",
    "amphur_id": "5023",
    "name_th": "\u0e41\u0e21\u0e48\u0e2d\u0e2d\u0e19   ",
    "name_en": "Mae On"
  },
  {
    "province_id": "50",
    "amphur_id": "5024",
    "name_th": "\u0e14\u0e2d\u0e22\u0e2b\u0e25\u0e48\u0e2d   ",
    "name_en": "Doi Lo"
  },
  {
    "province_id": "50",
    "amphur_id": "5051",
    "name_th": "\u0e40\u0e17\u0e28\u0e1a\u0e32\u0e25\u0e19\u0e04\u0e23\u0e40\u0e0a\u0e35\u0e22\u0e07\u0e43\u0e2b\u0e21\u0e48 (\u0e2a\u0e32\u0e02\u0e32\u0e41\u0e02\u0e27\u0e07\u0e01\u0e32\u0e25\u0e27\u0e34\u0e25\u0e30)*   ",
    "name_en": "Tet Saban Nakorn Chiangmai(Kan lawi la)*"
  },
  {
    "province_id": "50",
    "amphur_id": "5052",
    "name_th": "\u0e40\u0e17\u0e28\u0e1a\u0e32\u0e25\u0e19\u0e04\u0e23\u0e40\u0e0a\u0e35\u0e22\u0e07\u0e43\u0e2b\u0e21\u0e48 (\u0e2a\u0e32\u0e02\u0e32\u0e41\u0e02\u0e27\u0e07\u0e28\u0e23\u0e35\u0e27\u0e34\u0e0a\u0e31)*   ",
    "name_en": "Tet Saban Nakorn Chiangmai(Sri Wi)*"
  },
  {
    "province_id": "50",
    "amphur_id": "5053",
    "name_th": "\u0e40\u0e17\u0e28\u0e1a\u0e32\u0e25\u0e19\u0e04\u0e23\u0e40\u0e0a\u0e35\u0e22\u0e07\u0e43\u0e2b\u0e21\u0e48 (\u0e2a\u0e32\u0e02\u0e32\u0e40\u0e21\u0e47\u0e07\u0e23\u0e32\u0e22)*   ",
    "name_en": "Tet Saban Nakorn Chiangmai(Meng Rai)*"
  },
  {
    "province_id": "51",
    "amphur_id": "5101",
    "name_th": "\u0e40\u0e21\u0e37\u0e2d\u0e07\u0e25\u0e33\u0e1e\u0e39\u0e19   ",
    "name_en": "Mueang Lamphun"
  },
  {
    "province_id": "51",
    "amphur_id": "5102",
    "name_th": "\u0e41\u0e21\u0e48\u0e17\u0e32   ",
    "name_en": "Mae Tha"
  },
  {
    "province_id": "51",
    "amphur_id": "5103",
    "name_th": "\u0e1a\u0e49\u0e32\u0e19\u0e42\u0e2e\u0e48\u0e07   ",
    "name_en": "Ban Hong"
  },
  {
    "province_id": "51",
    "amphur_id": "5104",
    "name_th": "\u0e25\u0e35\u0e49   ",
    "name_en": "Li"
  },
  {
    "province_id": "51",
    "amphur_id": "5105",
    "name_th": "\u0e17\u0e38\u0e48\u0e07\u0e2b\u0e31\u0e27\u0e0a\u0e49\u0e32\u0e07   ",
    "name_en": "Thung Hua Chang"
  },
  {
    "province_id": "51",
    "amphur_id": "5106",
    "name_th": "\u0e1b\u0e48\u0e32\u0e0b\u0e32\u0e07   ",
    "name_en": "Pa Sang"
  },
  {
    "province_id": "51",
    "amphur_id": "5107",
    "name_th": "\u0e1a\u0e49\u0e32\u0e19\u0e18\u0e34   ",
    "name_en": "Ban Thi"
  },
  {
    "province_id": "51",
    "amphur_id": "5108",
    "name_th": "\u0e40\u0e27\u0e35\u0e22\u0e07\u0e2b\u0e19\u0e2d\u0e07\u0e25\u0e48\u0e2d\u0e07   ",
    "name_en": "Wiang Nong Long"
  },
  {
    "province_id": "52",
    "amphur_id": "5201",
    "name_th": "\u0e40\u0e21\u0e37\u0e2d\u0e07\u0e25\u0e33\u0e1b\u0e32\u0e07   ",
    "name_en": "Mueang Lampang"
  },
  {
    "province_id": "52",
    "amphur_id": "5202",
    "name_th": "\u0e41\u0e21\u0e48\u0e40\u0e21\u0e32\u0e30   ",
    "name_en": "Mae Mo"
  },
  {
    "province_id": "52",
    "amphur_id": "5203",
    "name_th": "\u0e40\u0e01\u0e32\u0e30\u0e04\u0e32   ",
    "name_en": "Ko Kha"
  },
  {
    "province_id": "52",
    "amphur_id": "5204",
    "name_th": "\u0e40\u0e2a\u0e23\u0e34\u0e21\u0e07\u0e32\u0e21   ",
    "name_en": "Soem Ngam"
  },
  {
    "province_id": "52",
    "amphur_id": "5205",
    "name_th": "\u0e07\u0e32\u0e27   ",
    "name_en": "Ngao"
  },
  {
    "province_id": "52",
    "amphur_id": "5206",
    "name_th": "\u0e41\u0e08\u0e49\u0e2b\u0e48\u0e21   ",
    "name_en": "Chae Hom"
  },
  {
    "province_id": "52",
    "amphur_id": "5207",
    "name_th": "\u0e27\u0e31\u0e07\u0e40\u0e2b\u0e19\u0e37\u0e2d   ",
    "name_en": "Wang Nuea"
  },
  {
    "province_id": "52",
    "amphur_id": "5208",
    "name_th": "\u0e40\u0e16\u0e34\u0e19   ",
    "name_en": "Thoen"
  },
  {
    "province_id": "52",
    "amphur_id": "5209",
    "name_th": "\u0e41\u0e21\u0e48\u0e1e\u0e23\u0e34\u0e01   ",
    "name_en": "Mae Phrik"
  },
  {
    "province_id": "52",
    "amphur_id": "5210",
    "name_th": "\u0e41\u0e21\u0e48\u0e17\u0e30   ",
    "name_en": "Mae Tha"
  },
  {
    "province_id": "52",
    "amphur_id": "5211",
    "name_th": "\u0e2a\u0e1a\u0e1b\u0e23\u0e32\u0e1a   ",
    "name_en": "Sop Prap"
  },
  {
    "province_id": "52",
    "amphur_id": "5212",
    "name_th": "\u0e2b\u0e49\u0e32\u0e07\u0e09\u0e31\u0e15\u0e23   ",
    "name_en": "Hang Chat"
  },
  {
    "province_id": "52",
    "amphur_id": "5213",
    "name_th": "\u0e40\u0e21\u0e37\u0e2d\u0e07\u0e1b\u0e32\u0e19   ",
    "name_en": "Mueang Pan"
  },
  {
    "province_id": "53",
    "amphur_id": "5301",
    "name_th": "\u0e40\u0e21\u0e37\u0e2d\u0e07\u0e2d\u0e38\u0e15\u0e23\u0e14\u0e34\u0e15\u0e16\u0e4c   ",
    "name_en": "Mueang Uttaradit"
  },
  {
    "province_id": "53",
    "amphur_id": "5302",
    "name_th": "\u0e15\u0e23\u0e2d\u0e19   ",
    "name_en": "Tron"
  },
  {
    "province_id": "53",
    "amphur_id": "5303",
    "name_th": "\u0e17\u0e48\u0e32\u0e1b\u0e25\u0e32   ",
    "name_en": "Tha Pla"
  },
  {
    "province_id": "53",
    "amphur_id": "5304",
    "name_th": "\u0e19\u0e49\u0e33\u0e1b\u0e32\u0e14   ",
    "name_en": "Nam Pat"
  },
  {
    "province_id": "53",
    "amphur_id": "5305",
    "name_th": "\u0e1f\u0e32\u0e01\u0e17\u0e48\u0e32   ",
    "name_en": "Fak Tha"
  },
  {
    "province_id": "53",
    "amphur_id": "5306",
    "name_th": "\u0e1a\u0e49\u0e32\u0e19\u0e42\u0e04\u0e01   ",
    "name_en": "Ban Khok"
  },
  {
    "province_id": "53",
    "amphur_id": "5307",
    "name_th": "\u0e1e\u0e34\u0e0a\u0e31\u0e22   ",
    "name_en": "Phichai"
  },
  {
    "province_id": "53",
    "amphur_id": "5308",
    "name_th": "\u0e25\u0e31\u0e1a\u0e41\u0e25   ",
    "name_en": "Laplae"
  },
  {
    "province_id": "53",
    "amphur_id": "5309",
    "name_th": "\u0e17\u0e2d\u0e07\u0e41\u0e2a\u0e19\u0e02\u0e31\u0e19   ",
    "name_en": "Thong Saen Khan"
  },
  {
    "province_id": "54",
    "amphur_id": "5401",
    "name_th": "\u0e40\u0e21\u0e37\u0e2d\u0e07\u0e41\u0e1e\u0e23\u0e48   ",
    "name_en": "Mueang Phrae"
  },
  {
    "province_id": "54",
    "amphur_id": "5402",
    "name_th": "\u0e23\u0e49\u0e2d\u0e07\u0e01\u0e27\u0e32\u0e07   ",
    "name_en": "Rong Kwang"
  },
  {
    "province_id": "54",
    "amphur_id": "5403",
    "name_th": "\u0e25\u0e2d\u0e07   ",
    "name_en": "Long"
  },
  {
    "province_id": "54",
    "amphur_id": "5404",
    "name_th": "\u0e2a\u0e39\u0e07\u0e40\u0e21\u0e48\u0e19   ",
    "name_en": "Sung Men"
  },
  {
    "province_id": "54",
    "amphur_id": "5405",
    "name_th": "\u0e40\u0e14\u0e48\u0e19\u0e0a\u0e31\u0e22   ",
    "name_en": "Den Chai"
  },
  {
    "province_id": "54",
    "amphur_id": "5406",
    "name_th": "\u0e2a\u0e2d\u0e07   ",
    "name_en": "Song"
  },
  {
    "province_id": "54",
    "amphur_id": "5407",
    "name_th": "\u0e27\u0e31\u0e07\u0e0a\u0e34\u0e49\u0e19   ",
    "name_en": "Wang Chin"
  },
  {
    "province_id": "54",
    "amphur_id": "5408",
    "name_th": "\u0e2b\u0e19\u0e2d\u0e07\u0e21\u0e48\u0e27\u0e07\u0e44\u0e02\u0e48   ",
    "name_en": "Nong Muang Khai"
  },
  {
    "province_id": "55",
    "amphur_id": "5501",
    "name_th": "\u0e40\u0e21\u0e37\u0e2d\u0e07\u0e19\u0e48\u0e32\u0e19   ",
    "name_en": "Mueang Nan"
  },
  {
    "province_id": "55",
    "amphur_id": "5502",
    "name_th": "\u0e41\u0e21\u0e48\u0e08\u0e23\u0e34\u0e21   ",
    "name_en": "Mae Charim"
  },
  {
    "province_id": "55",
    "amphur_id": "5503",
    "name_th": "\u0e1a\u0e49\u0e32\u0e19\u0e2b\u0e25\u0e27\u0e07   ",
    "name_en": "Ban Luang"
  },
  {
    "province_id": "55",
    "amphur_id": "5504",
    "name_th": "\u0e19\u0e32\u0e19\u0e49\u0e2d\u0e22   ",
    "name_en": "Na Noi"
  },
  {
    "province_id": "55",
    "amphur_id": "5505",
    "name_th": "\u0e1b\u0e31\u0e27   ",
    "name_en": "Pua"
  },
  {
    "province_id": "55",
    "amphur_id": "5506",
    "name_th": "\u0e17\u0e48\u0e32\u0e27\u0e31\u0e07\u0e1c\u0e32   ",
    "name_en": "Tha Wang Pha"
  },
  {
    "province_id": "55",
    "amphur_id": "5507",
    "name_th": "\u0e40\u0e27\u0e35\u0e22\u0e07\u0e2a\u0e32   ",
    "name_en": "Wiang Sa"
  },
  {
    "province_id": "55",
    "amphur_id": "5508",
    "name_th": "\u0e17\u0e38\u0e48\u0e07\u0e0a\u0e49\u0e32\u0e07   ",
    "name_en": "Thung Chang"
  },
  {
    "province_id": "55",
    "amphur_id": "5509",
    "name_th": "\u0e40\u0e0a\u0e35\u0e22\u0e07\u0e01\u0e25\u0e32\u0e07   ",
    "name_en": "Chiang Klang"
  },
  {
    "province_id": "55",
    "amphur_id": "5510",
    "name_th": "\u0e19\u0e32\u0e2b\u0e21\u0e37\u0e48\u0e19   ",
    "name_en": "Na Muen"
  },
  {
    "province_id": "55",
    "amphur_id": "5511",
    "name_th": "\u0e2a\u0e31\u0e19\u0e15\u0e34\u0e2a\u0e38\u0e02   ",
    "name_en": "Santi Suk"
  },
  {
    "province_id": "55",
    "amphur_id": "5512",
    "name_th": "\u0e1a\u0e48\u0e2d\u0e40\u0e01\u0e25\u0e37\u0e2d   ",
    "name_en": "Bo Kluea"
  },
  {
    "province_id": "55",
    "amphur_id": "5513",
    "name_th": "\u0e2a\u0e2d\u0e07\u0e41\u0e04\u0e27   ",
    "name_en": "Song Khwae"
  },
  {
    "province_id": "55",
    "amphur_id": "5514",
    "name_th": "\u0e20\u0e39\u0e40\u0e1e\u0e35\u0e22\u0e07   ",
    "name_en": "Phu Phiang"
  },
  {
    "province_id": "55",
    "amphur_id": "5515",
    "name_th": "\u0e40\u0e09\u0e25\u0e34\u0e21\u0e1e\u0e23\u0e30\u0e40\u0e01\u0e35\u0e22\u0e23\u0e15\u0e34   ",
    "name_en": "Chaloem Phra Kiat"
  },
  {
    "province_id": "56",
    "amphur_id": "5601",
    "name_th": "\u0e40\u0e21\u0e37\u0e2d\u0e07\u0e1e\u0e30\u0e40\u0e22\u0e32   ",
    "name_en": "Mueang Phayao"
  },
  {
    "province_id": "56",
    "amphur_id": "5602",
    "name_th": "\u0e08\u0e38\u0e19   ",
    "name_en": "Chun"
  },
  {
    "province_id": "56",
    "amphur_id": "5603",
    "name_th": "\u0e40\u0e0a\u0e35\u0e22\u0e07\u0e04\u0e33   ",
    "name_en": "Chiang Kham"
  },
  {
    "province_id": "56",
    "amphur_id": "5604",
    "name_th": "\u0e40\u0e0a\u0e35\u0e22\u0e07\u0e21\u0e48\u0e27\u0e19   ",
    "name_en": "Chiang Muan"
  },
  {
    "province_id": "56",
    "amphur_id": "5605",
    "name_th": "\u0e14\u0e2d\u0e01\u0e04\u0e33\u0e43\u0e15\u0e49   ",
    "name_en": "Dok Khamtai"
  },
  {
    "province_id": "56",
    "amphur_id": "5606",
    "name_th": "\u0e1b\u0e07   ",
    "name_en": "Pong"
  },
  {
    "province_id": "56",
    "amphur_id": "5607",
    "name_th": "\u0e41\u0e21\u0e48\u0e43\u0e08   ",
    "name_en": "Mae Chai"
  },
  {
    "province_id": "56",
    "amphur_id": "5608",
    "name_th": "\u0e20\u0e39\u0e0b\u0e32\u0e07   ",
    "name_en": "Phu Sang"
  },
  {
    "province_id": "56",
    "amphur_id": "5609",
    "name_th": "\u0e20\u0e39\u0e01\u0e32\u0e21\u0e22\u0e32\u0e27   ",
    "name_en": "Phu Kamyao"
  },
  {
    "province_id": "57",
    "amphur_id": "5701",
    "name_th": "\u0e40\u0e21\u0e37\u0e2d\u0e07\u0e40\u0e0a\u0e35\u0e22\u0e07\u0e23\u0e32\u0e22   ",
    "name_en": "Mueang Chiang Rai"
  },
  {
    "province_id": "57",
    "amphur_id": "5702",
    "name_th": "\u0e40\u0e27\u0e35\u0e22\u0e07\u0e0a\u0e31\u0e22   ",
    "name_en": "Wiang Chai"
  },
  {
    "province_id": "57",
    "amphur_id": "5703",
    "name_th": "\u0e40\u0e0a\u0e35\u0e22\u0e07\u0e02\u0e2d\u0e07   ",
    "name_en": "Chiang Khong"
  },
  {
    "province_id": "57",
    "amphur_id": "5704",
    "name_th": "\u0e40\u0e17\u0e34\u0e07   ",
    "name_en": "Thoeng"
  },
  {
    "province_id": "57",
    "amphur_id": "5705",
    "name_th": "\u0e1e\u0e32\u0e19   ",
    "name_en": "Phan"
  },
  {
    "province_id": "57",
    "amphur_id": "5706",
    "name_th": "\u0e1b\u0e48\u0e32\u0e41\u0e14\u0e14   ",
    "name_en": "Pa Daet"
  },
  {
    "province_id": "57",
    "amphur_id": "5707",
    "name_th": "\u0e41\u0e21\u0e48\u0e08\u0e31\u0e19   ",
    "name_en": "Mae Chan"
  },
  {
    "province_id": "57",
    "amphur_id": "5708",
    "name_th": "\u0e40\u0e0a\u0e35\u0e22\u0e07\u0e41\u0e2a\u0e19   ",
    "name_en": "Chiang Saen"
  },
  {
    "province_id": "57",
    "amphur_id": "5709",
    "name_th": "\u0e41\u0e21\u0e48\u0e2a\u0e32\u0e22   ",
    "name_en": "Mae Sai"
  },
  {
    "province_id": "57",
    "amphur_id": "5710",
    "name_th": "\u0e41\u0e21\u0e48\u0e2a\u0e23\u0e27\u0e22   ",
    "name_en": "Mae Suai"
  },
  {
    "province_id": "57",
    "amphur_id": "5711",
    "name_th": "\u0e40\u0e27\u0e35\u0e22\u0e07\u0e1b\u0e48\u0e32\u0e40\u0e1b\u0e49\u0e32   ",
    "name_en": "Wiang Pa Pao"
  },
  {
    "province_id": "57",
    "amphur_id": "5712",
    "name_th": "\u0e1e\u0e0d\u0e32\u0e40\u0e21\u0e47\u0e07\u0e23\u0e32\u0e22   ",
    "name_en": "Phaya Mengrai"
  },
  {
    "province_id": "57",
    "amphur_id": "5713",
    "name_th": "\u0e40\u0e27\u0e35\u0e22\u0e07\u0e41\u0e01\u0e48\u0e19   ",
    "name_en": "Wiang Kaen"
  },
  {
    "province_id": "57",
    "amphur_id": "5714",
    "name_th": "\u0e02\u0e38\u0e19\u0e15\u0e32\u0e25   ",
    "name_en": "Khun Tan"
  },
  {
    "province_id": "57",
    "amphur_id": "5715",
    "name_th": "\u0e41\u0e21\u0e48\u0e1f\u0e49\u0e32\u0e2b\u0e25\u0e27\u0e07   ",
    "name_en": "Mae Fa Luang"
  },
  {
    "province_id": "57",
    "amphur_id": "5716",
    "name_th": "\u0e41\u0e21\u0e48\u0e25\u0e32\u0e27   ",
    "name_en": "Mae Lao"
  },
  {
    "province_id": "57",
    "amphur_id": "5717",
    "name_th": "\u0e40\u0e27\u0e35\u0e22\u0e07\u0e40\u0e0a\u0e35\u0e22\u0e07\u0e23\u0e38\u0e49\u0e07   ",
    "name_en": "Wiang Chiang Rung"
  },
  {
    "province_id": "57",
    "amphur_id": "5718",
    "name_th": "\u0e14\u0e2d\u0e22\u0e2b\u0e25\u0e27\u0e07   ",
    "name_en": "Doi Luang"
  },
  {
    "province_id": "58",
    "amphur_id": "5801",
    "name_th": "\u0e40\u0e21\u0e37\u0e2d\u0e07\u0e41\u0e21\u0e48\u0e2e\u0e48\u0e2d\u0e07\u0e2a\u0e2d\u0e19   ",
    "name_en": "Mueang Mae Hong Son"
  },
  {
    "province_id": "58",
    "amphur_id": "5802",
    "name_th": "\u0e02\u0e38\u0e19\u0e22\u0e27\u0e21   ",
    "name_en": "Khun Yuam"
  },
  {
    "province_id": "58",
    "amphur_id": "5803",
    "name_th": "\u0e1b\u0e32\u0e22   ",
    "name_en": "Pai"
  },
  {
    "province_id": "58",
    "amphur_id": "5804",
    "name_th": "\u0e41\u0e21\u0e48\u0e2a\u0e30\u0e40\u0e23\u0e35\u0e22\u0e07   ",
    "name_en": "Mae Sariang"
  },
  {
    "province_id": "58",
    "amphur_id": "5805",
    "name_th": "\u0e41\u0e21\u0e48\u0e25\u0e32\u0e19\u0e49\u0e2d\u0e22   ",
    "name_en": "Mae La Noi"
  },
  {
    "province_id": "58",
    "amphur_id": "5806",
    "name_th": "\u0e2a\u0e1a\u0e40\u0e21\u0e22   ",
    "name_en": "Sop Moei"
  },
  {
    "province_id": "58",
    "amphur_id": "5807",
    "name_th": "\u0e1b\u0e32\u0e07\u0e21\u0e30\u0e1c\u0e49\u0e32   ",
    "name_en": "Pang Mapha"
  },
  {
    "province_id": "58",
    "amphur_id": "5881",
    "name_th": "*\u0e2d.\u0e21\u0e48\u0e27\u0e22\u0e15\u0e48\u0e2d  \u0e08.\u0e41\u0e21\u0e48\u0e2e\u0e48\u0e2d\u0e07\u0e2a\u0e2d\u0e19   ",
    "name_en": "Muen Tor"
  },
  {
    "province_id": "60",
    "amphur_id": "6001",
    "name_th": "\u0e40\u0e21\u0e37\u0e2d\u0e07\u0e19\u0e04\u0e23\u0e2a\u0e27\u0e23\u0e23\u0e04\u0e4c   ",
    "name_en": "Mueang Nakhon Sawan"
  },
  {
    "province_id": "60",
    "amphur_id": "6002",
    "name_th": "\u0e42\u0e01\u0e23\u0e01\u0e1e\u0e23\u0e30   ",
    "name_en": "Krok Phra"
  },
  {
    "province_id": "60",
    "amphur_id": "6003",
    "name_th": "\u0e0a\u0e38\u0e21\u0e41\u0e2a\u0e07   ",
    "name_en": "Chum Saeng"
  },
  {
    "province_id": "60",
    "amphur_id": "6004",
    "name_th": "\u0e2b\u0e19\u0e2d\u0e07\u0e1a\u0e31\u0e27   ",
    "name_en": "Nong Bua"
  },
  {
    "province_id": "60",
    "amphur_id": "6005",
    "name_th": "\u0e1a\u0e23\u0e23\u0e1e\u0e15\u0e1e\u0e34\u0e2a\u0e31\u0e22   ",
    "name_en": "Banphot Phisai"
  },
  {
    "province_id": "60",
    "amphur_id": "6006",
    "name_th": "\u0e40\u0e01\u0e49\u0e32\u0e40\u0e25\u0e35\u0e49\u0e22\u0e27   ",
    "name_en": "Kao Liao"
  },
  {
    "province_id": "60",
    "amphur_id": "6007",
    "name_th": "\u0e15\u0e32\u0e04\u0e25\u0e35   ",
    "name_en": "Takhli"
  },
  {
    "province_id": "60",
    "amphur_id": "6008",
    "name_th": "\u0e17\u0e48\u0e32\u0e15\u0e30\u0e42\u0e01   ",
    "name_en": "Takhli"
  },
  {
    "province_id": "60",
    "amphur_id": "6009",
    "name_th": "\u0e44\u0e1e\u0e28\u0e32\u0e25\u0e35   ",
    "name_en": "Phaisali"
  },
  {
    "province_id": "60",
    "amphur_id": "6010",
    "name_th": "\u0e1e\u0e22\u0e38\u0e2b\u0e30\u0e04\u0e35\u0e23\u0e35   ",
    "name_en": "Phayuha Khiri"
  },
  {
    "province_id": "60",
    "amphur_id": "6011",
    "name_th": "\u0e25\u0e32\u0e14\u0e22\u0e32\u0e27   ",
    "name_en": "Phayuha Khiri"
  },
  {
    "province_id": "60",
    "amphur_id": "6012",
    "name_th": "\u0e15\u0e32\u0e01\u0e1f\u0e49\u0e32   ",
    "name_en": "Tak Fa"
  },
  {
    "province_id": "60",
    "amphur_id": "6013",
    "name_th": "\u0e41\u0e21\u0e48\u0e27\u0e07\u0e01\u0e4c   ",
    "name_en": "Mae Wong"
  },
  {
    "province_id": "60",
    "amphur_id": "6014",
    "name_th": "\u0e41\u0e21\u0e48\u0e40\u0e1b\u0e34\u0e19   ",
    "name_en": "Mae Poen"
  },
  {
    "province_id": "60",
    "amphur_id": "6015",
    "name_th": "\u0e0a\u0e38\u0e21\u0e15\u0e32\u0e1a\u0e07   ",
    "name_en": "Chum Ta Bong"
  },
  {
    "province_id": "60",
    "amphur_id": "6051",
    "name_th": "\u0e2a\u0e32\u0e02\u0e32\u0e15\u0e33\u0e1a\u0e25\u0e2b\u0e49\u0e27\u0e22\u0e19\u0e49\u0e33\u0e2b\u0e2d\u0e21*   ",
    "name_en": "Huen Nam Hom"
  },
  {
    "province_id": "60",
    "amphur_id": "6052",
    "name_th": "\u0e01\u0e34\u0e48\u0e07\u0e2d\u0e33\u0e40\u0e20\u0e2d\u0e0a\u0e38\u0e21\u0e15\u0e32\u0e1a\u0e07 (\u0e2a\u0e32\u0e02\u0e32\u0e15\u0e33\u0e1a\u0e25\u0e0a\u0e38\u0e21\u0e15\u0e32\u0e1a\u0e07)*   ",
    "name_en": "Chum Ta Bong"
  },
  {
    "province_id": "60",
    "amphur_id": "6053",
    "name_th": "\u0e41\u0e21\u0e48\u0e27\u0e07\u0e01\u0e4c (\u0e2a\u0e32\u0e02\u0e32\u0e15\u0e33\u0e1a\u0e25\u0e41\u0e21\u0e48\u0e40\u0e25\u0e48\u0e22\u0e4c)*   ",
    "name_en": "Mea Ley"
  },
  {
    "province_id": "61",
    "amphur_id": "6101",
    "name_th": "\u0e40\u0e21\u0e37\u0e2d\u0e07\u0e2d\u0e38\u0e17\u0e31\u0e22\u0e18\u0e32\u0e19\u0e35   ",
    "name_en": "Mueang Uthai Thani"
  },
  {
    "province_id": "61",
    "amphur_id": "6102",
    "name_th": "\u0e17\u0e31\u0e1e\u0e17\u0e31\u0e19   ",
    "name_en": "Thap Than"
  },
  {
    "province_id": "61",
    "amphur_id": "6103",
    "name_th": "\u0e2a\u0e27\u0e48\u0e32\u0e07\u0e2d\u0e32\u0e23\u0e21\u0e13\u0e4c   ",
    "name_en": "Sawang Arom"
  },
  {
    "province_id": "61",
    "amphur_id": "6104",
    "name_th": "\u0e2b\u0e19\u0e2d\u0e07\u0e09\u0e32\u0e07   ",
    "name_en": "Nong Chang"
  },
  {
    "province_id": "61",
    "amphur_id": "6105",
    "name_th": "\u0e2b\u0e19\u0e2d\u0e07\u0e02\u0e32\u0e2b\u0e22\u0e48\u0e32\u0e07   ",
    "name_en": "Nong Khayang"
  },
  {
    "province_id": "61",
    "amphur_id": "6106",
    "name_th": "\u0e1a\u0e49\u0e32\u0e19\u0e44\u0e23\u0e48   ",
    "name_en": "Ban Rai"
  },
  {
    "province_id": "61",
    "amphur_id": "6107",
    "name_th": "\u0e25\u0e32\u0e19\u0e2a\u0e31\u0e01   ",
    "name_en": "Lan Sak"
  },
  {
    "province_id": "61",
    "amphur_id": "6108",
    "name_th": "\u0e2b\u0e49\u0e27\u0e22\u0e04\u0e15   ",
    "name_en": "Huai Khot"
  },
  {
    "province_id": "62",
    "amphur_id": "6201",
    "name_th": "\u0e40\u0e21\u0e37\u0e2d\u0e07\u0e01\u0e33\u0e41\u0e1e\u0e07\u0e40\u0e1e\u0e0a\u0e23   ",
    "name_en": "Mueang Kamphaeng Phet"
  },
  {
    "province_id": "62",
    "amphur_id": "6202",
    "name_th": "\u0e44\u0e17\u0e23\u0e07\u0e32\u0e21   ",
    "name_en": "Sai Ngam"
  },
  {
    "province_id": "62",
    "amphur_id": "6203",
    "name_th": "\u0e04\u0e25\u0e2d\u0e07\u0e25\u0e32\u0e19   ",
    "name_en": "Khlong Lan"
  },
  {
    "province_id": "62",
    "amphur_id": "6204",
    "name_th": "\u0e02\u0e32\u0e13\u0e38\u0e27\u0e23\u0e25\u0e31\u0e01\u0e29\u0e1a\u0e38\u0e23\u0e35   ",
    "name_en": "Khanu Woralaksaburi"
  },
  {
    "province_id": "62",
    "amphur_id": "6205",
    "name_th": "\u0e04\u0e25\u0e2d\u0e07\u0e02\u0e25\u0e38\u0e07   ",
    "name_en": "Khlong Khlung"
  },
  {
    "province_id": "62",
    "amphur_id": "6206",
    "name_th": "\u0e1e\u0e23\u0e32\u0e19\u0e01\u0e23\u0e30\u0e15\u0e48\u0e32\u0e22   ",
    "name_en": "Phran Kratai"
  },
  {
    "province_id": "62",
    "amphur_id": "6207",
    "name_th": "\u0e25\u0e32\u0e19\u0e01\u0e23\u0e30\u0e1a\u0e37\u0e2d   ",
    "name_en": "Lan Krabue"
  },
  {
    "province_id": "62",
    "amphur_id": "6208",
    "name_th": "\u0e17\u0e23\u0e32\u0e22\u0e17\u0e2d\u0e07\u0e27\u0e31\u0e12\u0e19\u0e32   ",
    "name_en": "Sai Thong Watthana"
  },
  {
    "province_id": "62",
    "amphur_id": "6209",
    "name_th": "\u0e1b\u0e32\u0e07\u0e28\u0e34\u0e25\u0e32\u0e17\u0e2d\u0e07   ",
    "name_en": "Pang Sila Thong"
  },
  {
    "province_id": "62",
    "amphur_id": "6210",
    "name_th": "\u0e1a\u0e36\u0e07\u0e2a\u0e32\u0e21\u0e31\u0e04\u0e04\u0e35   ",
    "name_en": "Bueng Samakkhi"
  },
  {
    "province_id": "62",
    "amphur_id": "6211",
    "name_th": "\u0e42\u0e01\u0e2a\u0e31\u0e21\u0e1e\u0e35\u0e19\u0e04\u0e23   ",
    "name_en": "Kosamphi Nakhon"
  },
  {
    "province_id": "63",
    "amphur_id": "6301",
    "name_th": "\u0e40\u0e21\u0e37\u0e2d\u0e07\u0e15\u0e32\u0e01   ",
    "name_en": "Mueang Tak"
  },
  {
    "province_id": "63",
    "amphur_id": "6302",
    "name_th": "\u0e1a\u0e49\u0e32\u0e19\u0e15\u0e32\u0e01   ",
    "name_en": "Ban Tak"
  },
  {
    "province_id": "63",
    "amphur_id": "6303",
    "name_th": "\u0e2a\u0e32\u0e21\u0e40\u0e07\u0e32   ",
    "name_en": "Sam Ngao"
  },
  {
    "province_id": "63",
    "amphur_id": "6304",
    "name_th": "\u0e41\u0e21\u0e48\u0e23\u0e30\u0e21\u0e32\u0e14   ",
    "name_en": "Mae Ramat"
  },
  {
    "province_id": "63",
    "amphur_id": "6305",
    "name_th": "\u0e17\u0e48\u0e32\u0e2a\u0e2d\u0e07\u0e22\u0e32\u0e07   ",
    "name_en": "Tha Song Yang"
  },
  {
    "province_id": "63",
    "amphur_id": "6306",
    "name_th": "\u0e41\u0e21\u0e48\u0e2a\u0e2d\u0e14   ",
    "name_en": "Mae Sot"
  },
  {
    "province_id": "63",
    "amphur_id": "6307",
    "name_th": "\u0e1e\u0e1a\u0e1e\u0e23\u0e30   ",
    "name_en": "Phop Phra"
  },
  {
    "province_id": "63",
    "amphur_id": "6308",
    "name_th": "\u0e2d\u0e38\u0e49\u0e21\u0e1c\u0e32\u0e07   ",
    "name_en": "Umphang"
  },
  {
    "province_id": "63",
    "amphur_id": "6309",
    "name_th": "\u0e27\u0e31\u0e07\u0e40\u0e08\u0e49\u0e32   ",
    "name_en": "Wang Chao"
  },
  {
    "province_id": "63",
    "amphur_id": "6381",
    "name_th": "*\u0e01\u0e34\u0e48\u0e07 \u0e2d.\u0e17\u0e48\u0e32\u0e1b\u0e38\u0e22  \u0e08.\u0e15\u0e32\u0e01   ",
    "name_en": "*King Ta Pui"
  },
  {
    "province_id": "64",
    "amphur_id": "6401",
    "name_th": "\u0e40\u0e21\u0e37\u0e2d\u0e07\u0e2a\u0e38\u0e42\u0e02\u0e17\u0e31\u0e22   ",
    "name_en": "Mueang Sukhothai"
  },
  {
    "province_id": "64",
    "amphur_id": "6402",
    "name_th": "\u0e1a\u0e49\u0e32\u0e19\u0e14\u0e48\u0e32\u0e19\u0e25\u0e32\u0e19\u0e2b\u0e2d\u0e22   ",
    "name_en": "Ban Dan Lan Hoi"
  },
  {
    "province_id": "64",
    "amphur_id": "6403",
    "name_th": "\u0e04\u0e35\u0e23\u0e35\u0e21\u0e32\u0e28   ",
    "name_en": "Khiri Mat"
  },
  {
    "province_id": "64",
    "amphur_id": "6404",
    "name_th": "\u0e01\u0e07\u0e44\u0e01\u0e23\u0e25\u0e32\u0e28   ",
    "name_en": "Kong Krailat"
  },
  {
    "province_id": "64",
    "amphur_id": "6405",
    "name_th": "\u0e28\u0e23\u0e35\u0e2a\u0e31\u0e0a\u0e19\u0e32\u0e25\u0e31\u0e22   ",
    "name_en": "Si Satchanalai"
  },
  {
    "province_id": "64",
    "amphur_id": "6406",
    "name_th": "\u0e28\u0e23\u0e35\u0e2a\u0e33\u0e42\u0e23\u0e07   ",
    "name_en": "Si Samrong"
  },
  {
    "province_id": "64",
    "amphur_id": "6407",
    "name_th": "\u0e2a\u0e27\u0e23\u0e23\u0e04\u0e42\u0e25\u0e01   ",
    "name_en": "Sawankhalok"
  },
  {
    "province_id": "64",
    "amphur_id": "6408",
    "name_th": "\u0e28\u0e23\u0e35\u0e19\u0e04\u0e23   ",
    "name_en": "Si Nakhon"
  },
  {
    "province_id": "64",
    "amphur_id": "6409",
    "name_th": "\u0e17\u0e38\u0e48\u0e07\u0e40\u0e2a\u0e25\u0e35\u0e48\u0e22\u0e21   ",
    "name_en": "Thung Saliam"
  },
  {
    "province_id": "65",
    "amphur_id": "6501",
    "name_th": "\u0e40\u0e21\u0e37\u0e2d\u0e07\u0e1e\u0e34\u0e29\u0e13\u0e38\u0e42\u0e25\u0e01   ",
    "name_en": "Mueang Phitsanulok"
  },
  {
    "province_id": "65",
    "amphur_id": "6502",
    "name_th": "\u0e19\u0e04\u0e23\u0e44\u0e17\u0e22   ",
    "name_en": "Nakhon Thai"
  },
  {
    "province_id": "65",
    "amphur_id": "6503",
    "name_th": "\u0e0a\u0e32\u0e15\u0e34\u0e15\u0e23\u0e30\u0e01\u0e32\u0e23   ",
    "name_en": "Chat Trakan"
  },
  {
    "province_id": "65",
    "amphur_id": "6504",
    "name_th": "\u0e1a\u0e32\u0e07\u0e23\u0e30\u0e01\u0e33   ",
    "name_en": "Bang Rakam"
  },
  {
    "province_id": "65",
    "amphur_id": "6505",
    "name_th": "\u0e1a\u0e32\u0e07\u0e01\u0e23\u0e30\u0e17\u0e38\u0e48\u0e21   ",
    "name_en": "Bang Krathum"
  },
  {
    "province_id": "65",
    "amphur_id": "6506",
    "name_th": "\u0e1e\u0e23\u0e2b\u0e21\u0e1e\u0e34\u0e23\u0e32\u0e21   ",
    "name_en": "Phrom Phiram"
  },
  {
    "province_id": "65",
    "amphur_id": "6507",
    "name_th": "\u0e27\u0e31\u0e14\u0e42\u0e1a\u0e2a\u0e16\u0e4c   ",
    "name_en": "Wat Bot"
  },
  {
    "province_id": "65",
    "amphur_id": "6508",
    "name_th": "\u0e27\u0e31\u0e07\u0e17\u0e2d\u0e07   ",
    "name_en": "Wang Thong"
  },
  {
    "province_id": "65",
    "amphur_id": "6509",
    "name_th": "\u0e40\u0e19\u0e34\u0e19\u0e21\u0e30\u0e1b\u0e23\u0e32\u0e07   ",
    "name_en": "Noen Maprang"
  },
  {
    "province_id": "66",
    "amphur_id": "6601",
    "name_th": "\u0e40\u0e21\u0e37\u0e2d\u0e07\u0e1e\u0e34\u0e08\u0e34\u0e15\u0e23   ",
    "name_en": "Mueang Phichit"
  },
  {
    "province_id": "66",
    "amphur_id": "6602",
    "name_th": "\u0e27\u0e31\u0e07\u0e17\u0e23\u0e32\u0e22\u0e1e\u0e39\u0e19   ",
    "name_en": "Wang Sai Phun"
  },
  {
    "province_id": "66",
    "amphur_id": "6603",
    "name_th": "\u0e42\u0e1e\u0e18\u0e34\u0e4c\u0e1b\u0e23\u0e30\u0e17\u0e31\u0e1a\u0e0a\u0e49\u0e32\u0e07   ",
    "name_en": "Pho Prathap Chang"
  },
  {
    "province_id": "66",
    "amphur_id": "6604",
    "name_th": "\u0e15\u0e30\u0e1e\u0e32\u0e19\u0e2b\u0e34\u0e19   ",
    "name_en": "Taphan Hin"
  },
  {
    "province_id": "66",
    "amphur_id": "6605",
    "name_th": "\u0e1a\u0e32\u0e07\u0e21\u0e39\u0e25\u0e19\u0e32\u0e01   ",
    "name_en": "Bang Mun Nak"
  },
  {
    "province_id": "66",
    "amphur_id": "6606",
    "name_th": "\u0e42\u0e1e\u0e17\u0e30\u0e40\u0e25   ",
    "name_en": "Pho Thale"
  },
  {
    "province_id": "66",
    "amphur_id": "6607",
    "name_th": "\u0e2a\u0e32\u0e21\u0e07\u0e48\u0e32\u0e21   ",
    "name_en": "Sam Ngam"
  },
  {
    "province_id": "66",
    "amphur_id": "6608",
    "name_th": "\u0e17\u0e31\u0e1a\u0e04\u0e25\u0e49\u0e2d   ",
    "name_en": "Tap Khlo"
  },
  {
    "province_id": "66",
    "amphur_id": "6609",
    "name_th": "\u0e2a\u0e32\u0e01\u0e40\u0e2b\u0e25\u0e47\u0e01   ",
    "name_en": "Sak Lek"
  },
  {
    "province_id": "66",
    "amphur_id": "6610",
    "name_th": "\u0e1a\u0e36\u0e07\u0e19\u0e32\u0e23\u0e32\u0e07   ",
    "name_en": "Bueng Na Rang"
  },
  {
    "province_id": "66",
    "amphur_id": "6611",
    "name_th": "\u0e14\u0e07\u0e40\u0e08\u0e23\u0e34\u0e0d   ",
    "name_en": "Dong Charoen"
  },
  {
    "province_id": "66",
    "amphur_id": "6612",
    "name_th": "\u0e27\u0e0a\u0e34\u0e23\u0e1a\u0e32\u0e23\u0e21\u0e35   ",
    "name_en": "Wachirabarami"
  },
  {
    "province_id": "67",
    "amphur_id": "6701",
    "name_th": "\u0e40\u0e21\u0e37\u0e2d\u0e07\u0e40\u0e1e\u0e0a\u0e23\u0e1a\u0e39\u0e23\u0e13\u0e4c   ",
    "name_en": "Mueang Phetchabun"
  },
  {
    "province_id": "67",
    "amphur_id": "6702",
    "name_th": "\u0e0a\u0e19\u0e41\u0e14\u0e19   ",
    "name_en": "Chon Daen"
  },
  {
    "province_id": "67",
    "amphur_id": "6703",
    "name_th": "\u0e2b\u0e25\u0e48\u0e21\u0e2a\u0e31\u0e01   ",
    "name_en": "Lom Sak"
  },
  {
    "province_id": "67",
    "amphur_id": "6704",
    "name_th": "\u0e2b\u0e25\u0e48\u0e21\u0e40\u0e01\u0e48\u0e32   ",
    "name_en": "Lom Kao"
  },
  {
    "province_id": "67",
    "amphur_id": "6705",
    "name_th": "\u0e27\u0e34\u0e40\u0e0a\u0e35\u0e22\u0e23\u0e1a\u0e38\u0e23\u0e35   ",
    "name_en": "Wichian Buri"
  },
  {
    "province_id": "67",
    "amphur_id": "6706",
    "name_th": "\u0e28\u0e23\u0e35\u0e40\u0e17\u0e1e   ",
    "name_en": "Si Thep"
  },
  {
    "province_id": "67",
    "amphur_id": "6707",
    "name_th": "\u0e2b\u0e19\u0e2d\u0e07\u0e44\u0e1c\u0e48   ",
    "name_en": "Nong Phai"
  },
  {
    "province_id": "67",
    "amphur_id": "6708",
    "name_th": "\u0e1a\u0e36\u0e07\u0e2a\u0e32\u0e21\u0e1e\u0e31\u0e19   ",
    "name_en": "Bueng Sam Phan"
  },
  {
    "province_id": "67",
    "amphur_id": "6709",
    "name_th": "\u0e19\u0e49\u0e33\u0e2b\u0e19\u0e32\u0e27   ",
    "name_en": "Nam Nao"
  },
  {
    "province_id": "67",
    "amphur_id": "6710",
    "name_th": "\u0e27\u0e31\u0e07\u0e42\u0e1b\u0e48\u0e07   ",
    "name_en": "Wang Pong"
  },
  {
    "province_id": "67",
    "amphur_id": "6711",
    "name_th": "\u0e40\u0e02\u0e32\u0e04\u0e49\u0e2d   ",
    "name_en": "Khao Kho"
  },
  {
    "province_id": "70",
    "amphur_id": "7001",
    "name_th": "\u0e40\u0e21\u0e37\u0e2d\u0e07\u0e23\u0e32\u0e0a\u0e1a\u0e38\u0e23\u0e35   ",
    "name_en": "Mueang Ratchaburi"
  },
  {
    "province_id": "70",
    "amphur_id": "7002",
    "name_th": "\u0e08\u0e2d\u0e21\u0e1a\u0e36\u0e07   ",
    "name_en": "Chom Bueng"
  },
  {
    "province_id": "70",
    "amphur_id": "7003",
    "name_th": "\u0e2a\u0e27\u0e19\u0e1c\u0e36\u0e49\u0e07   ",
    "name_en": "Suan Phueng"
  },
  {
    "province_id": "70",
    "amphur_id": "7004",
    "name_th": "\u0e14\u0e33\u0e40\u0e19\u0e34\u0e19\u0e2a\u0e30\u0e14\u0e27\u0e01   ",
    "name_en": "Damnoen Saduak"
  },
  {
    "province_id": "70",
    "amphur_id": "7005",
    "name_th": "\u0e1a\u0e49\u0e32\u0e19\u0e42\u0e1b\u0e48\u0e07   ",
    "name_en": "Ban Pong"
  },
  {
    "province_id": "70",
    "amphur_id": "7006",
    "name_th": "\u0e1a\u0e32\u0e07\u0e41\u0e1e   ",
    "name_en": "Bang Phae"
  },
  {
    "province_id": "70",
    "amphur_id": "7007",
    "name_th": "\u0e42\u0e1e\u0e18\u0e32\u0e23\u0e32\u0e21   ",
    "name_en": "Photharam"
  },
  {
    "province_id": "70",
    "amphur_id": "7008",
    "name_th": "\u0e1b\u0e32\u0e01\u0e17\u0e48\u0e2d   ",
    "name_en": "Pak Tho"
  },
  {
    "province_id": "70",
    "amphur_id": "7009",
    "name_th": "\u0e27\u0e31\u0e14\u0e40\u0e1e\u0e25\u0e07   ",
    "name_en": "Wat Phleng"
  },
  {
    "province_id": "70",
    "amphur_id": "7010",
    "name_th": "\u0e1a\u0e49\u0e32\u0e19\u0e04\u0e32   ",
    "name_en": "Ban Kha"
  },
  {
    "province_id": "70",
    "amphur_id": "7074",
    "name_th": "\u0e17\u0e49\u0e2d\u0e07\u0e16\u0e34\u0e48\u0e19\u0e40\u0e17\u0e28\u0e1a\u0e32\u0e25\u0e15\u0e33\u0e1a\u0e25\u0e1a\u0e49\u0e32\u0e19\u0e06\u0e49\u0e2d\u0e07   ",
    "name_en": "Tet Saban Ban Kong"
  },
  {
    "province_id": "71",
    "amphur_id": "7101",
    "name_th": "\u0e40\u0e21\u0e37\u0e2d\u0e07\u0e01\u0e32\u0e0d\u0e08\u0e19\u0e1a\u0e38\u0e23\u0e35   ",
    "name_en": "Mueang Kanchanaburi"
  },
  {
    "province_id": "71",
    "amphur_id": "7102",
    "name_th": "\u0e44\u0e17\u0e23\u0e42\u0e22\u0e04   ",
    "name_en": "Sai Yok"
  },
  {
    "province_id": "71",
    "amphur_id": "7103",
    "name_th": "\u0e1a\u0e48\u0e2d\u0e1e\u0e25\u0e2d\u0e22   ",
    "name_en": "Bo Phloi"
  },
  {
    "province_id": "71",
    "amphur_id": "7104",
    "name_th": "\u0e28\u0e23\u0e35\u0e2a\u0e27\u0e31\u0e2a\u0e14\u0e34\u0e4c   ",
    "name_en": "Si Sawat"
  },
  {
    "province_id": "71",
    "amphur_id": "7105",
    "name_th": "\u0e17\u0e48\u0e32\u0e21\u0e30\u0e01\u0e32   ",
    "name_en": "Tha Maka"
  },
  {
    "province_id": "71",
    "amphur_id": "7106",
    "name_th": "\u0e17\u0e48\u0e32\u0e21\u0e48\u0e27\u0e07   ",
    "name_en": "Tha Muang"
  },
  {
    "province_id": "71",
    "amphur_id": "7107",
    "name_th": "\u0e17\u0e2d\u0e07\u0e1c\u0e32\u0e20\u0e39\u0e21\u0e34   ",
    "name_en": "Pha Phum"
  },
  {
    "province_id": "71",
    "amphur_id": "7108",
    "name_th": "\u0e2a\u0e31\u0e07\u0e02\u0e25\u0e30\u0e1a\u0e38\u0e23\u0e35   ",
    "name_en": "Sangkhla Buri"
  },
  {
    "province_id": "71",
    "amphur_id": "7109",
    "name_th": "\u0e1e\u0e19\u0e21\u0e17\u0e27\u0e19   ",
    "name_en": "Phanom Thuan"
  },
  {
    "province_id": "71",
    "amphur_id": "7110",
    "name_th": "\u0e40\u0e25\u0e32\u0e02\u0e27\u0e31\u0e0d   ",
    "name_en": "Lao Khwan"
  },
  {
    "province_id": "71",
    "amphur_id": "7111",
    "name_th": "\u0e14\u0e48\u0e32\u0e19\u0e21\u0e30\u0e02\u0e32\u0e21\u0e40\u0e15\u0e35\u0e49\u0e22   ",
    "name_en": "Dan Makham Tia"
  },
  {
    "province_id": "71",
    "amphur_id": "7112",
    "name_th": "\u0e2b\u0e19\u0e2d\u0e07\u0e1b\u0e23\u0e37\u0e2d   ",
    "name_en": "Nong Prue"
  },
  {
    "province_id": "71",
    "amphur_id": "7113",
    "name_th": "\u0e2b\u0e49\u0e27\u0e22\u0e01\u0e23\u0e30\u0e40\u0e08\u0e32   ",
    "name_en": "Huai Krachao"
  },
  {
    "province_id": "71",
    "amphur_id": "7151",
    "name_th": "\u0e2a\u0e32\u0e02\u0e32\u0e15\u0e33\u0e1a\u0e25\u0e17\u0e48\u0e32\u0e01\u0e23\u0e30\u0e14\u0e32\u0e19*   ",
    "name_en": "Tha Kra Dan"
  },
  {
    "province_id": "71",
    "amphur_id": "7181",
    "name_th": "*\u0e1a\u0e49\u0e32\u0e19\u0e17\u0e27\u0e19  \u0e08.\u0e01\u0e32\u0e0d\u0e08\u0e19\u0e1a\u0e38\u0e23\u0e35   ",
    "name_en": "*Ban Tuan"
  },
  {
    "province_id": "72",
    "amphur_id": "7201",
    "name_th": "\u0e40\u0e21\u0e37\u0e2d\u0e07\u0e2a\u0e38\u0e1e\u0e23\u0e23\u0e13\u0e1a\u0e38\u0e23\u0e35   ",
    "name_en": "Mueang Suphan Buri"
  },
  {
    "province_id": "72",
    "amphur_id": "7202",
    "name_th": "\u0e40\u0e14\u0e34\u0e21\u0e1a\u0e32\u0e07\u0e19\u0e32\u0e07\u0e1a\u0e27\u0e0a   ",
    "name_en": "Doem Bang Nang Buat"
  },
  {
    "province_id": "72",
    "amphur_id": "7203",
    "name_th": "\u0e14\u0e48\u0e32\u0e19\u0e0a\u0e49\u0e32\u0e07   ",
    "name_en": "Dan Chang"
  },
  {
    "province_id": "72",
    "amphur_id": "7204",
    "name_th": "\u0e1a\u0e32\u0e07\u0e1b\u0e25\u0e32\u0e21\u0e49\u0e32   ",
    "name_en": "Bang Pla Ma"
  },
  {
    "province_id": "72",
    "amphur_id": "7205",
    "name_th": "\u0e28\u0e23\u0e35\u0e1b\u0e23\u0e30\u0e08\u0e31\u0e19\u0e15\u0e4c   ",
    "name_en": "Si Prachan"
  },
  {
    "province_id": "72",
    "amphur_id": "7206",
    "name_th": "\u0e14\u0e2d\u0e19\u0e40\u0e08\u0e14\u0e35\u0e22\u0e4c   ",
    "name_en": "Don Chedi"
  },
  {
    "province_id": "72",
    "amphur_id": "7207",
    "name_th": "\u0e2a\u0e2d\u0e07\u0e1e\u0e35\u0e48\u0e19\u0e49\u0e2d\u0e07   ",
    "name_en": "Song Phi Nong"
  },
  {
    "province_id": "72",
    "amphur_id": "7208",
    "name_th": "\u0e2a\u0e32\u0e21\u0e0a\u0e38\u0e01   ",
    "name_en": "Sam Chuk"
  },
  {
    "province_id": "72",
    "amphur_id": "7209",
    "name_th": "\u0e2d\u0e39\u0e48\u0e17\u0e2d\u0e07   ",
    "name_en": "U Thong"
  },
  {
    "province_id": "72",
    "amphur_id": "7210",
    "name_th": "\u0e2b\u0e19\u0e2d\u0e07\u0e2b\u0e0d\u0e49\u0e32\u0e44\u0e0b   ",
    "name_en": "Nong Ya Sai"
  },
  {
    "province_id": "73",
    "amphur_id": "7301",
    "name_th": "\u0e40\u0e21\u0e37\u0e2d\u0e07\u0e19\u0e04\u0e23\u0e1b\u0e10\u0e21   ",
    "name_en": "Mueang Nakhon Pathom"
  },
  {
    "province_id": "73",
    "amphur_id": "7302",
    "name_th": "\u0e01\u0e33\u0e41\u0e1e\u0e07\u0e41\u0e2a\u0e19   ",
    "name_en": "Kamphaeng Saen"
  },
  {
    "province_id": "73",
    "amphur_id": "7303",
    "name_th": "\u0e19\u0e04\u0e23\u0e0a\u0e31\u0e22\u0e28\u0e23\u0e35   ",
    "name_en": "Nakhon Chai Si"
  },
  {
    "province_id": "73",
    "amphur_id": "7304",
    "name_th": "\u0e14\u0e2d\u0e19\u0e15\u0e39\u0e21   ",
    "name_en": "Don Tum"
  },
  {
    "province_id": "73",
    "amphur_id": "7305",
    "name_th": "\u0e1a\u0e32\u0e07\u0e40\u0e25\u0e19   ",
    "name_en": "Bang Len"
  },
  {
    "province_id": "73",
    "amphur_id": "7306",
    "name_th": "\u0e2a\u0e32\u0e21\u0e1e\u0e23\u0e32\u0e19   ",
    "name_en": "Sam Phran"
  },
  {
    "province_id": "73",
    "amphur_id": "7307",
    "name_th": "\u0e1e\u0e38\u0e17\u0e18\u0e21\u0e13\u0e11\u0e25   ",
    "name_en": "Phutthamonthon"
  },
  {
    "province_id": "74",
    "amphur_id": "7401",
    "name_th": "\u0e40\u0e21\u0e37\u0e2d\u0e07\u0e2a\u0e21\u0e38\u0e17\u0e23\u0e2a\u0e32\u0e04\u0e23   ",
    "name_en": "Mueang Samut Sakhon"
  },
  {
    "province_id": "74",
    "amphur_id": "7402",
    "name_th": "\u0e01\u0e23\u0e30\u0e17\u0e38\u0e48\u0e21\u0e41\u0e1a\u0e19   ",
    "name_en": "Krathum Baen"
  },
  {
    "province_id": "74",
    "amphur_id": "7403",
    "name_th": "\u0e1a\u0e49\u0e32\u0e19\u0e41\u0e1e\u0e49\u0e27   ",
    "name_en": "Ban Phaeo"
  },
  {
    "province_id": "75",
    "amphur_id": "7501",
    "name_th": "\u0e40\u0e21\u0e37\u0e2d\u0e07\u0e2a\u0e21\u0e38\u0e17\u0e23\u0e2a\u0e07\u0e04\u0e23\u0e32\u0e21   ",
    "name_en": "Mueang Samut Songkhram"
  },
  {
    "province_id": "75",
    "amphur_id": "7502",
    "name_th": "\u0e1a\u0e32\u0e07\u0e04\u0e19\u0e17\u0e35   ",
    "name_en": "Bang Khonthi"
  },
  {
    "province_id": "75",
    "amphur_id": "7503",
    "name_th": "\u0e2d\u0e31\u0e21\u0e1e\u0e27\u0e32   ",
    "name_en": "Amphawa"
  },
  {
    "province_id": "76",
    "amphur_id": "7601",
    "name_th": "\u0e40\u0e21\u0e37\u0e2d\u0e07\u0e40\u0e1e\u0e0a\u0e23\u0e1a\u0e38\u0e23\u0e35   ",
    "name_en": "Mueang Phetchaburi"
  },
  {
    "province_id": "76",
    "amphur_id": "7602",
    "name_th": "\u0e40\u0e02\u0e32\u0e22\u0e49\u0e2d\u0e22   ",
    "name_en": "Khao Yoi"
  },
  {
    "province_id": "76",
    "amphur_id": "7603",
    "name_th": "\u0e2b\u0e19\u0e2d\u0e07\u0e2b\u0e0d\u0e49\u0e32\u0e1b\u0e25\u0e49\u0e2d\u0e07   ",
    "name_en": "Nong Ya Plong"
  },
  {
    "province_id": "76",
    "amphur_id": "7604",
    "name_th": "\u0e0a\u0e30\u0e2d\u0e33   ",
    "name_en": "Cha-am"
  },
  {
    "province_id": "76",
    "amphur_id": "7605",
    "name_th": "\u0e17\u0e48\u0e32\u0e22\u0e32\u0e07   ",
    "name_en": "Tha Yang"
  },
  {
    "province_id": "76",
    "amphur_id": "7606",
    "name_th": "\u0e1a\u0e49\u0e32\u0e19\u0e25\u0e32\u0e14   ",
    "name_en": "Ban Lat"
  },
  {
    "province_id": "76",
    "amphur_id": "7607",
    "name_th": "\u0e1a\u0e49\u0e32\u0e19\u0e41\u0e2b\u0e25\u0e21   ",
    "name_en": "Ban Laem"
  },
  {
    "province_id": "76",
    "amphur_id": "7608",
    "name_th": "\u0e41\u0e01\u0e48\u0e07\u0e01\u0e23\u0e30\u0e08\u0e32\u0e19   ",
    "name_en": "Kaeng Krachan"
  },
  {
    "province_id": "77",
    "amphur_id": "7701",
    "name_th": "\u0e40\u0e21\u0e37\u0e2d\u0e07\u0e1b\u0e23\u0e30\u0e08\u0e27\u0e1a\u0e04\u0e35\u0e23\u0e35\u0e02\u0e31\u0e19\u0e18\u0e4c   ",
    "name_en": "Mueang Prachuap Khiri Khan"
  },
  {
    "province_id": "77",
    "amphur_id": "7702",
    "name_th": "\u0e01\u0e38\u0e22\u0e1a\u0e38\u0e23\u0e35   ",
    "name_en": "Kui Buri"
  },
  {
    "province_id": "77",
    "amphur_id": "7703",
    "name_th": "\u0e17\u0e31\u0e1a\u0e2a\u0e30\u0e41\u0e01   ",
    "name_en": "Thap Sakae"
  },
  {
    "province_id": "77",
    "amphur_id": "7704",
    "name_th": "\u0e1a\u0e32\u0e07\u0e2a\u0e30\u0e1e\u0e32\u0e19   ",
    "name_en": "Bang Saphan"
  },
  {
    "province_id": "77",
    "amphur_id": "7705",
    "name_th": "\u0e1a\u0e32\u0e07\u0e2a\u0e30\u0e1e\u0e32\u0e19\u0e19\u0e49\u0e2d\u0e22   ",
    "name_en": "Bang Saphan Noi"
  },
  {
    "province_id": "77",
    "amphur_id": "7706",
    "name_th": "\u0e1b\u0e23\u0e32\u0e13\u0e1a\u0e38\u0e23\u0e35   ",
    "name_en": "Pran Buri"
  },
  {
    "province_id": "77",
    "amphur_id": "7707",
    "name_th": "\u0e2b\u0e31\u0e27\u0e2b\u0e34\u0e19   ",
    "name_en": "Hua Hin"
  },
  {
    "province_id": "77",
    "amphur_id": "7708",
    "name_th": "\u0e2a\u0e32\u0e21\u0e23\u0e49\u0e2d\u0e22\u0e22\u0e2d\u0e14   ",
    "name_en": "Sam Roi Yot"
  },
  {
    "province_id": "80",
    "amphur_id": "8001",
    "name_th": "\u0e40\u0e21\u0e37\u0e2d\u0e07\u0e19\u0e04\u0e23\u0e28\u0e23\u0e35\u0e18\u0e23\u0e23\u0e21\u0e23\u0e32\u0e0a   ",
    "name_en": "Mueang Nakhon Si Thammarat"
  },
  {
    "province_id": "80",
    "amphur_id": "8002",
    "name_th": "\u0e1e\u0e23\u0e2b\u0e21\u0e04\u0e35\u0e23\u0e35   ",
    "name_en": "Phrom Khiri"
  },
  {
    "province_id": "80",
    "amphur_id": "8003",
    "name_th": "\u0e25\u0e32\u0e19\u0e2a\u0e01\u0e32   ",
    "name_en": "Lan Saka"
  },
  {
    "province_id": "80",
    "amphur_id": "8004",
    "name_th": "\u0e09\u0e27\u0e32\u0e07   ",
    "name_en": "Chawang"
  },
  {
    "province_id": "80",
    "amphur_id": "8005",
    "name_th": "\u0e1e\u0e34\u0e1b\u0e39\u0e19   ",
    "name_en": "Phipun"
  },
  {
    "province_id": "80",
    "amphur_id": "8006",
    "name_th": "\u0e40\u0e0a\u0e35\u0e22\u0e23\u0e43\u0e2b\u0e0d\u0e48   ",
    "name_en": "Chian Yai"
  },
  {
    "province_id": "80",
    "amphur_id": "8007",
    "name_th": "\u0e0a\u0e30\u0e2d\u0e27\u0e14   ",
    "name_en": "Cha-uat"
  },
  {
    "province_id": "80",
    "amphur_id": "8008",
    "name_th": "\u0e17\u0e48\u0e32\u0e28\u0e32\u0e25\u0e32   ",
    "name_en": "Tha Sala"
  },
  {
    "province_id": "80",
    "amphur_id": "8009",
    "name_th": "\u0e17\u0e38\u0e48\u0e07\u0e2a\u0e07   ",
    "name_en": "Thung Song"
  },
  {
    "province_id": "80",
    "amphur_id": "8010",
    "name_th": "\u0e19\u0e32\u0e1a\u0e2d\u0e19   ",
    "name_en": "Na Bon"
  },
  {
    "province_id": "80",
    "amphur_id": "8011",
    "name_th": "\u0e17\u0e38\u0e48\u0e07\u0e43\u0e2b\u0e0d\u0e48   ",
    "name_en": "Thung Yai"
  },
  {
    "province_id": "80",
    "amphur_id": "8012",
    "name_th": "\u0e1b\u0e32\u0e01\u0e1e\u0e19\u0e31\u0e07   ",
    "name_en": "Pak Phanang"
  },
  {
    "province_id": "80",
    "amphur_id": "8013",
    "name_th": "\u0e23\u0e48\u0e2d\u0e19\u0e1e\u0e34\u0e1a\u0e39\u0e25\u0e22\u0e4c   ",
    "name_en": "Ron Phibun"
  },
  {
    "province_id": "80",
    "amphur_id": "8014",
    "name_th": "\u0e2a\u0e34\u0e0a\u0e25   ",
    "name_en": "Sichon"
  },
  {
    "province_id": "80",
    "amphur_id": "8015",
    "name_th": "\u0e02\u0e19\u0e2d\u0e21   ",
    "name_en": "Khanom"
  },
  {
    "province_id": "80",
    "amphur_id": "8016",
    "name_th": "\u0e2b\u0e31\u0e27\u0e44\u0e17\u0e23   ",
    "name_en": "Hua Sai"
  },
  {
    "province_id": "80",
    "amphur_id": "8017",
    "name_th": "\u0e1a\u0e32\u0e07\u0e02\u0e31\u0e19   ",
    "name_en": "Bang Khan"
  },
  {
    "province_id": "80",
    "amphur_id": "8018",
    "name_th": "\u0e16\u0e49\u0e33\u0e1e\u0e23\u0e23\u0e13\u0e23\u0e32   ",
    "name_en": "Tham Phannara"
  },
  {
    "province_id": "80",
    "amphur_id": "8019",
    "name_th": "\u0e08\u0e38\u0e2c\u0e32\u0e20\u0e23\u0e13\u0e4c   ",
    "name_en": "Chulabhorn"
  },
  {
    "province_id": "80",
    "amphur_id": "8020",
    "name_th": "\u0e1e\u0e23\u0e30\u0e1e\u0e23\u0e2b\u0e21   ",
    "name_en": "Phra Phrom"
  },
  {
    "province_id": "80",
    "amphur_id": "8021",
    "name_th": "\u0e19\u0e1a\u0e1e\u0e34\u0e15\u0e33   ",
    "name_en": "Nopphitam"
  },
  {
    "province_id": "80",
    "amphur_id": "8022",
    "name_th": "\u0e0a\u0e49\u0e32\u0e07\u0e01\u0e25\u0e32\u0e07   ",
    "name_en": "Chang Klang"
  },
  {
    "province_id": "80",
    "amphur_id": "8023",
    "name_th": "\u0e40\u0e09\u0e25\u0e34\u0e21\u0e1e\u0e23\u0e30\u0e40\u0e01\u0e35\u0e22\u0e23\u0e15\u0e34   ",
    "name_en": "Chaloem Phra Kiat"
  },
  {
    "province_id": "80",
    "amphur_id": "8051",
    "name_th": "\u0e40\u0e0a\u0e35\u0e22\u0e23\u0e43\u0e2b\u0e0d\u0e48 (\u0e2a\u0e32\u0e02\u0e32\u0e15\u0e33\u0e1a\u0e25\u0e40\u0e2a\u0e37\u0e2d\u0e2b\u0e36\u0e07)*   ",
    "name_en": "Chian Yai*"
  },
  {
    "province_id": "80",
    "amphur_id": "8052",
    "name_th": "\u0e2a\u0e32\u0e02\u0e32\u0e15\u0e33\u0e1a\u0e25\u0e2a\u0e27\u0e19\u0e2b\u0e25\u0e27\u0e07**   ",
    "name_en": "Suan Luang"
  },
  {
    "province_id": "80",
    "amphur_id": "8053",
    "name_th": "\u0e23\u0e48\u0e2d\u0e19\u0e1e\u0e34\u0e1a\u0e39\u0e25\u0e22\u0e4c (\u0e2a\u0e32\u0e02\u0e32\u0e15\u0e33\u0e1a\u0e25\u0e2b\u0e34\u0e19\u0e15\u0e01)*   ",
    "name_en": "Ron Phibun"
  },
  {
    "province_id": "80",
    "amphur_id": "8054",
    "name_th": "\u0e2b\u0e31\u0e27\u0e44\u0e17\u0e23 (\u0e2a\u0e32\u0e02\u0e32\u0e15\u0e33\u0e1a\u0e25\u0e04\u0e27\u0e19\u0e0a\u0e30\u0e25\u0e34\u0e01)*   ",
    "name_en": "Hua Sai"
  },
  {
    "province_id": "80",
    "amphur_id": "8055",
    "name_th": "\u0e17\u0e38\u0e48\u0e07\u0e2a\u0e07 (\u0e2a\u0e32\u0e02\u0e32\u0e15\u0e33\u0e1a\u0e25\u0e01\u0e30\u0e1b\u0e32\u0e07)*   ",
    "name_en": "Thung Song"
  },
  {
    "province_id": "81",
    "amphur_id": "8101",
    "name_th": "\u0e40\u0e21\u0e37\u0e2d\u0e07\u0e01\u0e23\u0e30\u0e1a\u0e35\u0e48   ",
    "name_en": "Mueang Krabi"
  },
  {
    "province_id": "81",
    "amphur_id": "8102",
    "name_th": "\u0e40\u0e02\u0e32\u0e1e\u0e19\u0e21   ",
    "name_en": "Khao Phanom"
  },
  {
    "province_id": "81",
    "amphur_id": "8103",
    "name_th": "\u0e40\u0e01\u0e32\u0e30\u0e25\u0e31\u0e19\u0e15\u0e32   ",
    "name_en": "Ko Lanta"
  },
  {
    "province_id": "81",
    "amphur_id": "8104",
    "name_th": "\u0e04\u0e25\u0e2d\u0e07\u0e17\u0e48\u0e2d\u0e21   ",
    "name_en": "Khlong Thom"
  },
  {
    "province_id": "81",
    "amphur_id": "8105",
    "name_th": "\u0e2d\u0e48\u0e32\u0e27\u0e25\u0e36\u0e01   ",
    "name_en": "Ao Luek"
  },
  {
    "province_id": "81",
    "amphur_id": "8106",
    "name_th": "\u0e1b\u0e25\u0e32\u0e22\u0e1e\u0e23\u0e30\u0e22\u0e32   ",
    "name_en": "Plai Phraya"
  },
  {
    "province_id": "81",
    "amphur_id": "8107",
    "name_th": "\u0e25\u0e33\u0e17\u0e31\u0e1a   ",
    "name_en": "Lam Thap"
  },
  {
    "province_id": "81",
    "amphur_id": "8108",
    "name_th": "\u0e40\u0e2b\u0e19\u0e37\u0e2d\u0e04\u0e25\u0e2d\u0e07   ",
    "name_en": "Nuea Khlong"
  },
  {
    "province_id": "82",
    "amphur_id": "8201",
    "name_th": "\u0e40\u0e21\u0e37\u0e2d\u0e07\u0e1e\u0e31\u0e07\u0e07\u0e32   ",
    "name_en": "Mueang Phang-nga"
  },
  {
    "province_id": "82",
    "amphur_id": "8202",
    "name_th": "\u0e40\u0e01\u0e32\u0e30\u0e22\u0e32\u0e27   ",
    "name_en": "Ko Yao"
  },
  {
    "province_id": "82",
    "amphur_id": "8203",
    "name_th": "\u0e01\u0e30\u0e1b\u0e07   ",
    "name_en": "Kapong"
  },
  {
    "province_id": "82",
    "amphur_id": "8204",
    "name_th": "\u0e15\u0e30\u0e01\u0e31\u0e48\u0e27\u0e17\u0e38\u0e48\u0e07   ",
    "name_en": "Takua Thung"
  },
  {
    "province_id": "82",
    "amphur_id": "8205",
    "name_th": "\u0e15\u0e30\u0e01\u0e31\u0e48\u0e27\u0e1b\u0e48\u0e32   ",
    "name_en": "Takua Pa"
  },
  {
    "province_id": "82",
    "amphur_id": "8206",
    "name_th": "\u0e04\u0e38\u0e23\u0e30\u0e1a\u0e38\u0e23\u0e35   ",
    "name_en": "Khura Buri"
  },
  {
    "province_id": "82",
    "amphur_id": "8207",
    "name_th": "\u0e17\u0e31\u0e1a\u0e1b\u0e38\u0e14   ",
    "name_en": "Thap Put"
  },
  {
    "province_id": "82",
    "amphur_id": "8208",
    "name_th": "\u0e17\u0e49\u0e32\u0e22\u0e40\u0e2b\u0e21\u0e37\u0e2d\u0e07   ",
    "name_en": "Thai Mueang"
  },
  {
    "province_id": "83",
    "amphur_id": "8301",
    "name_th": "\u0e40\u0e21\u0e37\u0e2d\u0e07\u0e20\u0e39\u0e40\u0e01\u0e47\u0e15   ",
    "name_en": "Mueang Phuket"
  },
  {
    "province_id": "83",
    "amphur_id": "8302",
    "name_th": "\u0e01\u0e30\u0e17\u0e39\u0e49   ",
    "name_en": "Kathu"
  },
  {
    "province_id": "83",
    "amphur_id": "8303",
    "name_th": "\u0e16\u0e25\u0e32\u0e07   ",
    "name_en": "Thalang"
  },
  {
    "province_id": "83",
    "amphur_id": "8381",
    "name_th": "*\u0e17\u0e38\u0e48\u0e07\u0e04\u0e32   ",
    "name_en": "*Tung Ka"
  },
  {
    "province_id": "84",
    "amphur_id": "8401",
    "name_th": "\u0e40\u0e21\u0e37\u0e2d\u0e07\u0e2a\u0e38\u0e23\u0e32\u0e29\u0e0e\u0e23\u0e4c\u0e18\u0e32\u0e19\u0e35   ",
    "name_en": "Mueang Surat Thani"
  },
  {
    "province_id": "84",
    "amphur_id": "8402",
    "name_th": "\u0e01\u0e32\u0e0d\u0e08\u0e19\u0e14\u0e34\u0e29\u0e10\u0e4c   ",
    "name_en": "Kanchanadit"
  },
  {
    "province_id": "84",
    "amphur_id": "8403",
    "name_th": "\u0e14\u0e2d\u0e19\u0e2a\u0e31\u0e01   ",
    "name_en": "Don Sak"
  },
  {
    "province_id": "84",
    "amphur_id": "8404",
    "name_th": "\u0e40\u0e01\u0e32\u0e30\u0e2a\u0e21\u0e38\u0e22   ",
    "name_en": "Ko Samui"
  },
  {
    "province_id": "84",
    "amphur_id": "8405",
    "name_th": "\u0e40\u0e01\u0e32\u0e30\u0e1e\u0e30\u0e07\u0e31\u0e19   ",
    "name_en": "Ko Pha-ngan"
  },
  {
    "province_id": "84",
    "amphur_id": "8406",
    "name_th": "\u0e44\u0e0a\u0e22\u0e32   ",
    "name_en": "Chaiya"
  },
  {
    "province_id": "84",
    "amphur_id": "8407",
    "name_th": "\u0e17\u0e48\u0e32\u0e0a\u0e19\u0e30   ",
    "name_en": "Tha Chana"
  },
  {
    "province_id": "84",
    "amphur_id": "8408",
    "name_th": "\u0e04\u0e35\u0e23\u0e35\u0e23\u0e31\u0e10\u0e19\u0e34\u0e04\u0e21   ",
    "name_en": "Khiri Rat Nikhom"
  },
  {
    "province_id": "84",
    "amphur_id": "8409",
    "name_th": "\u0e1a\u0e49\u0e32\u0e19\u0e15\u0e32\u0e02\u0e38\u0e19   ",
    "name_en": "Ban Ta Khun"
  },
  {
    "province_id": "84",
    "amphur_id": "8410",
    "name_th": "\u0e1e\u0e19\u0e21   ",
    "name_en": "Phanom"
  },
  {
    "province_id": "84",
    "amphur_id": "8411",
    "name_th": "\u0e17\u0e48\u0e32\u0e09\u0e32\u0e07   ",
    "name_en": "Tha Chang"
  },
  {
    "province_id": "84",
    "amphur_id": "8412",
    "name_th": "\u0e1a\u0e49\u0e32\u0e19\u0e19\u0e32\u0e2a\u0e32\u0e23   ",
    "name_en": "Ban Na San"
  },
  {
    "province_id": "84",
    "amphur_id": "8413",
    "name_th": "\u0e1a\u0e49\u0e32\u0e19\u0e19\u0e32\u0e40\u0e14\u0e34\u0e21   ",
    "name_en": "Ban Na Doem"
  },
  {
    "province_id": "84",
    "amphur_id": "8414",
    "name_th": "\u0e40\u0e04\u0e35\u0e22\u0e19\u0e0b\u0e32   ",
    "name_en": "Khian Sa"
  },
  {
    "province_id": "84",
    "amphur_id": "8415",
    "name_th": "\u0e40\u0e27\u0e35\u0e22\u0e07\u0e2a\u0e23\u0e30   ",
    "name_en": "Wiang Sa"
  },
  {
    "province_id": "84",
    "amphur_id": "8416",
    "name_th": "\u0e1e\u0e23\u0e30\u0e41\u0e2a\u0e07   ",
    "name_en": "Phrasaeng"
  },
  {
    "province_id": "84",
    "amphur_id": "8417",
    "name_th": "\u0e1e\u0e38\u0e19\u0e1e\u0e34\u0e19   ",
    "name_en": "Phunphin"
  },
  {
    "province_id": "84",
    "amphur_id": "8418",
    "name_th": "\u0e0a\u0e31\u0e22\u0e1a\u0e38\u0e23\u0e35   ",
    "name_en": "Chai Buri"
  },
  {
    "province_id": "84",
    "amphur_id": "8419",
    "name_th": "\u0e27\u0e34\u0e20\u0e32\u0e27\u0e14\u0e35   ",
    "name_en": "Vibhavadi"
  },
  {
    "province_id": "84",
    "amphur_id": "8451",
    "name_th": "\u0e40\u0e01\u0e32\u0e30\u0e1e\u0e07\u0e31\u0e19 (\u0e2a\u0e32\u0e02\u0e32\u0e15\u0e33\u0e1a\u0e25\u0e40\u0e01\u0e32\u0e30\u0e40\u0e15\u0e48\u0e32)*   ",
    "name_en": "Ko Pha-ngan"
  },
  {
    "province_id": "84",
    "amphur_id": "8481",
    "name_th": "*\u0e2d.\u0e1a\u0e49\u0e32\u0e19\u0e14\u0e2d\u0e19  \u0e08.\u0e2a\u0e38\u0e23\u0e32\u0e29\u0e0e\u0e23\u0e4c\u0e18\u0e32\u0e19\u0e35   ",
    "name_en": "*Ban Don"
  },
  {
    "province_id": "85",
    "amphur_id": "8501",
    "name_th": "\u0e40\u0e21\u0e37\u0e2d\u0e07\u0e23\u0e30\u0e19\u0e2d\u0e07   ",
    "name_en": "Mueang Ranong"
  },
  {
    "province_id": "85",
    "amphur_id": "8502",
    "name_th": "\u0e25\u0e30\u0e2d\u0e38\u0e48\u0e19   ",
    "name_en": "La-un"
  },
  {
    "province_id": "85",
    "amphur_id": "8503",
    "name_th": "\u0e01\u0e30\u0e40\u0e1b\u0e2d\u0e23\u0e4c   ",
    "name_en": "Kapoe"
  },
  {
    "province_id": "85",
    "amphur_id": "8504",
    "name_th": "\u0e01\u0e23\u0e30\u0e1a\u0e38\u0e23\u0e35   ",
    "name_en": "Kra Buri"
  },
  {
    "province_id": "85",
    "amphur_id": "8505",
    "name_th": "\u0e2a\u0e38\u0e02\u0e2a\u0e33\u0e23\u0e32\u0e0d   ",
    "name_en": "Suk Samran"
  },
  {
    "province_id": "86",
    "amphur_id": "8601",
    "name_th": "\u0e40\u0e21\u0e37\u0e2d\u0e07\u0e0a\u0e38\u0e21\u0e1e\u0e23   ",
    "name_en": "Mueang Chumphon"
  },
  {
    "province_id": "86",
    "amphur_id": "8602",
    "name_th": "\u0e17\u0e48\u0e32\u0e41\u0e0b\u0e30   ",
    "name_en": "Tha Sae"
  },
  {
    "province_id": "86",
    "amphur_id": "8603",
    "name_th": "\u0e1b\u0e30\u0e17\u0e34\u0e27   ",
    "name_en": "Pathio"
  },
  {
    "province_id": "86",
    "amphur_id": "8604",
    "name_th": "\u0e2b\u0e25\u0e31\u0e07\u0e2a\u0e27\u0e19   ",
    "name_en": "Lang Suan"
  },
  {
    "province_id": "86",
    "amphur_id": "8605",
    "name_th": "\u0e25\u0e30\u0e41\u0e21   ",
    "name_en": "Lamae"
  },
  {
    "province_id": "86",
    "amphur_id": "8606",
    "name_th": "\u0e1e\u0e30\u0e42\u0e15\u0e4a\u0e30   ",
    "name_en": "Phato"
  },
  {
    "province_id": "86",
    "amphur_id": "8607",
    "name_th": "\u0e2a\u0e27\u0e35   ",
    "name_en": "Sawi"
  },
  {
    "province_id": "86",
    "amphur_id": "8608",
    "name_th": "\u0e17\u0e38\u0e48\u0e07\u0e15\u0e30\u0e42\u0e01   ",
    "name_en": "Thung Tako"
  },
  {
    "province_id": "90",
    "amphur_id": "9001",
    "name_th": "\u0e40\u0e21\u0e37\u0e2d\u0e07\u0e2a\u0e07\u0e02\u0e25\u0e32   ",
    "name_en": "Mueang Songkhla"
  },
  {
    "province_id": "90",
    "amphur_id": "9002",
    "name_th": "\u0e2a\u0e17\u0e34\u0e07\u0e1e\u0e23\u0e30   ",
    "name_en": "Sathing Phra"
  },
  {
    "province_id": "90",
    "amphur_id": "9003",
    "name_th": "\u0e08\u0e30\u0e19\u0e30   ",
    "name_en": "Chana"
  },
  {
    "province_id": "90",
    "amphur_id": "9004",
    "name_th": "\u0e19\u0e32\u0e17\u0e27\u0e35   ",
    "name_en": "Na Thawi"
  },
  {
    "province_id": "90",
    "amphur_id": "9005",
    "name_th": "\u0e40\u0e17\u0e1e\u0e32   ",
    "name_en": "Thepha"
  },
  {
    "province_id": "90",
    "amphur_id": "9006",
    "name_th": "\u0e2a\u0e30\u0e1a\u0e49\u0e32\u0e22\u0e49\u0e2d\u0e22   ",
    "name_en": "Saba Yoi"
  },
  {
    "province_id": "90",
    "amphur_id": "9007",
    "name_th": "\u0e23\u0e30\u0e42\u0e19\u0e14   ",
    "name_en": "Ranot"
  },
  {
    "province_id": "90",
    "amphur_id": "9008",
    "name_th": "\u0e01\u0e23\u0e30\u0e41\u0e2a\u0e2a\u0e34\u0e19\u0e18\u0e38\u0e4c   ",
    "name_en": "Krasae Sin"
  },
  {
    "province_id": "90",
    "amphur_id": "9009",
    "name_th": "\u0e23\u0e31\u0e15\u0e20\u0e39\u0e21\u0e34   ",
    "name_en": "Rattaphum"
  },
  {
    "province_id": "90",
    "amphur_id": "9010",
    "name_th": "\u0e2a\u0e30\u0e40\u0e14\u0e32   ",
    "name_en": "Sadao"
  },
  {
    "province_id": "90",
    "amphur_id": "9011",
    "name_th": "\u0e2b\u0e32\u0e14\u0e43\u0e2b\u0e0d\u0e48   ",
    "name_en": "Hat Yai"
  },
  {
    "province_id": "90",
    "amphur_id": "9012",
    "name_th": "\u0e19\u0e32\u0e2b\u0e21\u0e48\u0e2d\u0e21   ",
    "name_en": "Na Mom"
  },
  {
    "province_id": "90",
    "amphur_id": "9013",
    "name_th": "\u0e04\u0e27\u0e19\u0e40\u0e19\u0e35\u0e22\u0e07   ",
    "name_en": "Khuan Niang"
  },
  {
    "province_id": "90",
    "amphur_id": "9014",
    "name_th": "\u0e1a\u0e32\u0e07\u0e01\u0e25\u0e48\u0e33   ",
    "name_en": "Bang Klam"
  },
  {
    "province_id": "90",
    "amphur_id": "9015",
    "name_th": "\u0e2a\u0e34\u0e07\u0e2b\u0e19\u0e04\u0e23   ",
    "name_en": "Singhanakhon"
  },
  {
    "province_id": "90",
    "amphur_id": "9016",
    "name_th": "\u0e04\u0e25\u0e2d\u0e07\u0e2b\u0e2d\u0e22\u0e42\u0e02\u0e48\u0e07   ",
    "name_en": "Khlong Hoi Khong"
  },
  {
    "province_id": "90",
    "amphur_id": "9077",
    "name_th": "\u0e17\u0e49\u0e2d\u0e07\u0e16\u0e34\u0e48\u0e19\u0e40\u0e17\u0e28\u0e1a\u0e32\u0e25\u0e15\u0e33\u0e1a\u0e25\u0e2a\u0e33\u0e19\u0e31\u0e01\u0e02\u0e32\u0e21   ",
    "name_en": "Sum Nung Kam"
  },
  {
    "province_id": "90",
    "amphur_id": "9096",
    "name_th": "\u0e40\u0e17\u0e28\u0e1a\u0e32\u0e25\u0e15\u0e33\u0e1a\u0e25\u0e1a\u0e49\u0e32\u0e19\u0e1e\u0e23\u0e38*   ",
    "name_en": "Ban Pru*"
  },
  {
    "province_id": "91",
    "amphur_id": "9101",
    "name_th": "\u0e40\u0e21\u0e37\u0e2d\u0e07\u0e2a\u0e15\u0e39\u0e25   ",
    "name_en": "Mueang Satun"
  },
  {
    "province_id": "91",
    "amphur_id": "9102",
    "name_th": "\u0e04\u0e27\u0e19\u0e42\u0e14\u0e19   ",
    "name_en": "Khuan Don"
  },
  {
    "province_id": "91",
    "amphur_id": "9103",
    "name_th": "\u0e04\u0e27\u0e19\u0e01\u0e32\u0e2b\u0e25\u0e07   ",
    "name_en": "Khuan Kalong"
  },
  {
    "province_id": "91",
    "amphur_id": "9104",
    "name_th": "\u0e17\u0e48\u0e32\u0e41\u0e1e   ",
    "name_en": "Tha Phae"
  },
  {
    "province_id": "91",
    "amphur_id": "9105",
    "name_th": "\u0e25\u0e30\u0e07\u0e39   ",
    "name_en": "La-ngu"
  },
  {
    "province_id": "91",
    "amphur_id": "9106",
    "name_th": "\u0e17\u0e38\u0e48\u0e07\u0e2b\u0e27\u0e49\u0e32   ",
    "name_en": "Thung Wa"
  },
  {
    "province_id": "91",
    "amphur_id": "9107",
    "name_th": "\u0e21\u0e30\u0e19\u0e31\u0e07   ",
    "name_en": "Manang"
  },
  {
    "province_id": "92",
    "amphur_id": "9201",
    "name_th": "\u0e40\u0e21\u0e37\u0e2d\u0e07\u0e15\u0e23\u0e31\u0e07   ",
    "name_en": "Mueang Trang"
  },
  {
    "province_id": "92",
    "amphur_id": "9202",
    "name_th": "\u0e01\u0e31\u0e19\u0e15\u0e31\u0e07   ",
    "name_en": "Kantang"
  },
  {
    "province_id": "92",
    "amphur_id": "9203",
    "name_th": "\u0e22\u0e48\u0e32\u0e19\u0e15\u0e32\u0e02\u0e32\u0e27   ",
    "name_en": "Yan Ta Khao"
  },
  {
    "province_id": "92",
    "amphur_id": "9204",
    "name_th": "\u0e1b\u0e30\u0e40\u0e2b\u0e25\u0e35\u0e22\u0e19   ",
    "name_en": "Palian"
  },
  {
    "province_id": "92",
    "amphur_id": "9205",
    "name_th": "\u0e2a\u0e34\u0e40\u0e01\u0e32   ",
    "name_en": "Sikao"
  },
  {
    "province_id": "92",
    "amphur_id": "9206",
    "name_th": "\u0e2b\u0e49\u0e27\u0e22\u0e22\u0e2d\u0e14   ",
    "name_en": "Huai Yot"
  },
  {
    "province_id": "92",
    "amphur_id": "9207",
    "name_th": "\u0e27\u0e31\u0e07\u0e27\u0e34\u0e40\u0e28\u0e29   ",
    "name_en": "Wang Wiset"
  },
  {
    "province_id": "92",
    "amphur_id": "9208",
    "name_th": "\u0e19\u0e32\u0e42\u0e22\u0e07   ",
    "name_en": "Na Yong"
  },
  {
    "province_id": "92",
    "amphur_id": "9209",
    "name_th": "\u0e23\u0e31\u0e29\u0e0e\u0e32   ",
    "name_en": "Ratsada"
  },
  {
    "province_id": "92",
    "amphur_id": "9210",
    "name_th": "\u0e2b\u0e32\u0e14\u0e2a\u0e33\u0e23\u0e32\u0e0d   ",
    "name_en": "Hat Samran"
  },
  {
    "province_id": "92",
    "amphur_id": "9251",
    "name_th": "\u0e2d\u0e33\u0e40\u0e20\u0e2d\u0e40\u0e21\u0e37\u0e2d\u0e07\u0e15\u0e23\u0e31\u0e07(\u0e2a\u0e32\u0e02\u0e32\u0e04\u0e25\u0e2d\u0e07\u0e40\u0e15\u0e47\u0e07)**   ",
    "name_en": "Mueang Trang(Krong Teng)**"
  },
  {
    "province_id": "93",
    "amphur_id": "9301",
    "name_th": "\u0e40\u0e21\u0e37\u0e2d\u0e07\u0e1e\u0e31\u0e17\u0e25\u0e38\u0e07   ",
    "name_en": "Mueang Phatthalung"
  },
  {
    "province_id": "93",
    "amphur_id": "9302",
    "name_th": "\u0e01\u0e07\u0e2b\u0e23\u0e32   ",
    "name_en": "Kong Ra"
  },
  {
    "province_id": "93",
    "amphur_id": "9303",
    "name_th": "\u0e40\u0e02\u0e32\u0e0a\u0e31\u0e22\u0e2a\u0e19   ",
    "name_en": "Khao Chaison"
  },
  {
    "province_id": "93",
    "amphur_id": "9304",
    "name_th": "\u0e15\u0e30\u0e42\u0e2b\u0e21\u0e14   ",
    "name_en": "Tamot"
  },
  {
    "province_id": "93",
    "amphur_id": "9305",
    "name_th": "\u0e04\u0e27\u0e19\u0e02\u0e19\u0e38\u0e19   ",
    "name_en": "Khuan Khanun"
  },
  {
    "province_id": "93",
    "amphur_id": "9306",
    "name_th": "\u0e1b\u0e32\u0e01\u0e1e\u0e30\u0e22\u0e39\u0e19   ",
    "name_en": "Pak Phayun"
  },
  {
    "province_id": "93",
    "amphur_id": "9307",
    "name_th": "\u0e28\u0e23\u0e35\u0e1a\u0e23\u0e23\u0e1e\u0e15   ",
    "name_en": "Si Banphot"
  },
  {
    "province_id": "93",
    "amphur_id": "9308",
    "name_th": "\u0e1b\u0e48\u0e32\u0e1a\u0e2d\u0e19   ",
    "name_en": "Pa Bon"
  },
  {
    "province_id": "93",
    "amphur_id": "9309",
    "name_th": "\u0e1a\u0e32\u0e07\u0e41\u0e01\u0e49\u0e27   ",
    "name_en": "Bang Kaeo"
  },
  {
    "province_id": "93",
    "amphur_id": "9310",
    "name_th": "\u0e1b\u0e48\u0e32\u0e1e\u0e30\u0e22\u0e2d\u0e21   ",
    "name_en": "Pa Phayom"
  },
  {
    "province_id": "93",
    "amphur_id": "9311",
    "name_th": "\u0e28\u0e23\u0e35\u0e19\u0e04\u0e23\u0e34\u0e19\u0e17\u0e23\u0e4c   ",
    "name_en": "Srinagarindra"
  },
  {
    "province_id": "94",
    "amphur_id": "9401",
    "name_th": "\u0e40\u0e21\u0e37\u0e2d\u0e07\u0e1b\u0e31\u0e15\u0e15\u0e32\u0e19\u0e35   ",
    "name_en": "Mueang Pattani"
  },
  {
    "province_id": "94",
    "amphur_id": "9402",
    "name_th": "\u0e42\u0e04\u0e01\u0e42\u0e1e\u0e18\u0e34\u0e4c   ",
    "name_en": "Khok Pho"
  },
  {
    "province_id": "94",
    "amphur_id": "9403",
    "name_th": "\u0e2b\u0e19\u0e2d\u0e07\u0e08\u0e34\u0e01   ",
    "name_en": "Nong Chik"
  },
  {
    "province_id": "94",
    "amphur_id": "9404",
    "name_th": "\u0e1b\u0e30\u0e19\u0e32\u0e40\u0e23\u0e30   ",
    "name_en": "Panare"
  },
  {
    "province_id": "94",
    "amphur_id": "9405",
    "name_th": "\u0e21\u0e32\u0e22\u0e2d   ",
    "name_en": "Mayo"
  },
  {
    "province_id": "94",
    "amphur_id": "9406",
    "name_th": "\u0e17\u0e38\u0e48\u0e07\u0e22\u0e32\u0e07\u0e41\u0e14\u0e07   ",
    "name_en": "Thung Yang Daeng"
  },
  {
    "province_id": "94",
    "amphur_id": "9407",
    "name_th": "\u0e2a\u0e32\u0e22\u0e1a\u0e38\u0e23\u0e35   ",
    "name_en": "Sai Buri"
  },
  {
    "province_id": "94",
    "amphur_id": "9408",
    "name_th": "\u0e44\u0e21\u0e49\u0e41\u0e01\u0e48\u0e19   ",
    "name_en": "Mai Kaen"
  },
  {
    "province_id": "94",
    "amphur_id": "9409",
    "name_th": "\u0e22\u0e30\u0e2b\u0e23\u0e34\u0e48\u0e07   ",
    "name_en": "Yaring"
  },
  {
    "province_id": "94",
    "amphur_id": "9410",
    "name_th": "\u0e22\u0e30\u0e23\u0e31\u0e07   ",
    "name_en": "Yarang"
  },
  {
    "province_id": "94",
    "amphur_id": "9411",
    "name_th": "\u0e01\u0e30\u0e1e\u0e49\u0e2d   ",
    "name_en": "Kapho"
  },
  {
    "province_id": "94",
    "amphur_id": "9412",
    "name_th": "\u0e41\u0e21\u0e48\u0e25\u0e32\u0e19   ",
    "name_en": "Mae Lan"
  },
  {
    "province_id": "95",
    "amphur_id": "9501",
    "name_th": "\u0e40\u0e21\u0e37\u0e2d\u0e07\u0e22\u0e30\u0e25\u0e32   ",
    "name_en": "Mueang Yala"
  },
  {
    "province_id": "95",
    "amphur_id": "9502",
    "name_th": "\u0e40\u0e1a\u0e15\u0e07   ",
    "name_en": "Betong"
  },
  {
    "province_id": "95",
    "amphur_id": "9503",
    "name_th": "\u0e1a\u0e31\u0e19\u0e19\u0e31\u0e07\u0e2a\u0e15\u0e32   ",
    "name_en": "Bannang Sata"
  },
  {
    "province_id": "95",
    "amphur_id": "9504",
    "name_th": "\u0e18\u0e32\u0e23\u0e42\u0e15   ",
    "name_en": "Than To"
  },
  {
    "province_id": "95",
    "amphur_id": "9505",
    "name_th": "\u0e22\u0e30\u0e2b\u0e32   ",
    "name_en": "Yaha"
  },
  {
    "province_id": "95",
    "amphur_id": "9506",
    "name_th": "\u0e23\u0e32\u0e21\u0e31\u0e19   ",
    "name_en": "Raman"
  },
  {
    "province_id": "95",
    "amphur_id": "9507",
    "name_th": "\u0e01\u0e32\u0e1a\u0e31\u0e07   ",
    "name_en": "Kabang"
  },
  {
    "province_id": "95",
    "amphur_id": "9508",
    "name_th": "\u0e01\u0e23\u0e07\u0e1b\u0e34\u0e19\u0e31\u0e07   ",
    "name_en": "Krong Pinang"
  },
  {
    "province_id": "96",
    "amphur_id": "9601",
    "name_th": "\u0e40\u0e21\u0e37\u0e2d\u0e07\u0e19\u0e23\u0e32\u0e18\u0e34\u0e27\u0e32\u0e2a   ",
    "name_en": "Mueang Narathiwat"
  },
  {
    "province_id": "96",
    "amphur_id": "9602",
    "name_th": "\u0e15\u0e32\u0e01\u0e43\u0e1a   ",
    "name_en": "Tak Bai"
  },
  {
    "province_id": "96",
    "amphur_id": "9603",
    "name_th": "\u0e1a\u0e32\u0e40\u0e08\u0e32\u0e30   ",
    "name_en": "Bacho"
  },
  {
    "province_id": "96",
    "amphur_id": "9604",
    "name_th": "\u0e22\u0e35\u0e48\u0e07\u0e2d   ",
    "name_en": "Yi-ngo"
  },
  {
    "province_id": "96",
    "amphur_id": "9605",
    "name_th": "\u0e23\u0e30\u0e41\u0e07\u0e30   ",
    "name_en": "Ra-ngae"
  },
  {
    "province_id": "96",
    "amphur_id": "9606",
    "name_th": "\u0e23\u0e37\u0e2d\u0e40\u0e2a\u0e32\u0e30   ",
    "name_en": "Rueso"
  },
  {
    "province_id": "96",
    "amphur_id": "9607",
    "name_th": "\u0e28\u0e23\u0e35\u0e2a\u0e32\u0e04\u0e23   ",
    "name_en": "Si Sakhon"
  },
  {
    "province_id": "96",
    "amphur_id": "9608",
    "name_th": "\u0e41\u0e27\u0e49\u0e07   ",
    "name_en": "Waeng"
  },
  {
    "province_id": "96",
    "amphur_id": "9609",
    "name_th": "\u0e2a\u0e38\u0e04\u0e34\u0e23\u0e34\u0e19   ",
    "name_en": "Sukhirin"
  },
  {
    "province_id": "96",
    "amphur_id": "9610",
    "name_th": "\u0e2a\u0e38\u0e44\u0e2b\u0e07\u0e42\u0e01-\u0e25\u0e01   ",
    "name_en": "Su-ngai Kolok"
  },
  {
    "province_id": "96",
    "amphur_id": "9611",
    "name_th": "\u0e2a\u0e38\u0e44\u0e2b\u0e07\u0e1b\u0e32\u0e14\u0e35   ",
    "name_en": "Su-ngai Padi"
  },
  {
    "province_id": "96",
    "amphur_id": "9612",
    "name_th": "\u0e08\u0e30\u0e41\u0e19\u0e30   ",
    "name_en": "Chanae"
  },
  {
    "province_id": "96",
    "amphur_id": "9613",
    "name_th": "\u0e40\u0e08\u0e32\u0e30\u0e44\u0e2d\u0e23\u0e49\u0e2d\u0e07   ",
    "name_en": "Cho-airong"
  },
  {
    "province_id": "96",
    "amphur_id": "9681",
    "name_th": "*\u0e2d.\u0e1a\u0e32\u0e07\u0e19\u0e23\u0e32  \u0e08.\u0e19\u0e23\u0e32\u0e18\u0e34\u0e27\u0e32\u0e2a   ",
    "name_en": "*Bang Nra"
  }
]
